{"type": "FeatureCollection", "features": [{"type": "Feature", "properties": {"zone": "limni_i", "name": "Λίμνη Ι", "basin": "Υδρ. Λεκάνη 23.27.08 «Συγκρότημα Υπολεκανών ΝΔ κλιτύων Κανδηλίου Όρους»", "sheet": "data/raw/XARTHS_ERGON_DAS_LIMNHS_4.1.pdf", "table_stremmata": 13403.45, "extracted_stremmata": 12985, "digitised": "user-corrected 2026-08-12 (all 9 zones hand-verified/redrawn in the polygon editor)"}, "geometry": {"type": "Polygon", "coordinates": [[[23.323127762027934, 38.795983976772405], [23.324401973914124, 38.795367070271396], [23.32269257510271, 38.79223577255785], [23.321896174410906, 38.79210005499474], [23.32288581400962, 38.78698668987341], [23.323856787143672, 38.786368030488525], [23.32450925567844, 38.78399953423814], [23.326917227474464, 38.78238405239724], [23.32867977740488, 38.78239419031786], [23.329643715038827, 38.78166307083954], [23.332672104735565, 38.78191762969203], [23.33427174925234, 38.78143357006807], [23.337927827707546, 38.78194752232697], [23.340456925059286, 38.784458951011324], [23.346541167103013, 38.78374399114449], [23.34704923888137, 38.7796328097444], [23.34832414831602, 38.77888454361221], [23.350104648625027, 38.77602899943631], [23.351871513492053, 38.7755456273638], [23.353987615350984, 38.76993879110284], [23.35704488891129, 38.768707081303155], [23.356906634537058, 38.76545379977712], [23.357884911921463, 38.763954652516304], [23.356602145156128, 38.76295498590251], [23.354376435743553, 38.763073812950466], [23.352462842314228, 38.762182986081775], [23.351517549809753, 38.762670930230094], [23.348472817330155, 38.76254162705881], [23.348341790853834, 38.761167470582734], [23.342929879769873, 38.760075889327204], [23.341145754662676, 38.75640129489332], [23.337403916534946, 38.75236599110975], [23.334875826479234, 38.75159624850503], [23.32929081149995, 38.75206376469708], [23.326539466411063, 38.75555018362561], [23.323111290891134, 38.76313416291221], [23.32023932310765, 38.76412883517421], [23.31784858398821, 38.763983807296476], [23.317368703923464, 38.764973616300246], [23.31512128483125, 38.76484809802605], [23.313535045707283, 38.763958553112516], [23.309705028428194, 38.76505970611254], [23.306241421630624, 38.76783598646376], [23.303938963805685, 38.769264389997815], [23.301359818843355, 38.77125294798333], [23.294157824286824, 38.769736369653344], [23.29065976884094, 38.76785483105317], [23.289081673950168, 38.770186300937894], [23.289579768316898, 38.773835135467365], [23.29166122005486, 38.77625125310204], [23.29490431493775, 38.77896151669324], [23.299528662219537, 38.779101695395326], [23.301112559008367, 38.78024736999993], [23.302380593143454, 38.78025494611471], [23.30570717875469, 38.782640782161714], [23.30853414989518, 38.78640322905539], [23.313305294447886, 38.78792339333453], [23.31425722627101, 38.78930240084442], [23.315380600905243, 38.789440086401825], [23.317756832876096, 38.791195726378405], [23.321068925330888, 38.79521665391425], [23.323127762027934, 38.795983976772405]]]}}, {"type": "Feature", "properties": {"zone": "limni_ii", "name": "Λίμνη ΙΙ", "basin": "Υδρ. Λεκάνη 23.27.06 «Χείμαρρος Σηπιάδος»", "sheet": "data/raw/XARTHS_ERGON_DAS_LIMNHS_4.1.pdf", "table_stremmata": 70535.01, "extracted_stremmata": 70062, "digitised": "user-corrected 2026-08-12 (all 9 zones hand-verified/redrawn in the polygon editor)"}, "geometry": {"type": "Polygon", "coordinates": [[[23.281084753310026, 38.89858196031154], [23.28242767971053, 38.89532529735763], [23.284472576821585, 38.89533784601062], [23.285671900870188, 38.894433756798925], [23.289191170011275, 38.893187967013176], [23.29117669888031, 38.89273807754415], [23.294393974828196, 38.89293235833178], [23.295134512961056, 38.892362503190874], [23.29786835326123, 38.891355171879276], [23.30834780743111, 38.88813405396112], [23.313460643039974, 38.88888213605737], [23.315707047692417, 38.88951959176969], [23.317255166654522, 38.88884195633319], [23.32015840698937, 38.88928964125826], [23.321673165329226, 38.88875533502477], [23.324971645692525, 38.884579350096246], [23.32521540912883, 38.88245199475392], [23.3243535642803, 38.880686566798495], [23.32435230464333, 38.878289357265466], [23.32561377737454, 38.874950552100614], [23.327341614686986, 38.87210759318202], [23.329934540373337, 38.87066794396903], [23.33054888744719, 38.86902338740042], [23.332472984461674, 38.869065614208054], [23.33540358275983, 38.86821458820212], [23.33733728201241, 38.86722049623514], [23.337868518745402, 38.865044795692846], [23.33511907087799, 38.86189532360669], [23.335884045325916, 38.85862848121911], [23.334708292796947, 38.85713601794988], [23.332321907744248, 38.85448172123116], [23.329250863805335, 38.85249141917827], [23.326331951245216, 38.84877891571809], [23.323618466870965, 38.84785179368307], [23.321714390556124, 38.84576191751359], [23.321222025664404, 38.83960994635791], [23.319446980001885, 38.839087712779516], [23.319220899844062, 38.83684524575335], [23.319715097153765, 38.834400963004065], [23.316343125682042, 38.8297866052627], [23.315195459736096, 38.8254536461912], [23.312386049198768, 38.82382026755733], [23.312075810348297, 38.82205797984744], [23.313021183943544, 38.817518802778935], [23.31476617239715, 38.81528789257744], [23.314546758562173, 38.809874113141525], [23.31804520440985, 38.80613642573655], [23.321334886797434, 38.80418285685165], [23.32186729647354, 38.80188235670686], [23.322682006385882, 38.800095399248185], [23.323005570035228, 38.79625170942163], [23.315339645638318, 38.78955221699057], [23.312962329407192, 38.78792137752694], [23.308247143395846, 38.78638904490164], [23.29925751475795, 38.77910006992577], [23.294618017869777, 38.77887863249715], [23.289878831345057, 38.77423649318219], [23.28918217556276, 38.77050529602317], [23.28921172221818, 38.767527649931154], [23.287148294743627, 38.76734028421696], [23.282255356056652, 38.767822250970546], [23.28187010761846, 38.76966151630188], [23.278886429972903, 38.77770886047155], [23.276827719828365, 38.77860758965039], [23.27008941819408, 38.7800889440678], [23.26767828125752, 38.78189675846519], [23.263145499535447, 38.782923299820084], [23.259638686613442, 38.78807641327775], [23.252201721675082, 38.795233235695726], [23.248149739510307, 38.796711745242675], [23.243111684873817, 38.797877834268554], [23.2386736940182, 38.8011139742912], [23.233994982977713, 38.800715073116464], [23.232205631482532, 38.80390586964762], [23.22842009007428, 38.80722705514698], [23.22379123254785, 38.815436835130555], [23.238483717911684, 38.82270644490509], [23.242267796917975, 38.824828612568], [23.244707147330157, 38.82659237781058], [23.25804121228061, 38.83366969945196], [23.256874097110586, 38.83768260619542], [23.261311968749506, 38.841550037188306], [23.265772015289606, 38.84175295241287], [23.271755489444324, 38.847558696141036], [23.27148127566824, 38.85174585849869], [23.27345031231231, 38.85595323528349], [23.27479254311362, 38.85664827647252], [23.275212946204523, 38.859279072332036], [23.273306950230445, 38.859841559520184], [23.27328687285486, 38.86181413391521], [23.270678056587368, 38.870200564385364], [23.270891321197233, 38.871993553108965], [23.273961608397972, 38.87397913329689], [23.277566336748933, 38.87998824035043], [23.2765286524433, 38.88544417633407], [23.274603884273784, 38.88699915167186], [23.272077418319206, 38.891933882153545], [23.274132361045865, 38.897227984724154], [23.27905088105619, 38.89905010651187], [23.281084753310026, 38.89858196031154]]]}}, {"type": "Feature", "properties": {"zone": "limni_iii", "name": "Λίμνη ΙΙΙ", "basin": "Υδρ. Λεκάνη 23.27.05 «Χείμαρρος Γεράνια»", "sheet": "data/raw/XARTHS_ERGON_DAS_LIMNHS_4.1.pdf", "table_stremmata": 47037.26, "extracted_stremmata": 46856, "digitised": "user-corrected 2026-08-12 (all 9 zones hand-verified/redrawn in the polygon editor)"}, "geometry": {"type": "Polygon", "coordinates": [[[23.23311030444599, 38.8943251165857], [23.23637596211561, 38.893722251424755], [23.24115675986665, 38.8971119765059], [23.241633471936, 38.8981076582949], [23.244510532310773, 38.897246092266414], [23.251695700472606, 38.89767940629984], [23.254569181176898, 38.899439492072275], [23.257422137147504, 38.90241669743429], [23.26035517758329, 38.90616843055829], [23.26446445863005, 38.90900983296224], [23.266343270356153, 38.91199940505487], [23.26736752683192, 38.91573894835805], [23.270210606370732, 38.91823509041098], [23.27809161588916, 38.914888080857985], [23.277346356506897, 38.90327834784784], [23.27946073682884, 38.90118139013281], [23.27321977686976, 38.896629253409536], [23.2724195695481, 38.89284744666472], [23.27227845523779, 38.890237124348474], [23.274086177502483, 38.88763893178058], [23.27690878986903, 38.88576490821916], [23.277053801142117, 38.88170181084302], [23.277491785054213, 38.879463392283206], [23.2741529278229, 38.87479811692983], [23.270154119577857, 38.87145831831229], [23.271464224704594, 38.86750237763446], [23.273523645547726, 38.862870626199744], [23.273204938832787, 38.85966612860846], [23.27524551486709, 38.85843026423591], [23.272939180547574, 38.8559687829001], [23.27126240169422, 38.85363603955759], [23.271211022722497, 38.85006487843786], [23.270551836803918, 38.8466022903255], [23.265261946967474, 38.84167483243656], [23.260867440602937, 38.84131000133219], [23.256994986208106, 38.83757100586062], [23.257643791823025, 38.834278963474446], [23.253329258618606, 38.83165448521613], [23.249693508727873, 38.829021723504844], [23.245437299399743, 38.82697790358073], [23.243677667857774, 38.82508121548898], [23.23875749372415, 38.82397550704329], [23.234971494930853, 38.822046738534574], [23.229469876581543, 38.81790909712198], [23.223727876150555, 38.81539271493567], [23.218944679117847, 38.81863828008372], [23.207633724068177, 38.824005786165564], [23.204574973765716, 38.830664725360165], [23.19979355192027, 38.83144362614624], [23.196781349129704, 38.84096807528882], [23.192870027599966, 38.84662198317045], [23.18771183120894, 38.85726124681381], [23.18575405037976, 38.86791012917814], [23.190408178104747, 38.87083909015987], [23.191593721592753, 38.86698932316409], [23.19510188226945, 38.86816845072265], [23.204274776124453, 38.86478534310132], [23.206360687988262, 38.8631826780727], [23.211007335903115, 38.86539286164907], [23.21584387773769, 38.86851556902237], [23.219817561941507, 38.87025267994579], [23.22269458186277, 38.87298119245766], [23.225584735699528, 38.87672727892813], [23.22505674276671, 38.87975147924133], [23.228168023238844, 38.88745682489832], [23.22860826352654, 38.89032512218774], [23.230278618915865, 38.89320153180356], [23.23311030444599, 38.8943251165857]]]}}, {"type": "Feature", "properties": {"zone": "limni_iv", "name": "Λίμνη ΙV", "basin": "Υδρ. Λεκάνη 23.27.07.01 «Χείμαρρος Βούδουρου – Νηλέως»", "sheet": "data/raw/XARTHS_ERGON_DAS_LIMNHS_4.1.pdf", "table_stremmata": 206827.4, "extracted_stremmata": 188466, "digitised": "user-corrected 2026-08-12 (all 9 zones hand-verified/redrawn in the polygon editor)"}, "geometry": {"type": "Polygon", "coordinates": [[[23.34992782253662, 38.94455706537814], [23.350416167254252, 38.94447862958375], [23.3550959402206, 38.93705084612419], [23.360865784320755, 38.930946039214824], [23.36917045567553, 38.93358816227975], [23.370194723599155, 38.93074079251565], [23.36827919145198, 38.92774020208753], [23.372243664418175, 38.92134411386586], [23.371758275138372, 38.90025992703802], [23.374217749403083, 38.90220837247479], [23.37803178464431, 38.901841703592424], [23.380840615953126, 38.904066549020165], [23.386945766686914, 38.9057780509583], [23.39027926724009, 38.9046281204575], [23.39343384512226, 38.90477564774718], [23.394941002703888, 38.90322903370887], [23.39172172029515, 38.891944210897684], [23.394554565749047, 38.89040449586306], [23.40202244058083, 38.88954402433854], [23.404682533605484, 38.88760988556559], [23.405534996891088, 38.883082007040706], [23.405220500726088, 38.88152596537875], [23.40696232494729, 38.87183360799956], [23.410304189193322, 38.86847320385646], [23.41033946064342, 38.864203340676845], [23.425903701240127, 38.84612691818533], [23.422154309634692, 38.84679513609656], [23.420129702160196, 38.84641677954087], [23.409186384121007, 38.83757211411098], [23.4161830815536, 38.83311248523029], [23.41715290481698, 38.829677550943344], [23.42417594348641, 38.82476184099998], [23.42373439555042, 38.82112635441125], [23.425225963512837, 38.81823704090587], [23.429483672948315, 38.81867617695465], [23.431719703233973, 38.81545329963575], [23.435443966536482, 38.81471597413057], [23.45165214431619, 38.81445605367437], [23.45323701709391, 38.81380798525701], [23.45589279930751, 38.8139826961609], [23.458665411433483, 38.812428627434066], [23.46122122505223, 38.813158364863284], [23.467075764725386, 38.81238613350352], [23.472816664970917, 38.816189083200584], [23.471250815390054, 38.808884148907424], [23.471966588394817, 38.803793237658155], [23.470985370280246, 38.800542526485536], [23.46825217233552, 38.80011185095536], [23.46722439433207, 38.79564354136975], [23.453601004236653, 38.79018057992792], [23.454491424600896, 38.783242695497336], [23.4542189586787, 38.77294695596979], [23.456695257362835, 38.76714638705524], [23.457365174541884, 38.76292307656598], [23.45474485147134, 38.7604324622354], [23.45314451816477, 38.76117413087304], [23.453714127589667, 38.75653209530323], [23.458857569704172, 38.74902086018665], [23.459185989897463, 38.74670002567305], [23.456765613381293, 38.74419164726019], [23.454244325659076, 38.743443242763725], [23.454992147918357, 38.74154264920888], [23.456706947512235, 38.73930943150339], [23.455645218858553, 38.7384679444246], [23.453456239231674, 38.735979300903544], [23.445842718123547, 38.73205413393457], [23.42623475147764, 38.728226296230254], [23.404737021258217, 38.728618251957734], [23.39063936849904, 38.732260145300266], [23.38359202571804, 38.73894678630307], [23.375768934120973, 38.74119016873683], [23.370832312388213, 38.745102956528044], [23.36779685014584, 38.74581075279427], [23.366812722755544, 38.74892685943755], [23.364770934557942, 38.750832340921534], [23.365158204976556, 38.75301320316191], [23.364131840741234, 38.75547355345053], [23.3612426774398, 38.75670637228584], [23.356552460613123, 38.75960854560615], [23.35670150844427, 38.76165702054105], [23.35636681783187, 38.76252293385858], [23.357821964530288, 38.76386066399986], [23.356995743724994, 38.76529821891964], [23.357084926302438, 38.76868857301978], [23.35386003143717, 38.76993808584969], [23.35191155604291, 38.77552712091884], [23.350167709588668, 38.77611050688607], [23.348260178014367, 38.778902915375596], [23.34708968339108, 38.77957060743575], [23.346319448398553, 38.7835679521752], [23.340583614558977, 38.78455955104125], [23.337863563429522, 38.78199710081433], [23.334230712152713, 38.78155819271587], [23.332671639286936, 38.78196756959475], [23.329722415773045, 38.781775892993174], [23.328966304643526, 38.782458264052316], [23.32690174628055, 38.78233402068985], [23.324756908719145, 38.78395726571708], [23.324081464475505, 38.78622574550039], [23.322910213880743, 38.78693688874983], [23.32197576111921, 38.792119245211076], [23.32271638624442, 38.79224839617693], [23.32454526135858, 38.79539911261516], [23.322784934878932, 38.79596326206499], [23.32282695663883, 38.799952654992545], [23.32170249119277, 38.801594231533784], [23.321703343252647, 38.80402892647289], [23.318519591537537, 38.80575214044921], [23.31448305117068, 38.8098612538159], [23.314799308699964, 38.81599352097219], [23.31308549750864, 38.81746923870175], [23.312276498342126, 38.82276459452656], [23.312876185329337, 38.824303844542534], [23.315792594646858, 38.82560072852433], [23.316251302388157, 38.82687069604422], [23.316423409335133, 38.82973713293479], [23.320171268413866, 38.834272520559665], [23.318740759372734, 38.83613701499182], [23.31888711754355, 38.837530003444535], [23.31952697484231, 38.839069450519624], [23.32190106356547, 38.83955146246779], [23.321021718133913, 38.84136923908857], [23.32141687049603, 38.84514840007637], [23.322964955809308, 38.847735638259145], [23.326150468177502, 38.848553130005556], [23.32882035965497, 38.85242651879311], [23.332139924350976, 38.85430588402436], [23.335627547744355, 38.85787789373308], [23.335387780140813, 38.86133500669833], [23.33827214398969, 38.86629562976069], [23.334008963011293, 38.86876848943451], [23.330918480209554, 38.868782038978054], [23.330206974379447, 38.870569623105744], [23.328185482913575, 38.87153811996594], [23.326864708912822, 38.87271663219337], [23.32615158764235, 38.87466024865951], [23.32499120482335, 38.875758508792245], [23.324818318384285, 38.87714963540197], [23.324110180817286, 38.87855639295957], [23.325414145464062, 38.88339579227733], [23.323395059987075, 38.88490733228139], [23.323467516490503, 38.88737362128552], [23.320773129235505, 38.88932443200868], [23.318034223390118, 38.88839703408788], [23.315564654334526, 38.88937517512537], [23.31356615886127, 38.88870796072711], [23.308371284551065, 38.88818413461803], [23.302636397934076, 38.889798099440185], [23.294435827488353, 38.89273908778914], [23.292394712022762, 38.89396278950445], [23.294997137915328, 38.90060202187471], [23.29390368207692, 38.902917692265355], [23.295796529340457, 38.90459591934593], [23.295358150275504, 38.90691555082666], [23.295659921434765, 38.90790995721505], [23.299576862175034, 38.909338122844424], [23.300718215015646, 38.91190446087026], [23.299820009948856, 38.91630640311848], [23.304042719698234, 38.91839173213107], [23.30517621625906, 38.92179449379727], [23.315611797505586, 38.92939727296821], [23.325461299362434, 38.93244483506626], [23.33163213670236, 38.929827198106054], [23.33884638889667, 38.93012422862491], [23.341968905857755, 38.93817617597402], [23.347125829899728, 38.94151998285596], [23.350072104689826, 38.94451417026576], [23.34992782253662, 38.94455706537814]]]}}, {"type": "Feature", "properties": {"zone": "limni_v", "name": "Λίμνη V", "basin": "Υδρ. Λεκάνη 23.27.02 «Συγκρότημα Χειμάρρων Ασμηνίου-Βασιλικών»", "sheet": "data/raw/XARTHS_ERGON_DAS_LIMNHS_4.1.pdf", "table_stremmata": 65103.24, "extracted_stremmata": 63700, "digitised": "user-corrected 2026-08-12 (all 9 zones hand-verified/redrawn in the polygon editor)"}, "geometry": {"type": "Polygon", "coordinates": [[[23.376719719645752, 38.96232619950506], [23.384227547234968, 38.96236605267318], [23.38874251124225, 38.95989272886766], [23.392907416707665, 38.95905298199882], [23.40201302156161, 38.95921235770488], [23.402830306699748, 38.957100283634865], [23.405712331784756, 38.95761440596204], [23.407462585601408, 38.95674309067805], [23.4109883675446, 38.95676093691054], [23.41053310894453, 38.954773474219834], [23.412781014927365, 38.953648641679486], [23.414539833219592, 38.9536574771438], [23.41626730098543, 38.9555389266298], [23.41677321417257, 38.95429292423681], [23.418532049640653, 38.95430169966627], [23.419465239931437, 38.95555487652982], [23.42108350880306, 38.95319070389819], [23.423481885676722, 38.95320257497433], [23.425071726398645, 38.954334095849866], [23.42534829469488, 38.95572757087428], [23.42603805859342, 38.95644887057311], [23.427341581988543, 38.95541899209053], [23.42956376141227, 38.95448098937294], [23.42844547741278, 38.95335808226904], [23.4284534489883, 38.95236553798248], [23.430217238379168, 38.951749895084994], [23.429269970591186, 38.95024078490076], [23.429446920392103, 38.9481129006928], [23.430088392079956, 38.94787257043256], [23.430576018800636, 38.94587729611113], [23.43218080019865, 38.94512975049284], [23.431077609059937, 38.94413179395673], [23.431091527666677, 38.942390155957334], [23.432582195922592, 38.94090541220705], [23.431986987487207, 38.938361747743585], [23.429476015649563, 38.93750049818941], [23.427176539979346, 38.93718334575924], [23.426970274059283, 38.935003638104], [23.428638798926425, 38.93126620655376], [23.42729791661585, 38.93004231233258], [23.425009960858578, 38.92436894670984], [23.424209404534363, 38.91663030078521], [23.425341480692747, 38.906054491845744], [23.4286668057607, 38.89787412368599], [23.430584643437125, 38.895804665129646], [23.43214984165692, 38.89486963579329], [23.43175851706221, 38.892851331600134], [23.434909187657514, 38.89041322851324], [23.43914574537797, 38.88597009848501], [23.441971336195184, 38.88519705001392], [23.44243645033984, 38.88393823847823], [23.44635698504268, 38.88305793662119], [23.443365556328985, 38.882581753462105], [23.442291028079037, 38.88108461160372], [23.437817620427303, 38.88017045047633], [23.438892898393092, 38.873433456212744], [23.444080905132687, 38.86457482561134], [23.45295250592246, 38.85307383651117], [23.469912114704158, 38.83555985807967], [23.46498316472869, 38.829725342876436], [23.46356302186264, 38.82221497813925], [23.461606373146893, 38.81817312169244], [23.461636403813667, 38.81418410081145], [23.46068456316193, 38.81343057300345], [23.458769278603935, 38.812410380150574], [23.455891469506845, 38.81415748883618], [23.453333147152613, 38.81375849253074], [23.452226256888693, 38.81450868917333], [23.449180211324325, 38.81423841352537], [23.447107841406012, 38.814977763109134], [23.443275810151107, 38.81522176505406], [23.434033196677042, 38.81451562181042], [23.431054401714796, 38.81583087323448], [23.429681667747705, 38.81886442777232], [23.42535298309391, 38.818318822172], [23.423973538215293, 38.82115874770718], [23.423943611984054, 38.824873066040894], [23.41754070593438, 38.83007902365784], [23.416249530964187, 38.83279443513092], [23.40910667116855, 38.83755922537502], [23.41175053735093, 38.84024447839772], [23.419540915618096, 38.84617662983177], [23.421842328780194, 38.84687474842948], [23.425984179316156, 38.846046157598344], [23.4209328590225, 38.850740761872615], [23.417828680969173, 38.85448972030214], [23.41484173128878, 38.857533748361966], [23.41498816235574, 38.85915135670946], [23.413859389593444, 38.8595140204126], [23.413540612578494, 38.86138524748509], [23.410159528412553, 38.86375295392234], [23.409807441614944, 38.86674145323123], [23.41091481546906, 38.86898819069937], [23.408181534065694, 38.87022292165348], [23.408025321408367, 38.87172663148547], [23.406563719400232, 38.87271181005193], [23.40506451806084, 38.881075694048974], [23.40633886179758, 38.88246182314181], [23.40534513472754, 38.88669558072623], [23.404370406967068, 38.887683206656455], [23.402609978361912, 38.88806126307939], [23.401156549668368, 38.88992663590761], [23.394931196605654, 38.89026286542574], [23.392022644399635, 38.89225167126401], [23.392163783695963, 38.89537376436625], [23.394714664991753, 38.89601128655505], [23.39583888640687, 38.9038080121398], [23.39396059604562, 38.904840810058], [23.39056356585507, 38.90501665239095], [23.38690399514553, 38.90599008351233], [23.38030383247107, 38.90423849701411], [23.378188075396604, 38.90224206909335], [23.374807114038436, 38.902417538858515], [23.37150925360563, 38.90041465454406], [23.372409320447684, 38.905257589873806], [23.37243722060709, 38.91116333062385], [23.371975461209438, 38.9146005706421], [23.372282354105753, 38.92148790359099], [23.369059491255307, 38.92446077410382], [23.36839934300048, 38.92770963883201], [23.370440599207477, 38.93095436960542], [23.369590069323323, 38.93403990121214], [23.36719125239259, 38.934151775466916], [23.365687367217745, 38.933394493266455], [23.36466939453647, 38.931928173008814], [23.360850192470085, 38.9309022551642], [23.35960819922571, 38.932143982181934], [23.356689816295578, 38.933151733352325], [23.35505173147721, 38.93487191270679], [23.355181189508983, 38.93911139491803], [23.356119902279005, 38.94137641882365], [23.355775236088373, 38.94324731386415], [23.358679073149833, 38.942127140821846], [23.36218341876628, 38.941778024811974], [23.365528592410545, 38.94403736939802], [23.36598241598513, 38.946037485069006], [23.36853043340053, 38.947174975230226], [23.368192312127935, 38.95104358962388], [23.369791166044294, 38.95105223327263], [23.3705850724485, 38.95168078211218], [23.371832975661885, 38.95431565983487], [23.374375949397468, 38.956071016732686], [23.374996839160456, 38.958203085114825], [23.376584916791234, 38.95946010714679], [23.376719719645752, 38.96232619950506]]]}}, {"type": "Feature", "properties": {"zone": "istiaia_i", "name": "Ιστιαία Ι", "basin": "Υδρ. Λεκάνη 23.27.01 «Χείμαρρος Ξηριάς Ιστιαίας»", "sheet": "data/raw/XARTHS_ERGON_DAS_ISTIAIAS_4.2.pdf", "table_stremmata": 91751.45, "extracted_stremmata": 91558, "digitised": "user-corrected 2026-08-12 (all 9 zones hand-verified/redrawn in the polygon editor)"}, "geometry": {"type": "Polygon", "coordinates": [[[23.17009122173222, 38.94097298998493], [23.173438367400742, 38.94046611862112], [23.173756796615887, 38.94126742627219], [23.173851769920006, 38.94341555351461], [23.174858168263423, 38.944864712929295], [23.17657864101881, 38.94540124111464], [23.18104689577038, 38.94543267714127], [23.18586486734561, 38.94494200326801], [23.189162760962493, 38.94736211883948], [23.193380804927045, 38.94973232026869], [23.195997770246766, 38.950193600945354], [23.199788972938375, 38.95003237665513], [23.21526306143265, 38.950324718035475], [23.216249917698914, 38.95363368706389], [23.217964955444437, 38.95471267622558], [23.218605023029255, 38.95758231735748], [23.22005924527573, 38.96204301696611], [23.222476578674026, 38.964000593761696], [23.22519066161476, 38.965154796210165], [23.2262363027697, 38.96900092792953], [23.225674993321704, 38.969877410143724], [23.22646710795376, 38.972042598809125], [23.227476879701026, 38.9733165327574], [23.229465243069967, 38.973585624438286], [23.230482875131027, 38.97266219366358], [23.232204204209665, 38.972480011174376], [23.232968951987562, 38.97349633944342], [23.234966140187176, 38.97294761636472], [23.23602776495768, 38.9716436272142], [23.239104056498668, 38.97337419527019], [23.24041362530991, 38.97355751903674], [23.24195916174462, 38.973361563116335], [23.241919567052193, 38.972574739434165], [23.242961146491044, 38.97163886942901], [23.247436206959804, 38.97118713364209], [23.2480946118157, 38.97093543120808], [23.250184213655572, 38.96918846351539], [23.25133170611409, 38.967291837826274], [23.25312737658486, 38.96610476395528], [23.25570498067605, 38.966601911582984], [23.25833763664826, 38.965657310918395], [23.260261101559053, 38.96600661923996], [23.261180635701436, 38.96678028435669], [23.266721689046452, 38.9660473908081], [23.27041355101879, 38.96784342897643], [23.27733238457922, 38.96923488046618], [23.279890776020075, 38.96770877090996], [23.28488301673433, 38.96667198173039], [23.286973850865305, 38.964699623981126], [23.289178263126974, 38.96335218109654], [23.29148081229475, 38.962579612565584], [23.294050198550494, 38.96230802211717], [23.29645518173164, 38.961679554809116], [23.297667625913284, 38.959545638433504], [23.298814690540873, 38.95511402949188], [23.299278067264247, 38.95433648395675], [23.301945266631144, 38.953840570792714], [23.30559202817994, 38.95373122895654], [23.30881877220474, 38.953238486091905], [23.310941690143416, 38.951971298613074], [23.31242095413671, 38.94946424020018], [23.316468837770465, 38.94835185510892], [23.32015102996988, 38.94701246454396], [23.328278790970256, 38.94132877186918], [23.330137153746552, 38.93582094593864], [23.330287930122637, 38.93338717473486], [23.329009775999438, 38.93161940505402], [23.326302567542445, 38.93222807878856], [23.32225946411968, 38.932111035657044], [23.31791038513911, 38.93056249655542], [23.31426122317717, 38.92855595233779], [23.311267866417527, 38.92652195158199], [23.308288228686287, 38.92556169294521], [23.305465641177666, 38.92243608902092], [23.30424246207154, 38.920031622596134], [23.304699626407576, 38.9190417622852], [23.301279536421813, 38.91740449278367], [23.298994089549797, 38.91578642677474], [23.299261121969938, 38.91382158888167], [23.300763767833963, 38.9113335290733], [23.294733316032676, 38.90788875704847], [23.295487335889312, 38.90435371095441], [23.294017300617107, 38.90354576868876], [23.294328784935047, 38.90274858852219], [23.295519104558334, 38.90113892172268], [23.29604621194307, 38.899537731002084], [23.294011249123276, 38.89770258061515], [23.29300244287458, 38.89631684301851], [23.292375177573625, 38.89351631878805], [23.29150118285249, 38.89304281729854], [23.28899595012863, 38.893539490442684], [23.287219128910326, 38.89468355518925], [23.285391026971222, 38.895359077204276], [23.282521618624468, 38.895516276509866], [23.281630812928604, 38.89671563761957], [23.28081299577576, 38.898595893494104], [23.279035412954258, 38.8997897686011], [23.27812363657117, 38.90304905566647], [23.277582183264155, 38.90602346248915], [23.277690183464127, 38.90955748238489], [23.27922573895067, 38.90941090534999], [23.27789586363004, 38.911337915068714], [23.277941756125212, 38.91311735877818], [23.27837351214451, 38.91466820902446], [23.277560079377036, 38.91608650552991], [23.274455608190692, 38.9172720873513], [23.270948184425503, 38.91799935637183], [23.269251607801085, 38.917464366173], [23.26831996588035, 38.916366065887836], [23.266926945450724, 38.91584542929682], [23.26620303678621, 38.91475465883915], [23.265935329433926, 38.91281775101484], [23.263477226884827, 38.90866962679689], [23.261878119638943, 38.907236200405045], [23.259981863093145, 38.905956935696516], [23.256588311053452, 38.90193382716444], [23.255136838777496, 38.899396294644525], [23.254281808138924, 38.898654201610604], [23.25062480515194, 38.89771935843743], [23.24337961762007, 38.89767263523741], [23.241308317169658, 38.89788393121029], [23.239872252705315, 38.8962077982291], [23.237160559422605, 38.89430482708002], [23.234095705065876, 38.89406002799089], [23.231801368220665, 38.89421975116513], [23.23043321665651, 38.893680115179215], [23.228734021972723, 38.891252989976756], [23.227215958421517, 38.883914050560286], [23.226317820460334, 38.88203529908304], [23.224794490181548, 38.875220669352686], [23.22344346495149, 38.873145363121814], [23.220175418607738, 38.87038928789916], [23.2168368695555, 38.86898731269371], [23.214290100904233, 38.86748444580261], [23.211290033756466, 38.86654654825494], [23.21042126453323, 38.86567918626186], [23.207506781604767, 38.8642361119613], [23.206182088979727, 38.8641646888536], [23.204208361718138, 38.865012748904384], [23.201931569626392, 38.86510958170299], [23.201041833929462, 38.86612729997875], [23.199866377491496, 38.86698698682671], [23.197074784831994, 38.8674110590925], [23.1961026734707, 38.867935000303184], [23.193403862750813, 38.86791639238199], [23.190341601165844, 38.866852674358334], [23.187999092561068, 38.865700242236244], [23.18440454540635, 38.86721089612905], [23.178229917928917, 38.868085286984794], [23.17470063194556, 38.87013921251662], [23.17413783133749, 38.8711590331285], [23.17373720467907, 38.875413703449304], [23.175044505906325, 38.87769527803969], [23.175716907316048, 38.879635253619035], [23.1757858943717, 38.88265094869904], [23.17781404705664, 38.884775266670964], [23.18055292494129, 38.886923266746976], [23.18152154235082, 38.88812865110054], [23.181853137656287, 38.8912523048566], [23.184265276508913, 38.896856358001585], [23.184385752273386, 38.9009898346326], [23.183570656591407, 38.90379957191991], [23.183006205479636, 38.90495051294009], [23.186263503101625, 38.906558891774104], [23.18625074702651, 38.90767623597819], [23.185107230286647, 38.90916025164425], [23.183377456023905, 38.91020317174459], [23.18261066105088, 38.91436164438243], [23.183039335674827, 38.91809149639555], [23.180278790875462, 38.91980135418053], [23.179324344024874, 38.920799711532204], [23.17912301219495, 38.92232149665825], [23.177100013342947, 38.92519134588283], [23.17531014797966, 38.92723877969671], [23.174427926868383, 38.927507219112314], [23.173248955076467, 38.92855387762833], [23.17384276812543, 38.931791755992556], [23.173653235641268, 38.934349885174235], [23.17327277408581, 38.93545213311904], [23.171378708034798, 38.937492521038116], [23.168176193306124, 38.93999799790512], [23.167678645950627, 38.94221681714794], [23.17009122173222, 38.94097298998493]]]}}, {"type": "Feature", "properties": {"zone": "istiaia_ii", "name": "Ιστιαία ΙΙ", "basin": "Υδρ. Λεκάνη 23.27.02 «Συγκρότημα Χειμάρρων Ασμηνίου-Βασιλικών»", "sheet": "data/raw/XARTHS_ERGON_DAS_ISTIAIAS_4.2.pdf", "table_stremmata": 48516.67, "extracted_stremmata": 37676, "digitised": "user-corrected 2026-08-12 (all 9 zones hand-verified/redrawn in the polygon editor)"}, "geometry": {"type": "Polygon", "coordinates": [[[23.23975181702146, 39.008517851470174], [23.242245680227626, 39.011748989723394], [23.23732272274955, 39.023115793842564], [23.24294363588694, 39.02283403734588], [23.246246331500682, 39.023061427550644], [23.248779442805553, 39.022659517014525], [23.255918523942128, 39.02259290529488], [23.260352170919365, 39.02641656592821], [23.26321394907046, 39.027508392894404], [23.267512358319813, 39.03054436653083], [23.268622839089776, 39.03229300216139], [23.27469092883676, 39.03295514424778], [23.27740995932392, 39.03396458262304], [23.27773982083367, 39.03222495742531], [23.280500576866835, 39.02912074788091], [23.281463517422104, 39.02887073894687], [23.283242125498703, 39.02551694876484], [23.285027091398824, 39.023898597076276], [23.28856350301271, 39.02318359659451], [23.289203244382986, 39.02243214749643], [23.296410094135133, 39.02198267431039], [23.296776581078202, 39.01810825604292], [23.295511782814653, 39.01573469482275], [23.295364876564033, 39.013605093790936], [23.296350339843237, 39.01186312344358], [23.296077962330447, 39.00785999435192], [23.297049086226192, 39.005131603098306], [23.296429433687265, 39.00387935333661], [23.296797046938654, 38.99988007799186], [23.29857293116055, 38.99827393932965], [23.29954148455058, 38.99578272489022], [23.301152373385534, 38.99466871898237], [23.301497638971245, 38.99291037700781], [23.30408593824565, 38.99081584749046], [23.30523014781277, 38.98669006952365], [23.29164789056977, 38.983537053983746], [23.31342879185219, 38.98337383565824], [23.314269458451953, 38.979140051163355], [23.31348907275037, 38.97713158616395], [23.313670766737406, 38.97487907315498], [23.31481991733667, 38.972644728373005], [23.315937450925098, 38.972027023011854], [23.316310856637173, 38.96729106550425], [23.31518588352824, 38.967028522362696], [23.315206376865344, 38.96489990926045], [23.31682584859717, 38.962793151409016], [23.31799875482789, 38.958049372541886], [23.32361535802583, 38.95596580519846], [23.32473409492915, 38.954342955649004], [23.323485509464405, 38.951963523712486], [23.323669940998297, 38.95022289657031], [23.32208652024388, 38.94859686720778], [23.32273235501271, 38.94709613988458], [23.321785000666384, 38.94584211069699], [23.321131163988447, 38.94734278653185], [23.31825912726789, 38.94756326754337], [23.315989159936798, 38.949185558628095], [23.31279048638547, 38.949279137352384], [23.310538336174613, 38.95151944706245], [23.30572834408195, 38.95287055686253], [23.30427715177766, 38.954110441728226], [23.298847777562436, 38.95419031942871], [23.29624073249947, 38.95830100400358], [23.294468160406204, 38.95966992157024], [23.291416464083657, 38.96101232489504], [23.284488204167605, 38.9669692071289], [23.28032527571671, 38.967443018964865], [23.276763573623228, 38.97091061742974], [23.271656004105903, 38.96833187025309], [23.266982590812724, 38.966336189664204], [23.258724938579718, 38.96609051121989], [23.25494236938842, 38.96688420516229], [23.250682433062593, 38.9681990903822], [23.247431252681015, 38.971655296275735], [23.247105778417005, 38.97520523189647], [23.245401083265275, 38.98511993077157], [23.24388369802111, 38.987157673868694], [23.242462313460337, 38.991437103188645], [23.244510989174845, 38.993610315314264], [23.241605893677036, 38.9967314807616], [23.24089641757572, 38.999492323064786], [23.24143512278017, 39.00298541827215], [23.240927708448513, 39.00629691608235], [23.23975181702146, 39.008517851470174]]]}}, {"type": "Feature", "properties": {"zone": "istiaia_iii", "name": "Ιστιαία ΙΙΙ", "basin": "Υδρ. Λεκάνη 23.27.01 «Χείμαρρος Ξηριάς Ιστιαίας»", "sheet": "data/raw/XARTHS_ERGON_DAS_ISTIAIAS_4.2.pdf", "table_stremmata": 40046.65, "extracted_stremmata": 28170, "digitised": "user-corrected 2026-08-12 (all 9 zones hand-verified/redrawn in the polygon editor)"}, "geometry": {"type": "Polygon", "coordinates": [[[23.173578903468044, 38.940754273463], [23.169903530212054, 38.94130251325507], [23.169231949810317, 38.947477907443314], [23.169226283919286, 38.95207241511127], [23.168164164699586, 38.95675927573997], [23.1676834190746, 38.962998429564216], [23.1708713927591, 38.96526220711605], [23.16854734862868, 38.96775518775695], [23.169502947280197, 38.973573825125236], [23.167267970723003, 38.9786768005783], [23.168652031010712, 38.98342477156281], [23.166938516894835, 39.006784635082866], [23.17585454087829, 39.00445082444008], [23.181149024308972, 39.002534188690674], [23.18591628125229, 39.00331665452221], [23.193103394845526, 39.00307942429882], [23.198031740436093, 39.002364298598394], [23.20363716329284, 39.00190328955794], [23.20554554482724, 39.003664213185665], [23.205724640558664, 39.00267286744268], [23.208126040278557, 39.00255809715722], [23.211938548775258, 39.00433182457893], [23.216302426866296, 39.00110884933042], [23.21804634798757, 39.00112055009496], [23.219849777053927, 38.997898978590754], [23.22322046463139, 38.99691641547752], [23.22532628067489, 38.99380913463869], [23.227738142016708, 38.992701460851464], [23.228086430751745, 38.99083099538966], [23.22954781643685, 38.988843031695694], [23.2327659980283, 38.98711631605245], [23.235826872507428, 38.98438342567793], [23.238564751826395, 38.98340875331252], [23.23743848457353, 38.98327030453942], [23.212950739175017, 38.98879468967989], [23.20178443535469, 38.9880758541087], [23.211288857532566, 38.981417237214586], [23.23227170128215, 38.973635334026504], [23.23005836535659, 38.97198519415076], [23.229912071624813, 38.969986600220786], [23.228481978233226, 38.969864787981095], [23.22692766668238, 38.96572190615479], [23.22454795127556, 38.96396443450461], [23.223422020883206, 38.96382585339762], [23.222468216738573, 38.96257098371514], [23.219280985900333, 38.961557133521076], [23.219470800404366, 38.95956077198597], [23.218672271261088, 38.957283122751534], [23.218555445823558, 38.954816512903626], [23.215869905813904, 38.95329403405078], [23.21509519705942, 38.95104773164486], [23.213006429166036, 38.950521772727946], [23.21271080765935, 38.94978315154329], [23.21220973000588, 38.95027293649565], [23.205009640531646, 38.95072352569673], [23.199587371369212, 38.95018705936854], [23.1916116201778, 38.9499448139523], [23.187969516202436, 38.947547344103064], [23.185523371273455, 38.94474610015244], [23.17600160646658, 38.9455282635479], [23.173578903468044, 38.940754273463]]]}}, {"type": "Feature", "properties": {"zone": "istiaia_iv", "name": "Ιστιαία ΙV", "basin": "Υδρ. Λεκάνη 23.27.02 «Συγκρότημα Χειμάρρων Ασμηνίου-Βασιλικών»", "sheet": "data/raw/XARTHS_ERGON_DAS_ISTIAIAS_4.2.pdf", "table_stremmata": 43942.68, "extracted_stremmata": 43953, "digitised": "user-corrected 2026-08-12 (all 9 zones hand-verified/redrawn in the polygon editor)"}, "geometry": {"type": "Polygon", "coordinates": [[[23.309158703346682, 39.03180349271927], [23.311133833835193, 39.03611004529349], [23.315232332239535, 39.03856252685087], [23.317388961802404, 39.03820685741865], [23.319318626885966, 39.03647646383923], [23.32269214486014, 39.035247591408535], [23.32480441858645, 39.031127268328774], [23.32674971561575, 39.02939683905215], [23.32943873137454, 39.02941232744866], [23.331048101668905, 39.026793450634614], [23.331830926694987, 39.024400793681835], [23.33382590796751, 39.02330726943703], [23.334592478319152, 39.02092698444195], [23.33559741191988, 39.020433306695054], [23.336883610952253, 39.01895489342536], [23.338031720288996, 39.0168326971063], [23.34005306142766, 39.01631353032912], [23.34052660411015, 39.017883093745965], [23.342266358480032, 39.018392321013074], [23.34332054196439, 39.017755274744424], [23.34358429338405, 39.01605877913831], [23.34455546016139, 39.017475061042646], [23.34594183402656, 39.01812582682803], [23.34721446172319, 39.01809549931408], [23.349193714469596, 39.01692671091843], [23.3485183048789, 39.014663128788094], [23.351106205437524, 39.012548832031044], [23.351499610114708, 39.01152723624487], [23.35426275548539, 39.010356471794424], [23.356483479061644, 39.009875577707625], [23.35731707388609, 39.010598069743445], [23.358993386094276, 39.01103803009127], [23.36135508602405, 39.01089491732019], [23.362552108467106, 39.01035835878237], [23.363747599246302, 39.009097639485766], [23.36613155726742, 39.009141828757215], [23.366166701611622, 39.007893502087995], [23.37624935849965, 39.00683041774334], [23.376771405572402, 39.002956556314686], [23.378552510461795, 38.998727331625616], [23.378263819181555, 38.996977864996154], [23.376974477070714, 38.996221875196184], [23.375105818534134, 38.99221037235729], [23.37624369214875, 38.98833979976751], [23.37354345535567, 38.98795702037595], [23.37225873706454, 38.986701593730494], [23.37227202312335, 38.985197195328766], [23.37067892214281, 38.98445198603395], [23.370698927038436, 38.98219226693162], [23.373486679931318, 38.97534038362527], [23.377066896203722, 38.96924801534044], [23.38077302685284, 38.96515384171549], [23.376342484301365, 38.963401039575935], [23.375161739366256, 38.95945561799635], [23.370003170872888, 38.951487241929165], [23.367997151326392, 38.951413970698454], [23.368216706910477, 38.94739489177096], [23.366117725233728, 38.94610376782685], [23.36385170341986, 38.94293889896069], [23.3609252056026, 38.94213633847537], [23.35273230579632, 38.94646729526101], [23.347464415146824, 38.94208059365922], [23.344601053678865, 38.94139034509861], [23.342316443307723, 38.93949221366161], [23.342054284746975, 38.937586726158145], [23.338808301833083, 38.931644101470226], [23.339823914554728, 38.92985820490238], [23.33295787421019, 38.929931542181194], [23.329222095834094, 38.93113994040558], [23.33076824027998, 38.93415777626549], [23.32971690414217, 38.93885870619915], [23.326466521399155, 38.94277910865251], [23.322398666531907, 38.94603919666832], [23.3240970578278, 38.95070605387481], [23.323763060294887, 38.95556713255237], [23.318462984011166, 38.958832412870365], [23.315675062799553, 38.96522103204576], [23.317118778434285, 38.96809485087178], [23.31517333114443, 38.97248449488446], [23.313587482333773, 38.983505863842886], [23.31969792615051, 38.98603868757085], [23.321767735089498, 38.99042055478066], [23.316598018295736, 38.99232559536731], [23.31463586389847, 38.99588484816002], [23.312165539570326, 38.99737477508313], [23.31010666185665, 39.00014681197723], [23.31254845229493, 39.00410029269677], [23.310329381498185, 39.00687138578683], [23.313966921776068, 39.010482311425115], [23.315837757054965, 39.01644870857673], [23.310897743168333, 39.021682113705126], [23.313584792487568, 39.026835579833644], [23.307637105247245, 39.027792996919736], [23.306591766047397, 39.0299342253562], [23.309158703346682, 39.03180349271927]]]}}]}