{"type":"FeatureCollection","attribution":"NASA VIIRS/NPP VNP64A1 v002 burned area (500 m, tile h19v05, August 2021), courtesy of NASA EOSDIS LP DAAC — satellite estimates, not official οριοθετήσεις; mainland tile only, Rhodes and Grevena not covered","source":{"product":"VNP64A1.002","tile":"h19v05","file":"VNP64A1.A2021213.h19v05.002.2023198172838.hdf","pixel_m":463.3127,"days":[213,235],"year":2021,"clip":"frame box ∩ Greek land (webui/static/greek_pe.geojson, buffered 0.01°)","simplify_m":150.0,"winding":"exterior rings clockwise"},"features":[{"type":"Feature","properties":{"day":"2021-08-01","doy":213,"px":1,"km2":0.2},"geometry":{"type":"Polygon","coordinates":[[[21.96333,38.3125],[21.96459,38.31667],[21.9699,38.31667],[21.96864,38.3125],[21.96333,38.3125]]]}},{"type":"Feature","properties":{"day":"2021-08-02","doy":214,"px":3,"km2":0.6},"geometry":{"type":"MultiPolygon","coordinates":[[[[23.81345,38.10833],[23.81481,38.1125],[23.8201,38.1125],[23.81874,38.10833],[23.81345,38.10833]]],[[[23.81617,38.11667],[23.81753,38.12083],[23.82282,38.12083],[23.82146,38.11667],[23.81617,38.11667]]],[[[21.97017,38.3],[21.97143,38.30417],[21.97674,38.30417],[21.97547,38.3],[21.97017,38.3]]]]}},{"type":"Feature","properties":{"day":"2021-08-03","doy":215,"px":13,"km2":2.8},"geometry":{"type":"MultiPolygon","coordinates":[[[[21.92874,36.76667],[21.92354,36.76667],[21.92473,36.77083],[21.92993,36.77083],[21.92874,36.76667]]],[[[21.89872,36.77083],[21.89352,36.77083],[21.89471,36.775],[21.89991,36.775],[21.89872,36.77083]]],[[[21.99546,37.30417],[21.99789,37.3125],[22.00313,37.3125],[22.0007,37.30417],[21.99546,37.30417]]],[[[21.8345,37.70417],[21.83573,37.70833],[21.841,37.70833],[21.83977,37.70417],[21.8345,37.70417]]],[[[23.8201,38.1125],[23.81481,38.1125],[23.81617,38.11667],[23.82146,38.11667],[23.8201,38.1125]]],[[[22.58799,39.0],[22.58932,39.00417],[22.60005,39.00417],[22.59605,38.99167],[22.58533,38.99167],[22.58666,38.99583],[22.5813,38.99583],[22.58263,39.0],[22.58799,39.0]]]]}},{"type":"Feature","properties":{"day":"2021-08-04","doy":216,"px":562,"km2":120.6},"geometry":{"type":"MultiPolygon","coordinates":[[[[21.6283,37.68333],[21.63883,37.68333],[21.64005,37.6875],[21.65058,37.6875],[21.65179,37.69167],[21.65706,37.69167],[21.65828,37.69583],[21.66354,37.69583],[21.66476,37.7],[21.68056,37.7],[21.67812,37.69167],[21.68865,37.69167],[21.68621,37.68333],[21.64936,37.68333],[21.64693,37.675],[21.6364,37.675],[21.63397,37.66667],[21.6445,37.66667],[21.63964,37.65],[21.63438,37.65],[21.6368,37.65833],[21.63154,37.65833],[21.63276,37.6625],[21.6117,37.6625],[21.61291,37.66667],[21.60239,37.66667],[21.6036,37.67083],[21.59307,37.67083],[21.59428,37.675],[21.58902,37.675],[21.59023,37.67917],[21.5797,37.67917],[21.58092,37.68333],[21.57039,37.68333],[21.57281,37.69167],[21.56754,37.69167],[21.57118,37.70417],[21.60805,37.70417],[21.60683,37.7],[21.61736,37.7],[21.61615,37.69583],[21.62141,37.69583],[21.6202,37.69167],[21.63073,37.69167],[21.6283,37.68333]]],[[[21.49098,37.7],[21.48571,37.7],[21.4845,37.69583],[21.47397,37.69583],[21.47639,37.70417],[21.49218,37.70417],[21.49098,37.7]]],[[[21.66193,37.70833],[21.66719,37.70833],[21.66598,37.70417],[21.66071,37.70417],[21.66193,37.70833]]],[[[21.70406,37.70833],[21.70933,37.70833],[21.70811,37.70417],[21.70284,37.70417],[21.70406,37.70833]]],[[[21.64046,37.725],[21.64573,37.725],[21.64451,37.72083],[21.64978,37.72083],[21.64856,37.71667],[21.63276,37.71667],[21.63398,37.72083],[21.63924,37.72083],[21.64046,37.725]]],[[[21.58983,39.97083],[21.59115,39.975],[21.59659,39.975],[21.59527,39.97083],[21.58983,39.97083]]],[[[21.57186,40.0],[21.57729,40.0],[21.57335,39.9875],[21.56791,39.9875],[21.57186,40.0]]],[[[22.4483,36.72917],[22.4535,36.72917],[22.45228,36.725],[22.44708,36.725],[22.4483,36.72917]]],[[[22.40206,36.76667],[22.40726,36.76667],[22.40604,36.7625],[22.40084,36.7625],[22.40206,36.76667]]],[[[21.92354,36.76667],[21.91313,36.76667],[21.91432,36.77083],[21.89872,36.77083],[21.89991,36.775],[21.89471,36.775],[21.89709,36.78333],[21.9179,36.78333],[21.91671,36.77917],[21.92711,36.77917],[21.92592,36.775],[21.93112,36.775],[21.92993,36.77083],[21.92473,36.77083],[21.92354,36.76667]]],[[[22.42221,36.8],[22.42741,36.8],[22.42619,36.79583],[22.42099,36.79583],[22.42221,36.8]]],[[[22.4819,36.80833],[22.4871,36.80833],[22.48588,36.80417],[22.48067,36.80417],[22.4819,36.80833]]],[[[22.42677,36.83333],[22.42189,36.81667],[22.40107,36.81667],[22.39985,36.8125],[22.39464,36.8125],[22.39952,36.82917],[22.39432,36.82917],[22.39554,36.83333],[22.39033,36.83333],[22.39155,36.8375],[22.38634,36.8375],[22.38878,36.84583],[22.40961,36.84583],[22.40839,36.84167],[22.42921,36.84167],[22.42799,36.8375],[22.42279,36.8375],[22.42156,36.83333],[22.42677,36.83333]],[[22.41115,36.83333],[22.40595,36.83333],[22.40351,36.825],[22.40871,36.825],[22.41115,36.83333]]],[[[21.7815,37.01667],[21.78672,37.01667],[21.78433,37.00833],[21.77911,37.00833],[21.7815,37.01667]]],[[[22.0337,37.29167],[22.03894,37.29167],[22.03772,37.2875],[22.03248,37.2875],[22.0337,37.29167]]],[[[22.04784,37.30417],[22.05308,37.30417],[22.05186,37.3],[22.04662,37.3],[22.04784,37.30417]]],[[[22.00313,37.3125],[22.00837,37.3125],[22.00715,37.30833],[22.00191,37.30833],[22.00313,37.3125]]],[[[21.96646,37.3125],[21.9717,37.3125],[21.97048,37.30833],[21.96524,37.30833],[21.96646,37.3125]]],[[[22.01483,37.31667],[22.02007,37.31667],[22.01885,37.3125],[22.01361,37.3125],[22.01483,37.31667]]],[[[21.94148,37.31667],[21.94392,37.325],[21.9544,37.325],[21.95196,37.31667],[21.94148,37.31667]]],[[[22.01727,37.325],[22.02251,37.325],[22.02129,37.32083],[22.01605,37.32083],[22.01727,37.325]]],[[[21.99753,37.32917],[22.00277,37.32917],[22.00155,37.325],[21.99631,37.325],[21.99753,37.32917]]],[[[22.01046,37.3375],[22.0157,37.3375],[22.01325,37.32917],[22.00801,37.32917],[22.01046,37.3375]]],[[[21.70118,37.6625],[21.70644,37.6625],[21.70523,37.65833],[21.69996,37.65833],[21.70118,37.6625]]],[[[21.75344,37.67917],[21.7587,37.67917],[21.75748,37.675],[21.75221,37.675],[21.75344,37.67917]]],[[[21.71254,37.68333],[21.70727,37.68333],[21.70849,37.6875],[21.72429,37.6875],[21.72307,37.68333],[21.7336,37.68333],[21.73116,37.675],[21.72063,37.675],[21.72185,37.67917],[21.71132,37.67917],[21.71254,37.68333]]],[[[21.72429,37.6875],[21.72551,37.69167],[21.73604,37.69167],[21.73482,37.6875],[21.72429,37.6875]]],[[[21.72146,37.69583],[21.72673,37.69583],[21.72551,37.69167],[21.72024,37.69167],[21.72146,37.69583]]],[[[21.77412,37.69583],[21.77939,37.69583],[21.77816,37.69167],[21.7729,37.69167],[21.77412,37.69583]]],[[[21.79237,37.70417],[21.79764,37.70417],[21.79641,37.7],[21.79114,37.7],[21.79237,37.70417]]],[[[21.71986,37.70833],[21.72513,37.70833],[21.72391,37.70417],[21.71864,37.70417],[21.71986,37.70833]]],[[[21.76849,37.7125],[21.77375,37.7125],[21.77253,37.70833],[21.76726,37.70833],[21.76849,37.7125]]],[[[22.12303,38.38333],[22.12834,38.38333],[22.12707,38.37917],[22.12175,38.37917],[22.12303,38.38333]]],[[[22.11494,38.39167],[22.11622,38.39583],[22.12153,38.39583],[22.12026,38.39167],[22.11494,38.39167]]],[[[22.15067,38.40417],[22.15599,38.40417],[22.15471,38.4],[22.14939,38.4],[22.15067,38.40417]]],[[[23.21041,38.85417],[23.21577,38.85417],[23.21441,38.85],[23.20906,38.85],[23.21041,38.85417]]],[[[23.78969,38.11667],[23.77909,38.11667],[23.78045,38.12083],[23.77515,38.12083],[23.77651,38.125],[23.78181,38.125],[23.78588,38.1375],[23.79648,38.1375],[23.79512,38.13333],[23.80571,38.13333],[23.80707,38.1375],[23.81767,38.1375],[23.81495,38.12917],[23.82554,38.12917],[23.82418,38.125],[23.81888,38.125],[23.81209,38.10417],[23.8015,38.10417],[23.80014,38.1],[23.78426,38.1],[23.78969,38.11667]],[[23.80965,38.12917],[23.80829,38.125],[23.81359,38.125],[23.81495,38.12917],[23.80965,38.12917]],[[23.80422,38.1125],[23.80286,38.10833],[23.80815,38.10833],[23.80951,38.1125],[23.80422,38.1125]]],[[[23.83234,38.15],[23.84294,38.15],[23.84158,38.14583],[23.83098,38.14583],[23.83234,38.15]]],[[[23.89199,38.15417],[23.89729,38.15417],[23.89593,38.15],[23.89063,38.15],[23.89199,38.15417]]],[[[23.8655,38.15417],[23.8708,38.15417],[23.86943,38.15],[23.86414,38.15],[23.8655,38.15417]]],[[[23.74757,38.15],[23.74893,38.15417],[23.75423,38.15417],[23.75287,38.15],[23.74757,38.15]]],[[[23.79132,38.15417],[23.78602,38.15417],[23.78738,38.15833],[23.78208,38.15833],[23.78344,38.1625],[23.79404,38.1625],[23.79132,38.15417]]],[[[23.31688,38.77083],[23.32223,38.77083],[23.32086,38.76667],[23.31552,38.76667],[23.31688,38.77083]]],[[[23.41184,38.78333],[23.41718,38.78333],[23.41581,38.77917],[23.41047,38.77917],[23.41184,38.78333]]],[[[23.3651,38.7875],[23.37044,38.7875],[23.36908,38.78333],[23.36373,38.78333],[23.3651,38.7875]]],[[[23.40388,38.79167],[23.40923,38.79167],[23.40786,38.7875],[23.40251,38.7875],[23.40388,38.79167]]],[[[23.37056,38.80417],[23.37591,38.80417],[23.37454,38.8],[23.36919,38.8],[23.37056,38.80417]]],[[[23.31164,38.7875],[23.3063,38.7875],[23.30221,38.775],[23.29687,38.775],[23.29414,38.76667],[23.27811,38.76667],[23.28083,38.775],[23.27014,38.775],[23.27286,38.78333],[23.26217,38.78333],[23.26489,38.79167],[23.24885,38.79167],[23.25021,38.79583],[23.24487,38.79583],[23.24623,38.8],[23.23553,38.8],[23.23825,38.80833],[23.22756,38.80833],[23.23027,38.81667],[23.21958,38.81667],[23.2223,38.825],[23.22765,38.825],[23.229,38.82917],[23.23435,38.82917],[23.23843,38.84167],[23.28123,38.84167],[23.28259,38.84583],[23.29329,38.84583],[23.29057,38.8375],[23.30661,38.8375],[23.30389,38.82917],[23.33063,38.82917],[23.33199,38.83333],[23.33734,38.83333],[23.33461,38.825],[23.32926,38.825],[23.32653,38.81667],[23.33188,38.81667],[23.33052,38.8125],[23.34121,38.8125],[23.34258,38.81667],[23.35327,38.81667],[23.3519,38.8125],[23.34656,38.8125],[23.34383,38.80417],[23.33313,38.80417],[23.3304,38.79583],[23.31437,38.79583],[23.31164,38.7875]]],[[[23.35464,38.82083],[23.35999,38.82083],[23.35862,38.81667],[23.35327,38.81667],[23.35464,38.82083]]],[[[23.3667,38.825],[23.37205,38.825],[23.37068,38.82083],[23.36533,38.82083],[23.3667,38.825]]],[[[23.21831,38.82917],[23.22366,38.82917],[23.2223,38.825],[23.21695,38.825],[23.21831,38.82917]]],[[[23.34406,38.8375],[23.34941,38.8375],[23.34804,38.83333],[23.34269,38.83333],[23.34406,38.8375]]],[[[23.33473,38.84167],[23.34543,38.84167],[23.34406,38.8375],[23.33336,38.8375],[23.33473,38.84167]]],[[[23.22112,38.85417],[23.23182,38.85417],[23.23046,38.85],[23.21976,38.85],[23.22112,38.85417]]],[[[23.2934,38.8625],[23.29875,38.8625],[23.29739,38.85833],[23.29204,38.85833],[23.2934,38.8625]]],[[[23.25059,38.8625],[23.25594,38.8625],[23.25458,38.85833],[23.24923,38.85833],[23.25059,38.8625]]],[[[23.34293,38.86667],[23.34828,38.86667],[23.34965,38.87083],[23.355,38.87083],[23.35637,38.875],[23.36172,38.875],[23.35898,38.86667],[23.35363,38.86667],[23.3509,38.85833],[23.34554,38.85833],[23.34691,38.8625],[23.34156,38.8625],[23.34293,38.86667]]],[[[23.32824,38.87083],[23.33359,38.87083],[23.33223,38.86667],[23.32152,38.86667],[23.32426,38.875],[23.32961,38.875],[23.32824,38.87083]]],[[[23.30285,38.875],[23.31355,38.875],[23.31082,38.86667],[23.30012,38.86667],[23.30285,38.875]]],[[[23.34031,38.875],[23.34567,38.875],[23.3443,38.87083],[23.33895,38.87083],[23.34031,38.875]]],[[[23.26833,38.91667],[23.27368,38.91667],[23.27232,38.9125],[23.26696,38.9125],[23.26833,38.91667]]],[[[23.31802,38.9375],[23.32337,38.9375],[23.322,38.93333],[23.31665,38.93333],[23.31802,38.9375]]]]}},{"type":"Feature","properties":{"day":"2021-08-05","doy":217,"px":393,"km2":84.4},"geometry":{"type":"MultiPolygon","coordinates":[[[[21.98705,37.32917],[21.99753,37.32917],[21.99509,37.32083],[22.00033,37.32083],[22.00155,37.325],[22.01203,37.325],[22.00959,37.31667],[21.99388,37.31667],[21.99266,37.3125],[21.97694,37.3125],[21.97572,37.30833],[21.97048,37.30833],[21.9717,37.3125],[21.96646,37.3125],[21.96524,37.30833],[21.94429,37.30833],[21.94551,37.3125],[21.94027,37.3125],[21.94148,37.31667],[21.95196,37.31667],[21.9544,37.325],[21.94392,37.325],[21.94513,37.32917],[21.95037,37.32917],[21.95159,37.33333],[21.95683,37.33333],[21.95805,37.3375],[21.97377,37.3375],[21.97255,37.33333],[21.98303,37.33333],[21.98059,37.325],[21.98583,37.325],[21.98705,37.32917]]],[[[21.71415,37.67083],[21.71171,37.6625],[21.70118,37.6625],[21.69996,37.65833],[21.68944,37.65833],[21.687,37.65],[21.65016,37.65],[21.64895,37.64583],[21.63843,37.64583],[21.6445,37.66667],[21.63397,37.66667],[21.6364,37.675],[21.64693,37.675],[21.64814,37.67917],[21.65341,37.67917],[21.65462,37.68333],[21.68621,37.68333],[21.68743,37.6875],[21.70849,37.6875],[21.70727,37.68333],[21.71254,37.68333],[21.71132,37.67917],[21.72185,37.67917],[21.71941,37.67083],[21.71415,37.67083]]],[[[21.76556,37.66667],[21.76801,37.675],[21.77854,37.675],[21.77609,37.66667],[21.76556,37.66667]]],[[[21.81661,37.67917],[21.81135,37.67917],[21.81257,37.68333],[21.81784,37.68333],[21.81661,37.67917]]],[[[21.79959,37.675],[21.77854,37.675],[21.77976,37.67917],[21.78502,37.67917],[21.78625,37.68333],[21.78098,37.68333],[21.78221,37.6875],[21.78747,37.6875],[21.7887,37.69167],[21.79923,37.69167],[21.798,37.6875],[21.79274,37.6875],[21.79029,37.67917],[21.80082,37.67917],[21.79959,37.675]]],[[[21.78343,37.69167],[21.77816,37.69167],[21.77939,37.69583],[21.78465,37.69583],[21.78343,37.69167]]],[[[21.65828,37.69583],[21.65706,37.69167],[21.65179,37.69167],[21.65058,37.6875],[21.64005,37.6875],[21.63883,37.68333],[21.6283,37.68333],[21.63073,37.69167],[21.6202,37.69167],[21.62141,37.69583],[21.61615,37.69583],[21.61736,37.7],[21.60683,37.7],[21.60926,37.70833],[21.61453,37.70833],[21.61574,37.7125],[21.62628,37.7125],[21.62749,37.71667],[21.64856,37.71667],[21.64734,37.7125],[21.65261,37.7125],[21.65139,37.70833],[21.65666,37.70833],[21.65301,37.69583],[21.65828,37.69583]]],[[[21.5647,37.7],[21.56713,37.70833],[21.57239,37.70833],[21.57361,37.7125],[21.57887,37.7125],[21.58009,37.71667],[21.58535,37.71667],[21.58293,37.70833],[21.58819,37.70833],[21.58698,37.70417],[21.57118,37.70417],[21.56997,37.7],[21.5647,37.7]]],[[[23.79784,38.14167],[23.78724,38.14167],[23.78996,38.15],[23.79526,38.15],[23.79797,38.15833],[23.79268,38.15833],[23.7954,38.16667],[23.82719,38.16667],[23.82175,38.15],[23.81115,38.15],[23.80571,38.13333],[23.79512,38.13333],[23.79784,38.14167]]],[[[23.33052,38.8125],[23.33188,38.81667],[23.33723,38.81667],[23.33586,38.8125],[23.33052,38.8125]]],[[[23.23036,38.83333],[23.23308,38.84167],[23.23843,38.84167],[23.23571,38.83333],[23.23036,38.83333]]],[[[23.34156,38.8625],[23.34691,38.8625],[23.34554,38.85833],[23.3509,38.85833],[23.34953,38.85417],[23.36558,38.85417],[23.36421,38.85],[23.35886,38.85],[23.35749,38.84583],[23.34679,38.84583],[23.34816,38.85],[23.33746,38.85],[23.33063,38.82917],[23.30389,38.82917],[23.30661,38.8375],[23.29057,38.8375],[23.29329,38.84583],[23.28259,38.84583],[23.28123,38.84167],[23.23843,38.84167],[23.24116,38.85],[23.23046,38.85],[23.23182,38.85417],[23.23717,38.85417],[23.23853,38.85833],[23.28669,38.85833],[23.28805,38.8625],[23.2934,38.8625],[23.29204,38.85833],[23.30809,38.85833],[23.31082,38.86667],[23.33223,38.86667],[23.32949,38.85833],[23.33484,38.85833],[23.33758,38.86667],[23.34293,38.86667],[23.34156,38.8625]],[[23.29466,38.85],[23.29602,38.85417],[23.28532,38.85417],[23.28396,38.85],[23.29466,38.85]]],[[[23.42486,38.90417],[23.42623,38.90833],[23.43159,38.90833],[23.43021,38.90417],[23.42486,38.90417]]],[[[21.58027,39.975],[21.58159,39.97917],[21.57615,39.97917],[21.57747,39.98333],[21.57203,39.98333],[21.57335,39.9875],[21.5951,39.9875],[21.59773,39.99583],[21.60317,39.99583],[21.60054,39.9875],[21.60598,39.9875],[21.60334,39.97917],[21.59246,39.97917],[21.59115,39.975],[21.58027,39.975]]]]}},{"type":"Feature","properties":{"day":"2021-08-06","doy":218,"px":1818,"km2":390.2},"geometry":{"type":"MultiPolygon","coordinates":[[[[21.76115,37.6875],[21.76641,37.6875],[21.76519,37.68333],[21.75992,37.68333],[21.76115,37.6875]]],[[[21.47682,37.6875],[21.47803,37.69167],[21.47277,37.69167],[21.47397,37.69583],[21.4845,37.69583],[21.48571,37.7],[21.49624,37.7],[21.49503,37.69583],[21.5003,37.69583],[21.49909,37.69167],[21.49383,37.69167],[21.49262,37.6875],[21.47682,37.6875]]],[[[21.65301,37.69583],[21.65666,37.70833],[21.65139,37.70833],[21.65261,37.7125],[21.64734,37.7125],[21.64978,37.72083],[21.65505,37.72083],[21.65627,37.725],[21.66153,37.725],[21.6591,37.71667],[21.66963,37.71667],[21.67085,37.72083],[21.67612,37.72083],[21.6749,37.71667],[21.69597,37.71667],[21.69475,37.7125],[21.70001,37.7125],[21.70123,37.71667],[21.7065,37.71667],[21.70284,37.70417],[21.70811,37.70417],[21.70933,37.70833],[21.71986,37.70833],[21.71864,37.70417],[21.72391,37.70417],[21.72635,37.7125],[21.73162,37.7125],[21.72795,37.7],[21.73848,37.7],[21.74093,37.70833],[21.75146,37.70833],[21.74902,37.7],[21.75428,37.7],[21.75306,37.69583],[21.74779,37.69583],[21.74657,37.69167],[21.76237,37.69167],[21.76115,37.6875],[21.75588,37.6875],[21.75221,37.675],[21.73642,37.675],[21.73764,37.67917],[21.73238,37.67917],[21.7336,37.68333],[21.72307,37.68333],[21.72429,37.6875],[21.68743,37.6875],[21.68865,37.69167],[21.67812,37.69167],[21.68056,37.7],[21.66476,37.7],[21.66354,37.69583],[21.65301,37.69583]],[[21.73482,37.6875],[21.73604,37.69167],[21.72551,37.69167],[21.72429,37.6875],[21.73482,37.6875]],[[21.72673,37.69583],[21.72146,37.69583],[21.72024,37.69167],[21.72551,37.69167],[21.72673,37.69583]],[[21.66719,37.70833],[21.66193,37.70833],[21.66071,37.70417],[21.66598,37.70417],[21.66719,37.70833]]],[[[21.77253,37.70833],[21.7713,37.70417],[21.77657,37.70417],[21.77535,37.7],[21.76481,37.7],[21.76726,37.70833],[21.77253,37.70833]]],[[[21.48286,37.70833],[21.48813,37.70833],[21.48692,37.70417],[21.48165,37.70417],[21.48286,37.70833]]],[[[21.58941,37.7125],[21.58414,37.7125],[21.58535,37.71667],[21.58009,37.71667],[21.5813,37.72083],[21.59184,37.72083],[21.58941,37.7125]]],[[[21.69719,37.72083],[21.69841,37.725],[21.70368,37.725],[21.70246,37.72083],[21.69719,37.72083]]],[[[21.68665,37.72083],[21.68787,37.725],[21.69314,37.725],[21.69192,37.72083],[21.68665,37.72083]]],[[[21.64451,37.72083],[21.64573,37.725],[21.651,37.725],[21.64978,37.72083],[21.64451,37.72083]]],[[[21.58571,39.975],[21.59115,39.975],[21.58983,39.97083],[21.5844,39.97083],[21.58571,39.975]]],[[[21.61537,40.0],[21.62625,40.0],[21.62493,39.99583],[21.63037,39.99583],[21.62641,39.98333],[21.62097,39.98333],[21.61965,39.97917],[21.61422,39.97917],[21.61553,39.98333],[21.6101,39.98333],[21.60746,39.975],[21.60202,39.975],[21.60071,39.97083],[21.59527,39.97083],[21.59659,39.975],[21.59115,39.975],[21.59246,39.97917],[21.60334,39.97917],[21.60598,39.9875],[21.60054,39.9875],[21.60317,39.99583],[21.61405,39.99583],[21.61537,40.0]]],[[[21.57335,39.9875],[21.57598,39.99583],[21.58142,39.99583],[21.57878,39.9875],[21.57335,39.9875]]],[[[22.52506,36.725],[22.53026,36.725],[22.52903,36.72083],[22.52384,36.72083],[22.52506,36.725]]],[[[22.51588,36.72917],[22.52108,36.72917],[22.51986,36.725],[22.51466,36.725],[22.51588,36.72917]]],[[[22.40272,36.73333],[22.40394,36.7375],[22.40914,36.7375],[22.41279,36.75],[22.40759,36.75],[22.41002,36.75833],[22.40482,36.75833],[22.40726,36.76667],[22.40206,36.76667],[22.40327,36.77083],[22.39807,36.77083],[22.39929,36.775],[22.37848,36.775],[22.38092,36.78333],[22.38612,36.78333],[22.38733,36.7875],[22.39254,36.7875],[22.39741,36.80417],[22.39221,36.80417],[22.39464,36.8125],[22.39985,36.8125],[22.40107,36.81667],[22.41148,36.81667],[22.40782,36.80417],[22.41823,36.80417],[22.41701,36.8],[22.4118,36.8],[22.41058,36.79583],[22.42619,36.79583],[22.42741,36.8],[22.42221,36.8],[22.42465,36.80833],[22.42985,36.80833],[22.43107,36.8125],[22.43628,36.8125],[22.43384,36.80417],[22.43904,36.80417],[22.44148,36.8125],[22.45189,36.8125],[22.45311,36.81667],[22.46352,36.81667],[22.4623,36.8125],[22.47271,36.8125],[22.47149,36.80833],[22.4819,36.80833],[22.48067,36.80417],[22.48588,36.80417],[22.48465,36.8],[22.48986,36.8],[22.48863,36.79583],[22.49904,36.79583],[22.49782,36.79167],[22.50302,36.79167],[22.50057,36.78333],[22.50577,36.78333],[22.50333,36.775],[22.51373,36.775],[22.51251,36.77083],[22.53331,36.77083],[22.53209,36.76667],[22.55289,36.76667],[22.55044,36.75833],[22.54524,36.75833],[22.54402,36.75417],[22.52842,36.75417],[22.52597,36.74583],[22.52077,36.74583],[22.51955,36.74167],[22.51435,36.74167],[22.51313,36.7375],[22.51833,36.7375],[22.51588,36.72917],[22.51068,36.72917],[22.50946,36.725],[22.50426,36.725],[22.50548,36.72917],[22.49509,36.72917],[22.49387,36.725],[22.48867,36.725],[22.48745,36.72083],[22.48225,36.72083],[22.48103,36.71667],[22.46544,36.71667],[22.46665,36.72083],[22.44586,36.72083],[22.44708,36.725],[22.43668,36.725],[22.43547,36.72083],[22.41987,36.72083],[22.4223,36.72917],[22.41191,36.72917],[22.41312,36.73333],[22.40272,36.73333]],[[22.45067,36.80833],[22.45587,36.80833],[22.4571,36.8125],[22.45189,36.8125],[22.45067,36.80833]],[[22.45228,36.725],[22.45471,36.73333],[22.44952,36.73333],[22.44708,36.725],[22.45228,36.725]]],[[[22.40351,36.825],[22.40595,36.83333],[22.41115,36.83333],[22.40871,36.825],[22.40351,36.825]]],[[[22.42156,36.83333],[22.42279,36.8375],[22.42799,36.8375],[22.42677,36.83333],[22.42156,36.83333]]],[[[22.01361,37.3125],[22.01885,37.3125],[22.01763,37.30833],[22.02287,37.30833],[22.02043,37.3],[22.01519,37.3],[22.01641,37.30417],[22.01117,37.30417],[22.01361,37.3125]]],[[[21.99911,37.31667],[22.00435,37.31667],[22.00313,37.3125],[21.99789,37.3125],[21.99911,37.31667]]],[[[22.00959,37.31667],[22.01203,37.325],[22.01727,37.325],[22.01483,37.31667],[22.00959,37.31667]]],[[[21.99631,37.325],[22.00155,37.325],[22.00033,37.32083],[21.99509,37.32083],[21.99631,37.325]]],[[[21.95281,37.3375],[21.95805,37.3375],[21.95683,37.33333],[21.95159,37.33333],[21.95281,37.3375]]],[[[22.02496,37.33333],[22.02618,37.3375],[22.0419,37.3375],[22.04068,37.33333],[22.02496,37.33333]]],[[[22.06531,37.34583],[22.08103,37.34583],[22.07981,37.34167],[22.06409,37.34167],[22.06531,37.34583]]],[[[21.80449,37.69167],[21.80976,37.69167],[21.80608,37.67917],[21.79555,37.67917],[21.79678,37.68333],[21.79151,37.68333],[21.79274,37.6875],[21.80327,37.6875],[21.80449,37.69167]]],[[[21.78465,37.69583],[21.78588,37.7],[21.79114,37.7],[21.78992,37.69583],[21.78465,37.69583]]],[[[22.77068,37.85417],[22.77197,37.85833],[22.77725,37.85833],[22.77596,37.85417],[22.77068,37.85417]]],[[[22.16448,38.3625],[22.16576,38.36667],[22.17107,38.36667],[22.1698,38.3625],[22.16448,38.3625]]],[[[22.1613,38.40417],[22.16003,38.4],[22.16534,38.4],[22.16406,38.39583],[22.16938,38.39583],[22.1681,38.39167],[22.17342,38.39167],[22.17214,38.3875],[22.18809,38.3875],[22.18681,38.38333],[22.20276,38.38333],[22.2002,38.375],[22.19489,38.375],[22.19105,38.3625],[22.18574,38.3625],[22.18702,38.36667],[22.1817,38.36667],[22.18426,38.375],[22.163,38.375],[22.16172,38.37083],[22.15641,38.37083],[22.15768,38.375],[22.15237,38.375],[22.15364,38.37917],[22.12707,38.37917],[22.12962,38.3875],[22.1243,38.3875],[22.12175,38.37917],[22.11112,38.37917],[22.11494,38.39167],[22.12026,38.39167],[22.12281,38.4],[22.12812,38.4],[22.1294,38.40417],[22.13472,38.40417],[22.13599,38.40833],[22.14663,38.40833],[22.14791,38.4125],[22.15322,38.4125],[22.14939,38.4],[22.15471,38.4],[22.15599,38.40417],[22.1613,38.40417]],[[22.13344,38.4],[22.13876,38.4],[22.14003,38.40417],[22.13472,38.40417],[22.13344,38.4]]],[[[22.2,38.39167],[22.21063,38.39167],[22.20935,38.3875],[22.19872,38.3875],[22.2,38.39167]]],[[[23.2116,38.825],[23.21296,38.82917],[23.21831,38.82917],[23.21695,38.825],[23.2116,38.825]]],[[[23.2223,38.825],[23.22366,38.82917],[23.229,38.82917],[23.22765,38.825],[23.2223,38.825]]],[[[23.20226,38.82917],[23.20362,38.83333],[23.21432,38.83333],[23.21296,38.82917],[23.20226,38.82917]]],[[[23.23036,38.83333],[23.23571,38.83333],[23.23435,38.82917],[23.229,38.82917],[23.23036,38.83333]]],[[[23.23454,38.8625],[23.23989,38.8625],[23.23853,38.85833],[23.21713,38.85833],[23.21985,38.86667],[23.2359,38.86667],[23.23454,38.8625]]],[[[23.23191,38.87083],[23.23327,38.875],[23.23863,38.875],[23.23726,38.87083],[23.23191,38.87083]]],[[[23.20116,38.875],[23.20252,38.87917],[23.20787,38.87917],[23.20651,38.875],[23.20116,38.875]]],[[[23.21722,38.875],[23.21994,38.88333],[23.22529,38.88333],[23.22257,38.875],[23.21722,38.875]]],[[[23.26014,38.89167],[23.25478,38.89167],[23.25342,38.8875],[23.24807,38.8875],[23.25079,38.89583],[23.2615,38.89583],[23.26014,38.89167]]],[[[23.26161,38.9125],[23.25625,38.9125],[23.25352,38.90417],[23.24817,38.90417],[23.25226,38.91667],[23.26297,38.91667],[23.26161,38.9125]]],[[[22.58263,39.0],[22.58396,39.00417],[22.58932,39.00417],[22.58799,39.0],[22.58263,39.0]]],[[[23.80422,38.1125],[23.80951,38.1125],[23.80815,38.10833],[23.80286,38.10833],[23.80422,38.1125]]],[[[23.81888,38.125],[23.82418,38.125],[23.82282,38.12083],[23.81753,38.12083],[23.81888,38.125]]],[[[23.80965,38.12917],[23.81495,38.12917],[23.81359,38.125],[23.80829,38.125],[23.80965,38.12917]]],[[[23.78181,38.125],[23.77651,38.125],[23.77515,38.12083],[23.76986,38.12083],[23.77257,38.12917],[23.76198,38.12917],[23.76333,38.13333],[23.75804,38.13333],[23.76075,38.14167],[23.75016,38.14167],[23.75151,38.14583],[23.74621,38.14583],[23.74757,38.15],[23.75817,38.15],[23.76088,38.15833],[23.77148,38.15833],[23.76876,38.15],[23.78996,38.15],[23.78724,38.14167],[23.79784,38.14167],[23.79648,38.1375],[23.78588,38.1375],[23.78181,38.125]]],[[[23.85264,38.19583],[23.84204,38.19583],[23.83794,38.18333],[23.84324,38.18333],[23.84188,38.17917],[23.85248,38.17917],[23.85112,38.175],[23.88822,38.175],[23.88685,38.17083],[23.89745,38.17083],[23.89199,38.15417],[23.88669,38.15417],[23.88533,38.15],[23.87473,38.15],[23.87337,38.14583],[23.86807,38.14583],[23.8708,38.15417],[23.8655,38.15417],[23.86686,38.15833],[23.85626,38.15833],[23.85354,38.15],[23.83234,38.15],[23.82554,38.12917],[23.81495,38.12917],[23.81767,38.1375],[23.80707,38.1375],[23.81115,38.15],[23.82175,38.15],[23.82719,38.16667],[23.7954,38.16667],[23.79404,38.1625],[23.78344,38.1625],[23.78752,38.175],[23.77692,38.175],[23.77963,38.18333],[23.78494,38.18333],[23.7863,38.1875],[23.7916,38.1875],[23.79704,38.20417],[23.80765,38.20417],[23.81037,38.2125],[23.80507,38.2125],[23.80916,38.225],[23.81446,38.225],[23.81583,38.22917],[23.82113,38.22917],[23.81977,38.225],[23.83038,38.225],[23.83174,38.22917],[23.83705,38.22917],[23.83841,38.23333],[23.84372,38.23333],[23.84098,38.225],[23.85159,38.225],[23.84886,38.21667],[23.85416,38.21667],[23.8528,38.2125],[23.8581,38.2125],[23.85264,38.19583]],[[23.87353,38.1625],[23.87216,38.15833],[23.87746,38.15833],[23.87882,38.1625],[23.87353,38.1625]]],[[[23.85521,38.1875],[23.85794,38.19583],[23.86854,38.19583],[23.86581,38.1875],[23.85521,38.1875]]],[[[23.21213,38.64583],[23.21348,38.65],[23.21882,38.65],[23.21747,38.64583],[23.21213,38.64583]]],[[[23.39794,38.70833],[23.3993,38.7125],[23.40464,38.7125],[23.40328,38.70833],[23.39794,38.70833]]],[[[23.41544,38.72917],[23.42078,38.72917],[23.41942,38.725],[23.41407,38.725],[23.41544,38.72917]]],[[[23.41544,38.72917],[23.4101,38.72917],[23.41146,38.73333],[23.41681,38.73333],[23.41544,38.72917]]],[[[23.40078,38.73333],[23.40215,38.7375],[23.40749,38.7375],[23.40612,38.73333],[23.40078,38.73333]]],[[[23.39954,38.74583],[23.40488,38.74583],[23.40351,38.74167],[23.39817,38.74167],[23.39954,38.74583]]],[[[23.42761,38.75],[23.43296,38.75],[23.43159,38.74583],[23.42625,38.74583],[23.42761,38.75]]],[[[23.42227,38.75],[23.42637,38.7625],[23.43172,38.7625],[23.42761,38.75],[23.42227,38.75]]],[[[23.41159,38.75],[23.40624,38.75],[23.40898,38.75833],[23.40363,38.75833],[23.41047,38.77917],[23.42116,38.77917],[23.41159,38.75]]],[[[23.31154,38.77083],[23.31688,38.77083],[23.31552,38.76667],[23.31018,38.76667],[23.31154,38.77083]]],[[[23.29687,38.775],[23.30221,38.775],[23.30085,38.77083],[23.29551,38.77083],[23.29687,38.775]]],[[[23.32097,38.78333],[23.31028,38.78333],[23.30892,38.77917],[23.31426,38.77917],[23.3129,38.775],[23.30221,38.775],[23.3063,38.7875],[23.31164,38.7875],[23.31437,38.79583],[23.31971,38.79583],[23.31835,38.79167],[23.3237,38.79167],[23.32097,38.78333]]],[[[23.3304,38.79583],[23.33177,38.8],[23.34246,38.8],[23.3411,38.79583],[23.3304,38.79583]]],[[[23.32926,38.825],[23.35066,38.825],[23.34792,38.81667],[23.34258,38.81667],[23.34121,38.8125],[23.33586,38.8125],[23.33723,38.81667],[23.32653,38.81667],[23.32926,38.825]]],[[[23.33336,38.8375],[23.33871,38.8375],[23.33734,38.83333],[23.33199,38.83333],[23.33336,38.8375]]],[[[23.24388,38.85833],[23.24524,38.8625],[23.25059,38.8625],[23.24923,38.85833],[23.24388,38.85833]]],[[[23.25594,38.8625],[23.2613,38.8625],[23.25993,38.85833],[23.25458,38.85833],[23.25594,38.8625]]],[[[23.24933,38.875],[23.26003,38.875],[23.25731,38.86667],[23.2466,38.86667],[23.24933,38.875]]],[[[23.43066,38.95417],[23.42791,38.94583],[23.43326,38.94583],[23.42225,38.9125],[23.42761,38.9125],[23.42486,38.90417],[23.43021,38.90417],[23.42884,38.9],[23.43419,38.9],[23.43144,38.89167],[23.4368,38.89167],[23.43542,38.8875],[23.44077,38.8875],[23.4394,38.88333],[23.44475,38.88333],[23.43926,38.86667],[23.44461,38.86667],[23.44323,38.8625],[23.44858,38.8625],[23.44584,38.85417],[23.45654,38.85417],[23.45516,38.85],[23.46051,38.85],[23.45914,38.84583],[23.46449,38.84583],[23.46312,38.84167],[23.45242,38.84167],[23.45104,38.8375],[23.44569,38.8375],[23.44295,38.82917],[23.4483,38.82917],[23.44555,38.82083],[23.4509,38.82083],[23.44816,38.8125],[23.44281,38.8125],[23.44144,38.80833],[23.43609,38.80833],[23.43883,38.81667],[23.43349,38.81667],[23.43212,38.8125],[23.40538,38.8125],[23.40675,38.81667],[23.4014,38.81667],[23.39866,38.80833],[23.40936,38.80833],[23.40662,38.8],[23.42266,38.8],[23.42129,38.79583],[23.41594,38.79583],[23.41457,38.79167],[23.39319,38.79167],[23.39593,38.8],[23.37454,38.8],[23.37591,38.80417],[23.37056,38.80417],[23.37329,38.8125],[23.36795,38.8125],[23.37205,38.825],[23.3667,38.825],[23.36533,38.82083],[23.35999,38.82083],[23.36135,38.825],[23.35066,38.825],[23.35339,38.83333],[23.35874,38.83333],[23.36011,38.8375],[23.35476,38.8375],[23.35612,38.84167],[23.33473,38.84167],[23.33746,38.85],[23.34816,38.85],[23.34679,38.84583],[23.35749,38.84583],[23.35886,38.85],[23.36421,38.85],[23.36558,38.85417],[23.34953,38.85417],[23.35363,38.86667],[23.35898,38.86667],[23.36172,38.875],[23.35637,38.875],[23.355,38.87083],[23.34965,38.87083],[23.34828,38.86667],[23.33758,38.86667],[23.33484,38.85833],[23.32949,38.85833],[23.33359,38.87083],[23.32824,38.87083],[23.32961,38.875],[23.32426,38.875],[23.32152,38.86667],[23.31617,38.86667],[23.31754,38.87083],[23.31219,38.87083],[23.31355,38.875],[23.31891,38.875],[23.32164,38.88333],[23.31629,38.88333],[23.31902,38.89167],[23.30832,38.89167],[23.30968,38.89583],[23.28827,38.89583],[23.28964,38.9],[23.28428,38.9],[23.28702,38.90833],[23.28166,38.90833],[23.28439,38.91667],[23.27904,38.91667],[23.27767,38.9125],[23.27232,38.9125],[23.27642,38.925],[23.28177,38.925],[23.28451,38.93333],[23.28987,38.93333],[23.2926,38.94167],[23.31403,38.94167],[23.31129,38.93333],[23.322,38.93333],[23.32475,38.94167],[23.33546,38.94167],[23.3382,38.95],[23.37035,38.95],[23.37447,38.9625],[23.39055,38.9625],[23.38917,38.95833],[23.41596,38.95833],[23.41459,38.95417],[23.43066,38.95417]],[[23.4121,38.81667],[23.41484,38.825],[23.40949,38.825],[23.40675,38.81667],[23.4121,38.81667]],[[23.34567,38.875],[23.34031,38.875],[23.33895,38.87083],[23.3443,38.87083],[23.34567,38.875]],[[23.44158,38.825],[23.43623,38.825],[23.43486,38.82083],[23.44021,38.82083],[23.44158,38.825]],[[23.3907,38.81667],[23.38001,38.81667],[23.37727,38.80833],[23.38797,38.80833],[23.3907,38.81667]]],[[[23.32076,38.94583],[23.32612,38.94583],[23.32475,38.94167],[23.31939,38.94167],[23.32076,38.94583]]],[[[23.33422,38.95417],[23.33957,38.95417],[23.3382,38.95],[23.33284,38.95],[23.33422,38.95417]]]]}},{"type":"Feature","properties":{"day":"2021-08-07","doy":219,"px":501,"km2":107.5},"geometry":{"type":"MultiPolygon","coordinates":[[[[21.49383,37.69167],[21.49909,37.69167],[21.49788,37.6875],[21.49262,37.6875],[21.49383,37.69167]]],[[[21.7713,37.70417],[21.77253,37.70833],[21.77779,37.70833],[21.77657,37.70417],[21.7713,37.70417]]],[[[21.74337,37.71667],[21.75391,37.71667],[21.75146,37.70833],[21.74093,37.70833],[21.73848,37.7],[21.72795,37.7],[21.73162,37.7125],[21.74215,37.7125],[21.74337,37.71667]]],[[[21.66031,37.72083],[21.67085,37.72083],[21.66963,37.71667],[21.6591,37.71667],[21.66031,37.72083]]],[[[21.70246,37.72083],[21.70368,37.725],[21.70894,37.725],[21.70772,37.72083],[21.70246,37.72083]]],[[[21.6101,39.98333],[21.61553,39.98333],[21.61422,39.97917],[21.60878,39.97917],[21.6101,39.98333]]],[[[22.44984,36.71667],[22.45106,36.72083],[22.46665,36.72083],[22.46544,36.71667],[22.44984,36.71667]]],[[[22.43668,36.725],[22.44708,36.725],[22.44464,36.71667],[22.43425,36.71667],[22.43668,36.725]]],[[[22.51068,36.72917],[22.51588,36.72917],[22.51466,36.725],[22.50946,36.725],[22.51068,36.72917]]],[[[22.40671,36.72917],[22.40792,36.73333],[22.41312,36.73333],[22.41191,36.72917],[22.40671,36.72917]]],[[[22.37848,36.775],[22.38368,36.775],[22.38247,36.77083],[22.37727,36.77083],[22.37848,36.775]]],[[[22.4118,36.8],[22.42221,36.8],[22.42099,36.79583],[22.41058,36.79583],[22.4118,36.8]]],[[[22.40782,36.80417],[22.40904,36.80833],[22.41424,36.80833],[22.41302,36.80417],[22.40782,36.80417]]],[[[22.43628,36.8125],[22.44148,36.8125],[22.43904,36.80417],[22.43384,36.80417],[22.43628,36.8125]]],[[[22.00471,37.3],[21.99948,37.3],[22.00191,37.30833],[22.00715,37.30833],[22.00837,37.3125],[22.00313,37.3125],[22.00435,37.31667],[22.01483,37.31667],[22.01117,37.30417],[22.01641,37.30417],[22.01519,37.3],[22.00995,37.3],[22.00873,37.29583],[22.0035,37.29583],[22.00471,37.3]]],[[[21.99266,37.3125],[21.99388,37.31667],[21.99911,37.31667],[21.99789,37.3125],[21.99266,37.3125]]],[[[22.03736,37.30417],[22.03614,37.3],[22.04138,37.3],[22.04016,37.29583],[22.03492,37.29583],[22.0337,37.29167],[22.01799,37.29167],[22.01677,37.2875],[22.01153,37.2875],[22.01519,37.3],[22.02043,37.3],[22.02287,37.30833],[22.01763,37.30833],[22.02007,37.31667],[22.01483,37.31667],[22.01605,37.32083],[22.02129,37.32083],[22.02251,37.325],[22.00679,37.325],[22.00801,37.32917],[22.01325,37.32917],[22.0157,37.3375],[22.01046,37.3375],[22.01168,37.34167],[22.01692,37.34167],[22.01814,37.34583],[22.0129,37.34583],[22.01779,37.3625],[22.02303,37.3625],[22.02547,37.37083],[22.03072,37.37083],[22.02949,37.36667],[22.03474,37.36667],[22.03351,37.3625],[22.03876,37.3625],[22.03753,37.35833],[22.04802,37.35833],[22.04557,37.35],[22.03509,37.35],[22.03264,37.34167],[22.04312,37.34167],[22.0419,37.3375],[22.02618,37.3375],[22.02496,37.33333],[22.03544,37.33333],[22.03299,37.325],[22.03823,37.325],[22.04068,37.33333],[22.04592,37.33333],[22.04469,37.32917],[22.04993,37.32917],[22.04871,37.325],[22.05395,37.325],[22.05151,37.31667],[22.04627,37.31667],[22.04504,37.3125],[22.05028,37.3125],[22.04784,37.30417],[22.03736,37.30417]],[[22.02775,37.325],[22.02653,37.32083],[22.03177,37.32083],[22.03299,37.325],[22.02775,37.325]],[[22.02181,37.35833],[22.02058,37.35417],[22.02582,37.35417],[22.02705,37.35833],[22.02181,37.35833]]],[[[22.07212,37.33333],[22.07089,37.32917],[22.04993,37.32917],[22.05238,37.3375],[22.05762,37.3375],[22.0564,37.33333],[22.06164,37.33333],[22.06286,37.3375],[22.0681,37.3375],[22.06688,37.33333],[22.07212,37.33333]]],[[[22.0681,37.3375],[22.06933,37.34167],[22.07457,37.34167],[22.07334,37.3375],[22.0681,37.3375]]],[[[22.06007,37.34583],[22.06531,37.34583],[22.06409,37.34167],[22.05884,37.34167],[22.06007,37.34583]]],[[[21.76726,37.70833],[21.76481,37.7],[21.78061,37.7],[21.78184,37.70417],[21.7871,37.70417],[21.78465,37.69583],[21.78992,37.69583],[21.78747,37.6875],[21.78221,37.6875],[21.78098,37.68333],[21.78625,37.68333],[21.78502,37.67917],[21.77976,37.67917],[21.77854,37.675],[21.76801,37.675],[21.76556,37.66667],[21.78662,37.66667],[21.7854,37.6625],[21.79066,37.6625],[21.78821,37.65417],[21.77769,37.65417],[21.77891,37.65833],[21.77365,37.65833],[21.77487,37.6625],[21.76961,37.6625],[21.76838,37.65833],[21.76312,37.65833],[21.76434,37.6625],[21.75908,37.6625],[21.7603,37.66667],[21.75504,37.66667],[21.75381,37.6625],[21.74855,37.6625],[21.75099,37.67083],[21.74047,37.67083],[21.74169,37.675],[21.75748,37.675],[21.7587,37.67917],[21.75344,37.67917],[21.75588,37.6875],[21.76115,37.6875],[21.76237,37.69167],[21.74657,37.69167],[21.74779,37.69583],[21.75306,37.69583],[21.75428,37.7],[21.74902,37.7],[21.75146,37.70833],[21.76726,37.70833]],[[21.77412,37.69583],[21.7729,37.69167],[21.78343,37.69167],[21.78465,37.69583],[21.77412,37.69583]],[[21.75992,37.68333],[21.76519,37.68333],[21.76641,37.6875],[21.76115,37.6875],[21.75992,37.68333]]],[[[21.798,37.6875],[21.79923,37.69167],[21.80449,37.69167],[21.80327,37.6875],[21.798,37.6875]]],[[[21.81221,37.7],[21.82274,37.7],[21.81784,37.68333],[21.80731,37.68333],[21.81221,37.7]]],[[[21.81185,37.71667],[21.81712,37.71667],[21.81589,37.7125],[21.81062,37.7125],[21.81185,37.71667]]],[[[22.16576,38.36667],[22.16703,38.37083],[22.16172,38.37083],[22.163,38.375],[22.18426,38.375],[22.1817,38.36667],[22.18702,38.36667],[22.18574,38.3625],[22.1698,38.3625],[22.17107,38.36667],[22.16576,38.36667]]],[[[22.24932,38.37917],[22.244,38.37917],[22.24272,38.375],[22.2002,38.375],[22.20276,38.38333],[22.19744,38.38333],[22.19872,38.3875],[22.2253,38.3875],[22.22658,38.39167],[22.23721,38.39167],[22.23593,38.3875],[22.24125,38.3875],[22.23997,38.38333],[22.25591,38.38333],[22.25335,38.375],[22.24803,38.375],[22.24932,38.37917]]],[[[22.1243,38.3875],[22.12962,38.3875],[22.12834,38.38333],[22.12303,38.38333],[22.1243,38.3875]]],[[[22.13344,38.4],[22.13472,38.40417],[22.14003,38.40417],[22.13876,38.4],[22.13344,38.4]]],[[[22.13727,38.4125],[22.14259,38.4125],[22.14131,38.40833],[22.13599,38.40833],[22.13727,38.4125]]],[[[23.17856,38.90417],[23.18392,38.90417],[23.18256,38.9],[23.1772,38.9],[23.17856,38.90417]]],[[[22.52628,36.72917],[22.52384,36.72083],[22.51344,36.72083],[22.51466,36.725],[22.51986,36.725],[22.52108,36.72917],[22.52628,36.72917]]],[[[22.5171,36.73333],[22.5223,36.73333],[22.52108,36.72917],[22.51588,36.72917],[22.5171,36.73333]]],[[[22.51435,36.74167],[22.51955,36.74167],[22.51833,36.7375],[22.51313,36.7375],[22.51435,36.74167]]],[[[23.21296,38.82917],[23.21432,38.83333],[23.22502,38.83333],[23.22366,38.82917],[23.21296,38.82917]]],[[[23.20099,38.84167],[23.21704,38.84167],[23.21432,38.83333],[23.19827,38.83333],[23.20099,38.84167]]],[[[23.23046,38.85],[23.24116,38.85],[23.23843,38.84167],[23.22774,38.84167],[23.23046,38.85]]],[[[23.28396,38.85],[23.28532,38.85417],[23.29602,38.85417],[23.29466,38.85],[23.28396,38.85]]],[[[23.23318,38.85833],[23.23853,38.85833],[23.23717,38.85417],[23.23182,38.85417],[23.23318,38.85833]]],[[[23.30809,38.85833],[23.29739,38.85833],[23.29875,38.8625],[23.3041,38.8625],[23.30547,38.86667],[23.31082,38.86667],[23.30809,38.85833]]],[[[23.26528,38.85833],[23.26801,38.86667],[23.28942,38.86667],[23.28669,38.85833],[23.26528,38.85833]]],[[[23.31219,38.87083],[23.31754,38.87083],[23.31617,38.86667],[23.31082,38.86667],[23.31219,38.87083]]],[[[23.31094,38.88333],[23.30558,38.88333],[23.30695,38.8875],[23.3123,38.8875],[23.31367,38.89167],[23.31902,38.89167],[23.31629,38.88333],[23.32164,38.88333],[23.31891,38.875],[23.31355,38.875],[23.31492,38.87917],[23.30957,38.87917],[23.31094,38.88333]]],[[[23.20388,38.88333],[23.20524,38.8875],[23.2106,38.8875],[23.20923,38.88333],[23.20388,38.88333]]],[[[23.29226,38.89167],[23.2869,38.89167],[23.28827,38.89583],[23.30433,38.89583],[23.30296,38.89167],[23.30832,38.89167],[23.30695,38.8875],[23.29624,38.8875],[23.29488,38.88333],[23.28952,38.88333],[23.29226,38.89167]]],[[[23.20797,38.89583],[23.21332,38.89583],[23.21196,38.89167],[23.2066,38.89167],[23.20797,38.89583]]],[[[23.21205,38.90833],[23.21341,38.9125],[23.21877,38.9125],[23.21741,38.90833],[23.21205,38.90833]]],[[[23.22549,38.91667],[23.23084,38.91667],[23.22812,38.90833],[23.22276,38.90833],[23.22549,38.91667]]],[[[23.26571,38.925],[23.26035,38.925],[23.26172,38.92917],[23.25636,38.92917],[23.25773,38.93333],[23.26844,38.93333],[23.26571,38.925]]],[[[23.32337,38.9375],[23.31802,38.9375],[23.31665,38.93333],[23.31129,38.93333],[23.31403,38.94167],[23.32475,38.94167],[23.32337,38.9375]]],[[[23.28189,38.94167],[23.27117,38.94167],[23.27391,38.95],[23.28998,38.95],[23.29135,38.95417],[23.29671,38.95417],[23.29808,38.95833],[23.3088,38.95833],[23.30606,38.95],[23.31677,38.95],[23.31403,38.94167],[23.2926,38.94167],[23.28987,38.93333],[23.27915,38.93333],[23.28189,38.94167]]],[[[23.32749,38.95],[23.3382,38.95],[23.33546,38.94167],[23.32475,38.94167],[23.32749,38.95]]],[[[23.31677,38.95],[23.31951,38.95833],[23.33023,38.95833],[23.32749,38.95],[23.31677,38.95]]],[[[23.2901,38.96667],[23.30082,38.96667],[23.29808,38.95833],[23.28736,38.95833],[23.2901,38.96667]]],[[[23.35056,38.9875],[23.35592,38.9875],[23.35455,38.98333],[23.34919,38.98333],[23.35056,38.9875]]],[[[23.87867,38.14583],[23.88003,38.15],[23.88533,38.15],[23.88396,38.14583],[23.87867,38.14583]]],[[[23.75817,38.15],[23.75287,38.15],[23.75423,38.15417],[23.74893,38.15417],[23.75028,38.15833],[23.76088,38.15833],[23.75817,38.15]]],[[[23.89336,38.15833],[23.89866,38.15833],[23.89729,38.15417],[23.89199,38.15417],[23.89336,38.15833]]],[[[23.8549,38.15417],[23.85626,38.15833],[23.86686,38.15833],[23.8655,38.15417],[23.8549,38.15417]]],[[[23.87353,38.1625],[23.87882,38.1625],[23.87746,38.15833],[23.87216,38.15833],[23.87353,38.1625]]],[[[23.79268,38.15833],[23.79797,38.15833],[23.79526,38.15],[23.76876,38.15],[23.77148,38.15833],[23.76088,38.15833],[23.76224,38.1625],[23.76754,38.1625],[23.77026,38.17083],[23.76496,38.17083],[23.76631,38.175],[23.77161,38.175],[23.77297,38.17917],[23.77827,38.17917],[23.77692,38.175],[23.78752,38.175],[23.78208,38.15833],[23.78738,38.15833],[23.78602,38.15417],[23.79132,38.15417],[23.79268,38.15833]]],[[[23.84098,38.225],[23.84235,38.22917],[23.84765,38.22917],[23.84629,38.225],[23.84098,38.225]]],[[[23.8225,38.23333],[23.83311,38.23333],[23.83038,38.225],[23.81977,38.225],[23.8225,38.23333]]],[[[23.38464,38.71667],[23.38998,38.71667],[23.38862,38.7125],[23.38328,38.7125],[23.38464,38.71667]]],[[[23.40737,38.72083],[23.40873,38.725],[23.41407,38.725],[23.41271,38.72083],[23.40737,38.72083]]],[[[23.4009,38.75],[23.40624,38.75],[23.40488,38.74583],[23.39954,38.74583],[23.4009,38.75]]],[[[23.42091,38.74583],[23.41556,38.74583],[23.4183,38.75417],[23.41295,38.75417],[23.42116,38.77917],[23.4265,38.77917],[23.42514,38.775],[23.43048,38.775],[23.42774,38.76667],[23.43309,38.76667],[23.43172,38.7625],[23.42637,38.7625],[23.42091,38.74583]]],[[[23.32348,38.75833],[23.32621,38.76667],[23.33155,38.76667],[23.32883,38.75833],[23.32348,38.75833]]],[[[23.32086,38.76667],[23.3195,38.7625],[23.30882,38.7625],[23.31018,38.76667],[23.32086,38.76667]]],[[[23.32086,38.76667],[23.32223,38.77083],[23.32757,38.77083],[23.32621,38.76667],[23.32086,38.76667]]],[[[23.36373,38.78333],[23.36908,38.78333],[23.36771,38.77917],[23.36237,38.77917],[23.36373,38.78333]]],[[[23.39319,38.79167],[23.40388,38.79167],[23.40251,38.7875],[23.40786,38.7875],[23.40649,38.78333],[23.41184,38.78333],[23.40637,38.76667],[23.39034,38.76667],[23.39307,38.775],[23.37703,38.775],[23.37977,38.78333],[23.36908,38.78333],[23.37044,38.7875],[23.3651,38.7875],[23.36373,38.78333],[23.35839,38.78333],[23.35975,38.7875],[23.34906,38.7875],[23.35179,38.79583],[23.3411,38.79583],[23.34383,38.80417],[23.34917,38.80417],[23.34781,38.8],[23.36385,38.8],[23.36248,38.79583],[23.36783,38.79583],[23.36919,38.8],[23.39593,38.8],[23.39319,38.79167]]],[[[23.44007,38.80417],[23.42403,38.80417],[23.42266,38.8],[23.40662,38.8],[23.40936,38.80833],[23.39866,38.80833],[23.4014,38.81667],[23.40675,38.81667],[23.40538,38.8125],[23.43212,38.8125],[23.43349,38.81667],[23.43883,38.81667],[23.43609,38.80833],[23.44144,38.80833],[23.44007,38.80417]]],[[[23.37727,38.80833],[23.38001,38.81667],[23.3907,38.81667],[23.38797,38.80833],[23.37727,38.80833]]],[[[23.35999,38.82083],[23.35464,38.82083],[23.35327,38.81667],[23.34792,38.81667],[23.35066,38.825],[23.36135,38.825],[23.35999,38.82083]]],[[[23.35476,38.8375],[23.36011,38.8375],[23.35874,38.83333],[23.35339,38.83333],[23.35066,38.825],[23.33461,38.825],[23.33871,38.8375],[23.34406,38.8375],[23.34133,38.82917],[23.34667,38.82917],[23.35077,38.84167],[23.35612,38.84167],[23.35476,38.8375]]],[[[23.44584,38.85417],[23.44721,38.85833],[23.45256,38.85833],[23.45119,38.85417],[23.44584,38.85417]]],[[[23.37035,38.95],[23.34892,38.95],[23.35166,38.95833],[23.35702,38.95833],[23.3584,38.9625],[23.37447,38.9625],[23.37035,38.95]]],[[[23.3518,38.975],[23.35716,38.975],[23.35578,38.97083],[23.35043,38.97083],[23.3518,38.975]]]]}},{"type":"Feature","properties":{"day":"2021-08-08","doy":220,"px":811,"km2":174.1},"geometry":{"type":"MultiPolygon","coordinates":[[[[21.97694,37.3125],[21.98218,37.3125],[21.98096,37.30833],[21.97572,37.30833],[21.97694,37.3125]]],[[[22.00277,37.32917],[22.00801,37.32917],[22.00679,37.325],[22.00155,37.325],[22.00277,37.32917]]],[[[21.80963,37.6375],[21.81086,37.64167],[21.81612,37.64167],[21.81489,37.6375],[21.80963,37.6375]]],[[[21.78173,37.65],[21.78295,37.65417],[21.78821,37.65417],[21.78699,37.65],[21.78173,37.65]]],[[[21.76838,37.65833],[21.76961,37.6625],[21.77487,37.6625],[21.77365,37.65833],[21.76838,37.65833]]],[[[21.82837,37.68333],[21.82714,37.67917],[21.82188,37.67917],[21.8231,37.68333],[21.81784,37.68333],[21.82274,37.7],[21.81221,37.7],[21.80976,37.69167],[21.7887,37.69167],[21.79114,37.7],[21.79641,37.7],[21.79764,37.70417],[21.79237,37.70417],[21.7936,37.70833],[21.79886,37.70833],[21.80009,37.7125],[21.81589,37.7125],[21.81712,37.71667],[21.82765,37.71667],[21.82642,37.7125],[21.83169,37.7125],[21.83046,37.70833],[21.83573,37.70833],[21.83327,37.7],[21.83854,37.7],[21.83977,37.70417],[21.8503,37.70417],[21.85153,37.70833],[21.86206,37.70833],[21.85592,37.6875],[21.84012,37.6875],[21.8389,37.68333],[21.82837,37.68333]],[[21.83731,37.69583],[21.84258,37.69583],[21.84135,37.69167],[21.84662,37.69167],[21.84907,37.7],[21.83854,37.7],[21.83731,37.69583]],[[21.82555,37.69167],[21.82433,37.6875],[21.82959,37.6875],[21.83082,37.69167],[21.82555,37.69167]]],[[[21.77657,37.70417],[21.78184,37.70417],[21.78061,37.7],[21.77535,37.7],[21.77657,37.70417]]],[[[21.78833,37.70833],[21.7871,37.70417],[21.78184,37.70417],[21.78306,37.70833],[21.77253,37.70833],[21.77375,37.7125],[21.76849,37.7125],[21.76726,37.70833],[21.75146,37.70833],[21.75268,37.7125],[21.75795,37.7125],[21.75918,37.71667],[21.76444,37.71667],[21.76567,37.72083],[21.78674,37.72083],[21.78551,37.71667],[21.79078,37.71667],[21.78955,37.7125],[21.79482,37.7125],[21.7936,37.70833],[21.78833,37.70833]]],[[[21.69597,37.71667],[21.6907,37.71667],[21.69192,37.72083],[21.70772,37.72083],[21.70894,37.725],[21.71948,37.725],[21.71826,37.72083],[21.71299,37.72083],[21.71177,37.71667],[21.70123,37.71667],[21.70001,37.7125],[21.69475,37.7125],[21.69597,37.71667]]],[[[22.13642,38.375],[22.1377,38.37917],[22.14833,38.37917],[22.14705,38.375],[22.13642,38.375]]],[[[22.50824,36.72083],[22.50946,36.725],[22.51466,36.725],[22.51344,36.72083],[22.50824,36.72083]]],[[[22.49509,36.72917],[22.50029,36.72917],[22.49906,36.725],[22.49387,36.725],[22.49509,36.72917]]],[[[22.52077,36.74583],[22.52597,36.74583],[22.52475,36.74167],[22.51955,36.74167],[22.52077,36.74583]]],[[[22.40516,36.74167],[22.40759,36.75],[22.41279,36.75],[22.41036,36.74167],[22.40516,36.74167]]],[[[22.07457,37.34167],[22.07981,37.34167],[22.07858,37.3375],[22.07334,37.3375],[22.07457,37.34167]]],[[[22.04434,37.34583],[22.0391,37.34583],[22.03788,37.34167],[22.03264,37.34167],[22.03509,37.35],[22.04557,37.35],[22.04434,37.34583]]],[[[23.83174,38.22917],[23.83311,38.23333],[23.83841,38.23333],[23.83705,38.22917],[23.83174,38.22917]]],[[[23.42488,38.74167],[23.42625,38.74583],[23.43159,38.74583],[23.43022,38.74167],[23.42488,38.74167]]],[[[23.42091,38.74583],[23.42227,38.75],[23.42761,38.75],[23.42625,38.74583],[23.42091,38.74583]]],[[[23.39532,38.71667],[23.38464,38.71667],[23.38737,38.725],[23.38203,38.725],[23.38612,38.7375],[23.38078,38.7375],[23.38487,38.75],[23.37953,38.75],[23.3809,38.75417],[23.37555,38.75417],[23.37692,38.75833],[23.37157,38.75833],[23.37294,38.7625],[23.34622,38.7625],[23.34486,38.75833],[23.32883,38.75833],[23.33155,38.76667],[23.32621,38.76667],[23.32757,38.77083],[23.30085,38.77083],[23.30221,38.775],[23.3129,38.775],[23.31426,38.77917],[23.30892,38.77917],[23.31028,38.78333],[23.32097,38.78333],[23.3237,38.79167],[23.31835,38.79167],[23.31971,38.79583],[23.35179,38.79583],[23.34906,38.7875],[23.35975,38.7875],[23.35839,38.78333],[23.36373,38.78333],[23.36237,38.77917],[23.36771,38.77917],[23.36908,38.78333],[23.37977,38.78333],[23.37703,38.775],[23.39307,38.775],[23.39034,38.76667],[23.40637,38.76667],[23.40363,38.75833],[23.40898,38.75833],[23.40624,38.75],[23.39556,38.75],[23.39283,38.74167],[23.39817,38.74167],[23.39681,38.7375],[23.40215,38.7375],[23.40078,38.73333],[23.41146,38.73333],[23.4101,38.72917],[23.41544,38.72917],[23.41407,38.725],[23.41942,38.725],[23.41396,38.70833],[23.40862,38.70833],[23.40725,38.70417],[23.40191,38.70417],[23.40464,38.7125],[23.39396,38.7125],[23.39532,38.71667]],[[23.40873,38.725],[23.40737,38.72083],[23.41271,38.72083],[23.41407,38.725],[23.40873,38.725]],[[23.33439,38.79167],[23.33302,38.7875],[23.33837,38.7875],[23.33973,38.79167],[23.33439,38.79167]]],[[[23.41295,38.75417],[23.4183,38.75417],[23.41693,38.75],[23.41159,38.75],[23.41295,38.75417]]],[[[23.41581,38.77917],[23.41718,38.78333],[23.42253,38.78333],[23.42116,38.77917],[23.41581,38.77917]]],[[[23.33177,38.8],[23.33313,38.80417],[23.34383,38.80417],[23.34246,38.8],[23.33177,38.8]]],[[[23.43486,38.82083],[23.43623,38.825],[23.44158,38.825],[23.44021,38.82083],[23.43486,38.82083]]],[[[23.34269,38.83333],[23.34804,38.83333],[23.34667,38.82917],[23.34133,38.82917],[23.34269,38.83333]]],[[[23.21704,38.84167],[23.20099,38.84167],[23.20235,38.84583],[23.2184,38.84583],[23.21976,38.85],[23.23046,38.85],[23.22774,38.84167],[23.23308,38.84167],[23.229,38.82917],[23.22366,38.82917],[23.22502,38.83333],[23.21432,38.83333],[23.21704,38.84167]]],[[[23.34406,38.8375],[23.34543,38.84167],[23.35077,38.84167],[23.34941,38.8375],[23.34406,38.8375]]],[[[23.21041,38.85417],[23.21177,38.85833],[23.23318,38.85833],[23.23182,38.85417],[23.22112,38.85417],[23.21976,38.85],[23.21441,38.85],[23.21577,38.85417],[23.21041,38.85417]]],[[[23.30695,38.8875],[23.30832,38.89167],[23.31367,38.89167],[23.3123,38.8875],[23.30695,38.8875]]],[[[23.18791,38.9],[23.20397,38.9],[23.19717,38.87917],[23.19182,38.87917],[23.19318,38.88333],[23.18782,38.88333],[23.1919,38.89583],[23.18655,38.89583],[23.18791,38.9]]],[[[23.30433,38.89583],[23.30968,38.89583],[23.30832,38.89167],[23.30296,38.89167],[23.30433,38.89583]]],[[[23.22539,38.9],[23.23084,38.91667],[23.24155,38.91667],[23.24428,38.925],[23.26571,38.925],[23.26844,38.93333],[23.25773,38.93333],[23.26046,38.94167],[23.28189,38.94167],[23.27915,38.93333],[23.28451,38.93333],[23.28177,38.925],[23.27642,38.925],[23.27368,38.91667],[23.26833,38.91667],[23.2656,38.90833],[23.27095,38.90833],[23.27232,38.9125],[23.27767,38.9125],[23.27904,38.91667],[23.28439,38.91667],[23.28166,38.90833],[23.28702,38.90833],[23.28428,38.9],[23.28964,38.9],[23.2869,38.89167],[23.29226,38.89167],[23.28952,38.88333],[23.29488,38.88333],[23.29624,38.8875],[23.30695,38.8875],[23.30558,38.88333],[23.31094,38.88333],[23.30957,38.87917],[23.31492,38.87917],[23.31355,38.875],[23.30285,38.875],[23.30012,38.86667],[23.29477,38.86667],[23.2934,38.8625],[23.28805,38.8625],[23.29078,38.87083],[23.28543,38.87083],[23.28679,38.875],[23.28144,38.875],[23.27871,38.86667],[23.26801,38.86667],[23.26528,38.85833],[23.25993,38.85833],[23.2613,38.8625],[23.24524,38.8625],[23.24388,38.85833],[23.23853,38.85833],[23.23989,38.8625],[23.23454,38.8625],[23.2359,38.86667],[23.2145,38.86667],[23.21722,38.875],[23.20651,38.875],[23.20787,38.87917],[23.20252,38.87917],[23.20388,38.88333],[23.20923,38.88333],[23.21468,38.9],[23.22539,38.9]],[[23.22257,38.875],[23.22529,38.88333],[23.21994,38.88333],[23.21722,38.875],[23.22257,38.875]],[[23.24817,38.90417],[23.25352,38.90417],[23.25625,38.9125],[23.26161,38.9125],[23.26297,38.91667],[23.25226,38.91667],[23.24817,38.90417]],[[23.24807,38.8875],[23.25342,38.8875],[23.25478,38.89167],[23.26014,38.89167],[23.2615,38.89583],[23.25079,38.89583],[23.24807,38.8875]],[[23.23863,38.875],[23.23327,38.875],[23.23191,38.87083],[23.23726,38.87083],[23.23863,38.875]],[[23.26003,38.875],[23.24933,38.875],[23.2466,38.86667],[23.25731,38.86667],[23.26003,38.875]]],[[[23.21205,38.90833],[23.2067,38.90833],[23.20942,38.91667],[23.19871,38.91667],[23.20007,38.92083],[23.20543,38.92083],[23.20952,38.93333],[23.22023,38.93333],[23.21614,38.92083],[23.22685,38.92083],[23.22276,38.90833],[23.21741,38.90833],[23.21877,38.9125],[23.21341,38.9125],[23.21205,38.90833]]],[[[23.32612,38.94583],[23.32076,38.94583],[23.31939,38.94167],[23.31403,38.94167],[23.31677,38.95],[23.32749,38.95],[23.32612,38.94583]]],[[[23.3665,38.97083],[23.36114,38.97083],[23.36252,38.975],[23.36788,38.975],[23.3665,38.97083]]],[[[23.19238,38.97917],[23.19774,38.97917],[23.19637,38.975],[23.19101,38.975],[23.19238,38.97917]]],[[[23.23903,38.94167],[23.24176,38.95],[23.23105,38.95],[23.22559,38.93333],[23.22023,38.93333],[23.2216,38.9375],[23.21624,38.9375],[23.22443,38.9625],[23.22979,38.9625],[23.22706,38.95417],[23.23241,38.95417],[23.23378,38.95833],[23.25521,38.95833],[23.26069,38.975],[23.23925,38.975],[23.24335,38.9875],[23.23263,38.9875],[23.234,38.99167],[23.21255,38.99167],[23.21119,38.9875],[23.20047,38.9875],[23.2032,38.99583],[23.20856,38.99583],[23.20993,39.0],[23.22601,39.0],[23.22738,39.00417],[23.23274,39.00417],[23.23137,39.0],[23.24209,39.0],[23.24483,39.00833],[23.23947,39.00833],[23.24495,39.025],[23.2664,39.025],[23.26229,39.0125],[23.28374,39.0125],[23.28786,39.025],[23.29858,39.025],[23.29584,39.01667],[23.31729,39.01667],[23.31454,39.00833],[23.3199,39.00833],[23.31853,39.00417],[23.32389,39.00417],[23.32526,39.00833],[23.33063,39.00833],[23.32925,39.00417],[23.33461,39.00417],[23.33324,39.0],[23.3386,39.0],[23.33998,39.00417],[23.34534,39.00417],[23.34121,38.99167],[23.35194,38.99167],[23.35056,38.9875],[23.3452,38.9875],[23.34383,38.98333],[23.35991,38.98333],[23.35716,38.975],[23.3518,38.975],[23.35043,38.97083],[23.36114,38.97083],[23.35977,38.96667],[23.36513,38.96667],[23.3665,38.97083],[23.37186,38.97083],[23.37049,38.96667],[23.37585,38.96667],[23.37447,38.9625],[23.3584,38.9625],[23.35702,38.95833],[23.35166,38.95833],[23.34892,38.95],[23.3382,38.95],[23.33957,38.95417],[23.33422,38.95417],[23.33284,38.95],[23.32749,38.95],[23.33023,38.95833],[23.31951,38.95833],[23.31677,38.95],[23.30606,38.95],[23.3088,38.95833],[23.29808,38.95833],[23.29671,38.95417],[23.29135,38.95417],[23.28998,38.95],[23.27391,38.95],[23.27528,38.95417],[23.26456,38.95417],[23.26046,38.94167],[23.23903,38.94167]],[[23.30082,38.96667],[23.2901,38.96667],[23.28736,38.95833],[23.29808,38.95833],[23.30082,38.96667]],[[23.2689,39.0],[23.27164,39.00833],[23.25019,39.00833],[23.24746,39.0],[23.2689,39.0]],[[23.26616,38.99167],[23.27688,38.99167],[23.27963,39.0],[23.2689,39.0],[23.26616,38.99167]],[[23.32363,38.97083],[23.32226,38.96667],[23.33297,38.96667],[23.33572,38.975],[23.31964,38.975],[23.31827,38.97083],[23.32363,38.97083]]]]}},{"type":"Feature","properties":{"day":"2021-08-09","doy":221,"px":307,"km2":65.9},"geometry":{"type":"MultiPolygon","coordinates":[[[[21.78577,37.64583],[21.78821,37.65417],[21.79348,37.65417],[21.79103,37.64583],[21.78577,37.64583]]],[[[21.68944,37.65833],[21.6947,37.65833],[21.69348,37.65417],[21.68822,37.65417],[21.68944,37.65833]]],[[[21.78662,37.66667],[21.79188,37.66667],[21.79066,37.6625],[21.7854,37.6625],[21.78662,37.66667]]],[[[21.74451,37.66667],[21.74573,37.67083],[21.75099,37.67083],[21.74977,37.66667],[21.74451,37.66667]]],[[[21.82065,37.675],[21.82592,37.675],[21.82469,37.67083],[21.81943,37.67083],[21.82065,37.675]]],[[[21.64936,37.68333],[21.65462,37.68333],[21.65341,37.67917],[21.64814,37.67917],[21.64936,37.68333]]],[[[21.79029,37.67917],[21.79151,37.68333],[21.79678,37.68333],[21.79555,37.67917],[21.79029,37.67917]]],[[[21.78833,37.70833],[21.7936,37.70833],[21.79114,37.7],[21.78588,37.7],[21.78833,37.70833]]],[[[21.77779,37.70833],[21.78306,37.70833],[21.78184,37.70417],[21.77657,37.70417],[21.77779,37.70833]]],[[[21.56834,37.7125],[21.57361,37.7125],[21.57239,37.70833],[21.56713,37.70833],[21.56834,37.7125]]],[[[21.79482,37.7125],[21.80009,37.7125],[21.79886,37.70833],[21.7936,37.70833],[21.79482,37.7125]]],[[[21.80131,37.71667],[21.80658,37.71667],[21.80535,37.7125],[21.80009,37.7125],[21.80131,37.71667]]],[[[21.73811,37.71667],[21.74337,37.71667],[21.74215,37.7125],[21.73688,37.7125],[21.73811,37.71667]]],[[[21.78551,37.71667],[21.78674,37.72083],[21.80254,37.72083],[21.80131,37.71667],[21.79605,37.71667],[21.79482,37.7125],[21.78955,37.7125],[21.79078,37.71667],[21.78551,37.71667]]],[[[21.75513,37.72083],[21.76567,37.72083],[21.76444,37.71667],[21.75391,37.71667],[21.75513,37.72083]]],[[[21.67207,37.725],[21.68787,37.725],[21.68665,37.72083],[21.69192,37.72083],[21.6907,37.71667],[21.6749,37.71667],[21.67612,37.72083],[21.67085,37.72083],[21.67207,37.725]]],[[[21.81553,37.72917],[21.83133,37.72917],[21.83011,37.725],[21.82484,37.725],[21.82238,37.71667],[21.81712,37.71667],[21.81957,37.725],[21.8143,37.725],[21.81553,37.72917]]],[[[21.69314,37.725],[21.69841,37.725],[21.69719,37.72083],[21.69192,37.72083],[21.69314,37.725]]],[[[22.38247,36.77083],[22.38368,36.775],[22.39929,36.775],[22.39807,36.77083],[22.38247,36.77083]]],[[[22.0337,37.29167],[22.03248,37.2875],[22.01677,37.2875],[22.01799,37.29167],[22.0337,37.29167]]],[[[22.0337,37.29167],[22.03492,37.29583],[22.04016,37.29583],[22.03894,37.29167],[22.0337,37.29167]]],[[[22.00873,37.29583],[22.00995,37.3],[22.01519,37.3],[22.01397,37.29583],[22.00873,37.29583]]],[[[22.03736,37.30417],[22.04784,37.30417],[22.04662,37.3],[22.03614,37.3],[22.03736,37.30417]]],[[[22.05028,37.3125],[22.05552,37.3125],[22.0543,37.30833],[22.04906,37.30833],[22.05028,37.3125]]],[[[22.04504,37.3125],[22.04627,37.31667],[22.05151,37.31667],[22.05028,37.3125],[22.04504,37.3125]]],[[[22.02775,37.325],[22.03299,37.325],[22.03177,37.32083],[22.02653,37.32083],[22.02775,37.325]]],[[[22.04993,37.32917],[22.05517,37.32917],[22.05395,37.325],[22.04871,37.325],[22.04993,37.32917]]],[[[21.98181,37.32917],[21.98705,37.32917],[21.98583,37.325],[21.98059,37.325],[21.98181,37.32917]]],[[[22.03544,37.33333],[22.04068,37.33333],[22.03823,37.325],[22.03299,37.325],[22.03544,37.33333]]],[[[22.04714,37.3375],[22.05238,37.3375],[22.04993,37.32917],[22.04469,37.32917],[22.04714,37.3375]]],[[[22.05762,37.3375],[22.06286,37.3375],[22.06164,37.33333],[22.0564,37.33333],[22.05762,37.3375]]],[[[22.01168,37.34167],[22.0129,37.34583],[22.01814,37.34583],[22.01692,37.34167],[22.01168,37.34167]]],[[[22.04679,37.35417],[22.05203,37.35417],[22.05081,37.35],[22.05605,37.35],[22.0536,37.34167],[22.04836,37.34167],[22.04959,37.34583],[22.04434,37.34583],[22.04679,37.35417]]],[[[22.02181,37.35833],[22.02705,37.35833],[22.02582,37.35417],[22.02058,37.35417],[22.02181,37.35833]]],[[[22.01901,37.36667],[22.02425,37.36667],[22.02303,37.3625],[22.01779,37.3625],[22.01901,37.36667]]],[[[22.03474,37.36667],[22.03998,37.36667],[22.03876,37.3625],[22.03351,37.3625],[22.03474,37.36667]]],[[[21.83118,37.675],[21.84171,37.675],[21.84048,37.67083],[21.82995,37.67083],[21.83118,37.675]]],[[[21.82837,37.68333],[21.8389,37.68333],[21.83767,37.67917],[21.82714,37.67917],[21.82837,37.68333]]],[[[21.84293,37.67917],[21.84416,37.68333],[21.84943,37.68333],[21.8482,37.67917],[21.84293,37.67917]]],[[[21.83854,37.7],[21.84907,37.7],[21.84784,37.69583],[21.83731,37.69583],[21.83854,37.7]]],[[[21.83854,37.7],[21.83327,37.7],[21.8345,37.70417],[21.83977,37.70417],[21.83854,37.7]]],[[[21.84626,37.70833],[21.85153,37.70833],[21.8503,37.70417],[21.84503,37.70417],[21.84626,37.70833]]],[[[22.14833,38.37917],[22.15364,38.37917],[22.15237,38.375],[22.14705,38.375],[22.14833,38.37917]]],[[[22.13238,38.37917],[22.1377,38.37917],[22.13642,38.375],[22.13111,38.375],[22.13238,38.37917]]],[[[22.14259,38.4125],[22.14791,38.4125],[22.14663,38.40833],[22.14131,38.40833],[22.14259,38.4125]]],[[[22.44464,36.71667],[22.44586,36.72083],[22.45106,36.72083],[22.44984,36.71667],[22.44464,36.71667]]],[[[22.41711,36.72917],[22.4223,36.72917],[22.42109,36.725],[22.41589,36.725],[22.41711,36.72917]]],[[[22.44952,36.73333],[22.45471,36.73333],[22.4535,36.72917],[22.4483,36.72917],[22.44952,36.73333]]],[[[22.40394,36.7375],[22.40272,36.73333],[22.40792,36.73333],[22.40671,36.72917],[22.39631,36.72917],[22.39874,36.7375],[22.40394,36.7375]]],[[[23.87473,38.15],[23.88003,38.15],[23.87867,38.14583],[23.87337,38.14583],[23.87473,38.15]]],[[[23.75694,38.1625],[23.76224,38.1625],[23.76088,38.15833],[23.75558,38.15833],[23.75694,38.1625]]],[[[23.76224,38.1625],[23.76496,38.17083],[23.77026,38.17083],[23.76754,38.1625],[23.76224,38.1625]]],[[[23.77433,38.18333],[23.77963,38.18333],[23.77827,38.17917],[23.77297,38.17917],[23.77433,38.18333]]],[[[23.37157,38.75833],[23.37692,38.75833],[23.37555,38.75417],[23.37021,38.75417],[23.37157,38.75833]]],[[[23.3195,38.7625],[23.32485,38.7625],[23.32348,38.75833],[23.31814,38.75833],[23.3195,38.7625]]],[[[23.36759,38.7625],[23.37294,38.7625],[23.37157,38.75833],[23.36623,38.75833],[23.36759,38.7625]]],[[[23.40786,38.7875],[23.41321,38.7875],[23.41184,38.78333],[23.40649,38.78333],[23.40786,38.7875]]],[[[23.42403,38.80417],[23.42937,38.80417],[23.428,38.8],[23.42266,38.8],[23.42403,38.80417]]],[[[23.45104,38.8375],[23.45242,38.84167],[23.45777,38.84167],[23.45639,38.8375],[23.45104,38.8375]]],[[[23.28543,38.87083],[23.29078,38.87083],[23.28942,38.86667],[23.27871,38.86667],[23.28144,38.875],[23.28679,38.875],[23.28543,38.87083]]],[[[23.21332,38.89583],[23.20797,38.89583],[23.2066,38.89167],[23.21196,38.89167],[23.2106,38.8875],[23.20524,38.8875],[23.20388,38.88333],[23.19853,38.88333],[23.20397,38.9],[23.18256,38.9],[23.18392,38.90417],[23.17321,38.90417],[23.17593,38.9125],[23.18664,38.9125],[23.188,38.91667],[23.19336,38.91667],[23.19472,38.92083],[23.20007,38.92083],[23.19871,38.91667],[23.20942,38.91667],[23.2067,38.90833],[23.22812,38.90833],[23.22539,38.9],[23.21468,38.9],[23.21332,38.89583]]],[[[23.21614,38.92083],[23.22023,38.93333],[23.22559,38.93333],[23.23105,38.95],[23.24176,38.95],[23.23903,38.94167],[23.26046,38.94167],[23.25636,38.92917],[23.26172,38.92917],[23.26035,38.925],[23.24428,38.925],[23.24155,38.91667],[23.22549,38.91667],[23.22685,38.92083],[23.21614,38.92083]]],[[[23.26046,38.94167],[23.26456,38.95417],[23.27528,38.95417],[23.27117,38.94167],[23.26046,38.94167]]],[[[23.23241,38.95417],[23.22706,38.95417],[23.22979,38.9625],[23.22443,38.9625],[23.21897,38.94583],[23.21361,38.94583],[23.21498,38.95],[23.20962,38.95],[23.21235,38.95833],[23.19627,38.95833],[23.199,38.96667],[23.20436,38.96667],[23.20572,38.97083],[23.19501,38.97083],[23.19774,38.97917],[23.2031,38.97917],[23.20446,38.98333],[23.19374,38.98333],[23.19511,38.9875],[23.21119,38.9875],[23.21255,38.99167],[23.234,38.99167],[23.23263,38.9875],[23.24335,38.9875],[23.23925,38.975],[23.26069,38.975],[23.25521,38.95833],[23.23378,38.95833],[23.23241,38.95417]]],[[[23.33297,38.96667],[23.32226,38.96667],[23.32363,38.97083],[23.31827,38.97083],[23.31964,38.975],[23.33572,38.975],[23.33297,38.96667]]],[[[23.34932,39.0],[23.34795,38.99583],[23.35331,38.99583],[23.35194,38.99167],[23.34121,38.99167],[23.34396,39.0],[23.34932,39.0]]],[[[23.2689,39.0],[23.27963,39.0],[23.27688,38.99167],[23.26616,38.99167],[23.2689,39.0]]],[[[23.21665,39.00417],[23.22738,39.00417],[23.22601,39.0],[23.21529,39.0],[23.21665,39.00417]]],[[[23.25019,39.00833],[23.27164,39.00833],[23.2689,39.0],[23.24746,39.0],[23.25019,39.00833]]],[[[23.2381,39.00417],[23.24346,39.00417],[23.24209,39.0],[23.23137,39.0],[23.23411,39.00833],[23.23947,39.00833],[23.2381,39.00417]]],[[[23.31729,39.01667],[23.32265,39.01667],[23.3199,39.00833],[23.31454,39.00833],[23.31729,39.01667]]],[[[23.27987,39.03333],[23.30133,39.03333],[23.29996,39.02917],[23.31068,39.02917],[23.30931,39.025],[23.32004,39.025],[23.31729,39.01667],[23.29584,39.01667],[23.29858,39.025],[23.28786,39.025],[23.28374,39.0125],[23.26229,39.0125],[23.2664,39.025],[23.27713,39.025],[23.27987,39.03333]]]]}},{"type":"Feature","properties":{"day":"2021-08-10","doy":222,"px":143,"km2":30.7},"geometry":{"type":"MultiPolygon","coordinates":[[[[21.49624,37.7],[21.50151,37.7],[21.5003,37.69583],[21.49503,37.69583],[21.49624,37.7]]],[[[22.00873,37.29583],[22.01397,37.29583],[22.01275,37.29167],[22.00751,37.29167],[22.00873,37.29583]]],[[[22.04906,37.30833],[22.0543,37.30833],[22.05308,37.30417],[22.04784,37.30417],[22.04906,37.30833]]],[[[22.0536,37.34167],[22.06933,37.34167],[22.0681,37.3375],[22.05238,37.3375],[22.0536,37.34167]]],[[[22.0391,37.34583],[22.04959,37.34583],[22.04836,37.34167],[22.03788,37.34167],[22.0391,37.34583]]],[[[22.06129,37.35],[22.06653,37.35],[22.06531,37.34583],[22.06007,37.34583],[22.06129,37.35]]],[[[22.03753,37.35833],[22.03876,37.3625],[22.044,37.3625],[22.04277,37.35833],[22.03753,37.35833]]],[[[21.83472,37.63333],[21.85576,37.63333],[21.85331,37.625],[21.86383,37.625],[21.86016,37.6125],[21.83386,37.6125],[21.83508,37.61667],[21.82982,37.61667],[21.83472,37.63333]]],[[[21.81245,37.62917],[21.82297,37.62917],[21.82175,37.625],[21.81123,37.625],[21.81245,37.62917]]],[[[21.80841,37.63333],[21.81367,37.63333],[21.81245,37.62917],[21.80719,37.62917],[21.80841,37.63333]]],[[[21.87803,37.6375],[21.8833,37.6375],[21.88084,37.62917],[21.87558,37.62917],[21.87803,37.6375]]],[[[21.874,37.64167],[21.87926,37.64167],[21.87803,37.6375],[21.87277,37.6375],[21.874,37.64167]]],[[[21.80682,37.64583],[21.80156,37.64583],[21.80278,37.65],[21.8133,37.65],[21.80841,37.63333],[21.80315,37.63333],[21.80437,37.6375],[21.79911,37.6375],[21.80033,37.64167],[21.80559,37.64167],[21.80682,37.64583]]],[[[21.78821,37.65417],[21.78944,37.65833],[21.7947,37.65833],[21.79348,37.65417],[21.78821,37.65417]]],[[[21.88417,37.65833],[21.87891,37.65833],[21.87645,37.65],[21.87119,37.65],[21.8761,37.66667],[21.88663,37.66667],[21.88417,37.65833]]],[[[21.81943,37.67083],[21.82469,37.67083],[21.82346,37.66667],[21.83399,37.66667],[21.83154,37.65833],[21.81049,37.65833],[21.81171,37.6625],[21.81698,37.6625],[21.81943,37.67083]]],[[[21.75504,37.66667],[21.7603,37.66667],[21.75908,37.6625],[21.75381,37.6625],[21.75504,37.66667]]],[[[21.86277,37.675],[21.86803,37.675],[21.86557,37.66667],[21.86031,37.66667],[21.86277,37.675]]],[[[21.82592,37.675],[21.82065,37.675],[21.81943,37.67083],[21.81416,37.67083],[21.81539,37.675],[21.81012,37.675],[21.8089,37.67083],[21.80363,37.67083],[21.80486,37.675],[21.79959,37.675],[21.80082,37.67917],[21.80608,37.67917],[21.80731,37.68333],[21.81257,37.68333],[21.81135,37.67917],[21.81661,37.67917],[21.81784,37.68333],[21.8231,37.68333],[21.82188,37.67917],[21.82714,37.67917],[21.82592,37.675]]],[[[21.84171,37.675],[21.83644,37.675],[21.84012,37.6875],[21.85592,37.6875],[21.85715,37.69167],[21.86241,37.69167],[21.85627,37.67083],[21.85101,37.67083],[21.85224,37.675],[21.84697,37.675],[21.84575,37.67083],[21.84048,37.67083],[21.84171,37.675]],[[21.84416,37.68333],[21.84293,37.67917],[21.8482,37.67917],[21.84943,37.68333],[21.84416,37.68333]]],[[[21.82555,37.69167],[21.83082,37.69167],[21.82959,37.6875],[21.82433,37.6875],[21.82555,37.69167]]],[[[21.84258,37.69583],[21.84784,37.69583],[21.84662,37.69167],[21.84135,37.69167],[21.84258,37.69583]]],[[[21.841,37.70833],[21.84626,37.70833],[21.84503,37.70417],[21.83977,37.70417],[21.841,37.70833]]],[[[21.79605,37.71667],[21.80131,37.71667],[21.80009,37.7125],[21.79482,37.7125],[21.79605,37.71667]]],[[[21.75391,37.71667],[21.75918,37.71667],[21.75795,37.7125],[21.75268,37.7125],[21.75391,37.71667]]],[[[21.8143,37.725],[21.81957,37.725],[21.81712,37.71667],[21.81185,37.71667],[21.8143,37.725]]],[[[21.63519,37.725],[21.64046,37.725],[21.63924,37.72083],[21.63398,37.72083],[21.63519,37.725]]],[[[21.66153,37.725],[21.67207,37.725],[21.67085,37.72083],[21.66031,37.72083],[21.66153,37.725]]],[[[21.64978,37.72083],[21.651,37.725],[21.65627,37.725],[21.65505,37.72083],[21.64978,37.72083]]],[[[22.16172,38.37083],[22.16703,38.37083],[22.16576,38.36667],[22.16044,38.36667],[22.16172,38.37083]]],[[[22.244,38.37917],[22.24932,38.37917],[22.24803,38.375],[22.24272,38.375],[22.244,38.37917]]],[[[22.43027,36.72083],[22.43547,36.72083],[22.43425,36.71667],[22.42905,36.71667],[22.43027,36.72083]]],[[[22.45189,36.8125],[22.4571,36.8125],[22.45587,36.80833],[22.45067,36.80833],[22.45189,36.8125]]],[[[22.40961,36.84583],[22.41482,36.84583],[22.41359,36.84167],[22.40839,36.84167],[22.40961,36.84583]]],[[[22.05517,37.32917],[22.06041,37.32917],[22.05919,37.325],[22.05395,37.325],[22.05517,37.32917]]],[[[22.0681,37.3375],[22.07858,37.3375],[22.07736,37.33333],[22.06688,37.33333],[22.0681,37.3375]]],[[[23.78766,38.19167],[23.79296,38.19167],[23.7916,38.1875],[23.7863,38.1875],[23.78766,38.19167]]],[[[23.39817,38.74167],[23.40351,38.74167],[23.40215,38.7375],[23.39681,38.7375],[23.39817,38.74167]]],[[[23.41556,38.74583],[23.42091,38.74583],[23.41954,38.74167],[23.4142,38.74167],[23.41556,38.74583]]],[[[23.39556,38.75],[23.4009,38.75],[23.39817,38.74167],[23.39283,38.74167],[23.39556,38.75]]],[[[23.40624,38.75],[23.41693,38.75],[23.41556,38.74583],[23.40488,38.74583],[23.40624,38.75]]],[[[23.42898,38.75417],[23.43433,38.75417],[23.43296,38.75],[23.42761,38.75],[23.42898,38.75417]]],[[[23.32086,38.76667],[23.32621,38.76667],[23.32485,38.7625],[23.3195,38.7625],[23.32086,38.76667]]],[[[23.29414,38.76667],[23.29551,38.77083],[23.31154,38.77083],[23.31018,38.76667],[23.29414,38.76667]]],[[[23.40923,38.79167],[23.41457,38.79167],[23.41321,38.7875],[23.40786,38.7875],[23.40923,38.79167]]],[[[23.20144,38.925],[23.20679,38.925],[23.20543,38.92083],[23.20007,38.92083],[23.20144,38.925]]],[[[23.20699,38.95833],[23.21235,38.95833],[23.21098,38.95417],[23.20562,38.95417],[23.20699,38.95833]]],[[[23.36114,38.97083],[23.3665,38.97083],[23.36513,38.96667],[23.35977,38.96667],[23.36114,38.97083]]],[[[23.35716,38.975],[23.36252,38.975],[23.36114,38.97083],[23.35578,38.97083],[23.35716,38.975]]],[[[23.19374,38.98333],[23.1991,38.98333],[23.19774,38.97917],[23.19238,38.97917],[23.19374,38.98333]]],[[[23.3452,38.9875],[23.35056,38.9875],[23.34919,38.98333],[23.34383,38.98333],[23.3452,38.9875]]],[[[23.20456,39.0],[23.20993,39.0],[23.20856,38.99583],[23.2032,38.99583],[23.20456,39.0]]],[[[23.33461,39.00417],[23.33998,39.00417],[23.3386,39.0],[23.33324,39.0],[23.33461,39.00417]]],[[[23.21129,39.00417],[23.21665,39.00417],[23.21529,39.0],[23.20993,39.0],[23.21129,39.00417]]],[[[23.3199,39.00833],[23.32526,39.00833],[23.32389,39.00417],[23.31853,39.00417],[23.3199,39.00833]]],[[[23.31866,39.02083],[23.32402,39.02083],[23.32265,39.01667],[23.31729,39.01667],[23.31866,39.02083]]],[[[23.3254,39.025],[23.30931,39.025],[23.31068,39.02917],[23.29996,39.02917],[23.30133,39.03333],[23.31206,39.03333],[23.31343,39.0375],[23.3188,39.0375],[23.31742,39.03333],[23.32279,39.03333],[23.32141,39.02917],[23.32677,39.02917],[23.3254,39.025]]],[[[23.30133,39.03333],[23.27987,39.03333],[23.28125,39.0375],[23.3027,39.0375],[23.30133,39.03333]]]]}},{"type":"Feature","properties":{"day":"2021-08-11","doy":223,"px":154,"km2":33.1},"geometry":{"type":"MultiPolygon","coordinates":[[[[22.00228,37.29167],[22.0035,37.29583],[22.00873,37.29583],[22.00751,37.29167],[22.00228,37.29167]]],[[[21.94635,37.33333],[21.95159,37.33333],[21.95037,37.32917],[21.94513,37.32917],[21.94635,37.33333]]],[[[22.05238,37.3375],[22.04714,37.3375],[22.04592,37.33333],[22.04068,37.33333],[22.04312,37.34167],[22.0536,37.34167],[22.05238,37.3375]]],[[[22.0536,37.34167],[22.05483,37.34583],[22.06007,37.34583],[22.05884,37.34167],[22.0536,37.34167]]],[[[22.01901,37.36667],[22.02023,37.37083],[22.02547,37.37083],[22.02425,37.36667],[22.01901,37.36667]]],[[[22.02949,37.36667],[22.03072,37.37083],[22.03596,37.37083],[22.03474,37.36667],[22.02949,37.36667]]],[[[21.80156,37.64583],[21.80682,37.64583],[21.80559,37.64167],[21.80033,37.64167],[21.80156,37.64583]]],[[[21.87207,37.67083],[21.87733,37.67083],[21.87119,37.65],[21.86593,37.65],[21.8647,37.64583],[21.86996,37.64583],[21.86874,37.64167],[21.874,37.64167],[21.87277,37.6375],[21.87803,37.6375],[21.87558,37.62917],[21.88084,37.62917],[21.87839,37.62083],[21.87313,37.62083],[21.8719,37.61667],[21.86138,37.61667],[21.86383,37.625],[21.85331,37.625],[21.85576,37.63333],[21.83472,37.63333],[21.83105,37.62083],[21.81526,37.62083],[21.81649,37.625],[21.82175,37.625],[21.82297,37.62917],[21.81245,37.62917],[21.81367,37.63333],[21.80841,37.63333],[21.80963,37.6375],[21.81489,37.6375],[21.81612,37.64167],[21.81086,37.64167],[21.8133,37.65],[21.83435,37.65],[21.83313,37.64583],[21.83839,37.64583],[21.84207,37.65833],[21.8368,37.65833],[21.84048,37.67083],[21.84575,37.67083],[21.84697,37.675],[21.85224,37.675],[21.85101,37.67083],[21.86154,37.67083],[21.86031,37.66667],[21.86557,37.66667],[21.86803,37.675],[21.87329,37.675],[21.87207,37.67083]],[[21.84733,37.65833],[21.8461,37.65417],[21.85137,37.65417],[21.85259,37.65833],[21.84733,37.65833]]],[[[21.81171,37.6625],[21.81294,37.66667],[21.8182,37.66667],[21.81698,37.6625],[21.81171,37.6625]]],[[[21.82714,37.67917],[21.83767,37.67917],[21.83644,37.675],[21.82592,37.675],[21.82714,37.67917]]],[[[21.73238,37.67917],[21.73764,37.67917],[21.73642,37.675],[21.73116,37.675],[21.73238,37.67917]]],[[[21.82238,37.71667],[21.82484,37.725],[21.83011,37.725],[21.82765,37.71667],[21.82238,37.71667]]],[[[21.81676,37.73333],[21.82203,37.73333],[21.8208,37.72917],[21.81553,37.72917],[21.81676,37.73333]]],[[[23.19774,38.97917],[23.1991,38.98333],[23.20446,38.98333],[23.2031,38.97917],[23.19774,38.97917]]],[[[22.50029,36.72917],[22.50548,36.72917],[22.50426,36.725],[22.49906,36.725],[22.50029,36.72917]]],[[[23.76592,38.125],[23.76728,38.12917],[23.77257,38.12917],[23.77122,38.125],[23.76592,38.125]]],[[[23.88669,38.15417],[23.89199,38.15417],[23.89063,38.15],[23.88533,38.15],[23.88669,38.15417]]],[[[23.40862,38.70833],[23.41396,38.70833],[23.41259,38.70417],[23.40725,38.70417],[23.40862,38.70833]]],[[[23.3926,38.70833],[23.39396,38.7125],[23.3993,38.7125],[23.39794,38.70833],[23.3926,38.70833]]],[[[23.38998,38.71667],[23.39532,38.71667],[23.39396,38.7125],[23.38862,38.7125],[23.38998,38.71667]]],[[[23.38203,38.725],[23.38737,38.725],[23.38601,38.72083],[23.38067,38.72083],[23.38203,38.725]]],[[[23.37942,38.73333],[23.38078,38.7375],[23.38612,38.7375],[23.38476,38.73333],[23.37942,38.73333]]],[[[23.41954,38.74167],[23.42091,38.74583],[23.42625,38.74583],[23.42488,38.74167],[23.41954,38.74167]]],[[[23.3768,38.74167],[23.37953,38.75],[23.38487,38.75],[23.38214,38.74167],[23.3768,38.74167]]],[[[23.37555,38.75417],[23.3809,38.75417],[23.37953,38.75],[23.37419,38.75],[23.37555,38.75417]]],[[[23.33439,38.79167],[23.33973,38.79167],[23.33837,38.7875],[23.33302,38.7875],[23.33439,38.79167]]],[[[23.428,38.8],[23.42937,38.80417],[23.43472,38.80417],[23.43335,38.8],[23.428,38.8]]],[[[23.44693,38.825],[23.45227,38.825],[23.4509,38.82083],[23.44555,38.82083],[23.44693,38.825]]],[[[23.20761,38.82917],[23.21296,38.82917],[23.2116,38.825],[23.20625,38.825],[23.20761,38.82917]]],[[[23.44295,38.82917],[23.44432,38.83333],[23.44967,38.83333],[23.4483,38.82917],[23.44295,38.82917]]],[[[23.20371,38.85],[23.21976,38.85],[23.2184,38.84583],[23.20235,38.84583],[23.20371,38.85]]],[[[23.2145,38.86667],[23.21985,38.86667],[23.21713,38.85833],[23.21177,38.85833],[23.2145,38.86667]]],[[[23.2934,38.8625],[23.29477,38.86667],[23.30547,38.86667],[23.3041,38.8625],[23.2934,38.8625]]],[[[23.43926,38.86667],[23.44063,38.87083],[23.44598,38.87083],[23.44461,38.86667],[23.43926,38.86667]]],[[[23.2105,38.87083],[23.21187,38.875],[23.21722,38.875],[23.21586,38.87083],[23.2105,38.87083]]],[[[23.18256,38.9],[23.18791,38.9],[23.18655,38.89583],[23.1812,38.89583],[23.18256,38.9]]],[[[23.26696,38.9125],[23.27232,38.9125],[23.27095,38.90833],[23.2656,38.90833],[23.26696,38.9125]]],[[[23.21488,38.93333],[23.21624,38.9375],[23.2216,38.9375],[23.22023,38.93333],[23.21488,38.93333]]],[[[23.20562,38.95417],[23.21098,38.95417],[23.20962,38.95],[23.1989,38.95],[23.20163,38.95833],[23.20699,38.95833],[23.20562,38.95417]]],[[[23.20036,38.97083],[23.20572,38.97083],[23.20436,38.96667],[23.199,38.96667],[23.20036,38.97083]]],[[[23.2381,39.00417],[23.23947,39.00833],[23.24483,39.00833],[23.24346,39.00417],[23.2381,39.00417]]],[[[23.32279,39.03333],[23.32815,39.03333],[23.32677,39.02917],[23.32141,39.02917],[23.32279,39.03333]]],[[[23.3027,39.0375],[23.31343,39.0375],[23.31206,39.03333],[23.30133,39.03333],[23.3027,39.0375]]]]}},{"type":"Feature","properties":{"day":"2021-08-12","doy":224,"px":9,"km2":1.9},"geometry":{"type":"MultiPolygon","coordinates":[[[[22.53729,36.76667],[22.53209,36.76667],[22.53331,36.77083],[22.53852,36.77083],[22.53729,36.76667]]],[[[21.83399,37.66667],[21.82346,37.66667],[21.82592,37.675],[21.83118,37.675],[21.82995,37.67083],[21.84048,37.67083],[21.83803,37.6625],[21.83277,37.6625],[21.83399,37.66667]]],[[[23.20252,38.87917],[23.19717,38.87917],[23.19853,38.88333],[23.20388,38.88333],[23.20252,38.87917]]],[[[23.19054,38.89167],[23.17984,38.89167],[23.1812,38.89583],[23.1919,38.89583],[23.19054,38.89167]]]]}},{"type":"Feature","properties":{"day":"2021-08-13","doy":225,"px":8,"km2":1.7},"geometry":{"type":"MultiPolygon","coordinates":[[[[21.83313,37.64583],[21.83435,37.65],[21.83962,37.65],[21.83839,37.64583],[21.83313,37.64583]]],[[[21.8461,37.65417],[21.84733,37.65833],[21.85259,37.65833],[21.85137,37.65417],[21.8461,37.65417]]],[[[21.8368,37.65833],[21.83154,37.65833],[21.83277,37.6625],[21.83803,37.6625],[21.8368,37.65833]]],[[[21.81012,37.675],[21.81539,37.675],[21.81416,37.67083],[21.81943,37.67083],[21.8182,37.66667],[21.80767,37.66667],[21.81012,37.675]]],[[[23.3199,39.00833],[23.32128,39.0125],[23.32664,39.0125],[23.32526,39.00833],[23.3199,39.00833]]],[[[23.31866,39.02083],[23.32004,39.025],[23.3254,39.025],[23.32402,39.02083],[23.31866,39.02083]]]]}},{"type":"Feature","properties":{"day":"2021-08-14","doy":226,"px":3,"km2":0.6},"geometry":{"type":"MultiPolygon","coordinates":[[[[22.40394,36.7375],[22.40516,36.74167],[22.41036,36.74167],[22.40914,36.7375],[22.40394,36.7375]]],[[[23.33944,38.06667],[23.34077,38.07083],[23.34606,38.07083],[23.34474,38.06667],[23.33944,38.06667]]],[[[23.18383,38.8875],[23.18519,38.89167],[23.19054,38.89167],[23.18918,38.8875],[23.18383,38.8875]]]]}},{"type":"Feature","properties":{"day":"2021-08-15","doy":227,"px":2,"km2":0.4},"geometry":{"type":"MultiPolygon","coordinates":[[[[23.3118,38.1625],[23.31046,38.15833],[23.30516,38.15833],[23.3065,38.1625],[23.3118,38.1625]]],[[[23.21187,38.875],[23.2105,38.87083],[23.20515,38.87083],[23.20651,38.875],[23.21187,38.875]]]]}},{"type":"Feature","properties":{"day":"2021-08-16","doy":228,"px":104,"km2":22.3},"geometry":{"type":"MultiPolygon","coordinates":[[[[23.30906,38.10417],[23.30773,38.1],[23.30243,38.1],[23.30376,38.10417],[23.30906,38.10417]]],[[[23.28258,38.10417],[23.27729,38.10417],[23.27861,38.10833],[23.28391,38.10833],[23.28258,38.10417]]],[[[23.30642,38.1125],[23.30112,38.1125],[23.30245,38.11667],[23.30775,38.11667],[23.30642,38.1125]]],[[[23.27996,38.12917],[23.27863,38.125],[23.27333,38.125],[23.27466,38.12917],[23.27996,38.12917]]],[[[24.01371,37.73333],[24.01101,37.725],[24.00574,37.725],[24.00439,37.72083],[23.99386,37.72083],[23.99791,37.73333],[23.99264,37.73333],[23.99534,37.74167],[24.00588,37.74167],[24.00723,37.74583],[24.00196,37.74583],[24.00331,37.75],[24.00858,37.75],[24.00993,37.75417],[24.03101,37.75417],[24.02831,37.74583],[24.02304,37.74583],[24.01898,37.73333],[24.01371,37.73333]]],[[[23.33944,38.06667],[23.33415,38.06667],[23.33548,38.07083],[23.34077,38.07083],[23.33944,38.06667]]],[[[23.33285,38.07917],[23.32755,38.07917],[23.32888,38.08333],[23.33417,38.08333],[23.33285,38.07917]]],[[[23.34476,38.08333],[23.34343,38.07917],[23.33814,38.07917],[23.33947,38.08333],[23.34476,38.08333]]],[[[23.32359,38.08333],[23.31829,38.08333],[23.31962,38.0875],[23.32492,38.0875],[23.32359,38.08333]]],[[[23.31036,38.09167],[23.30507,38.09167],[23.3064,38.09583],[23.31169,38.09583],[23.31036,38.09167]]],[[[23.33817,38.09583],[23.3395,38.1],[23.35538,38.1],[23.35272,38.09167],[23.33154,38.09167],[23.33287,38.09583],[23.33817,38.09583]]],[[[23.3276,38.1125],[23.34349,38.1125],[23.34083,38.10417],[23.33553,38.10417],[23.33686,38.10833],[23.32627,38.10833],[23.3276,38.1125]]],[[[23.32098,38.10833],[23.31568,38.10833],[23.31701,38.1125],[23.32231,38.1125],[23.32098,38.10833]]],[[[23.31967,38.12083],[23.31834,38.11667],[23.31305,38.11667],[23.31438,38.12083],[23.31967,38.12083]]],[[[23.39516,38.125],[23.38986,38.125],[23.39119,38.12917],[23.39649,38.12917],[23.39516,38.125]]],[[[23.32899,38.15],[23.33429,38.15],[23.32896,38.13333],[23.33426,38.13333],[23.33293,38.12917],[23.33822,38.12917],[23.33689,38.125],[23.31571,38.125],[23.31438,38.12083],[23.30378,38.12083],[23.30777,38.13333],[23.29718,38.13333],[23.29585,38.12917],[23.29055,38.12917],[23.2972,38.15],[23.3025,38.15],[23.30383,38.15417],[23.30913,38.15417],[23.3118,38.1625],[23.31709,38.1625],[23.31576,38.15833],[23.32636,38.15833],[23.32503,38.15417],[23.33033,38.15417],[23.32899,38.15]]]]}},{"type":"Feature","properties":{"day":"2021-08-17","doy":229,"px":67,"km2":14.4},"geometry":{"type":"MultiPolygon","coordinates":[[[[23.29184,38.1],[23.29051,38.09583],[23.28522,38.09583],[23.28655,38.1],[23.29184,38.1]]],[[[23.29583,38.1125],[23.2945,38.10833],[23.2892,38.10833],[23.28655,38.1],[23.28125,38.1],[23.28391,38.10833],[23.27861,38.10833],[23.27994,38.1125],[23.27465,38.1125],[23.2773,38.12083],[23.2826,38.12083],[23.28393,38.125],[23.29452,38.125],[23.29186,38.11667],[23.30245,38.11667],[23.30112,38.1125],[23.29583,38.1125]]],[[[23.29718,38.13333],[23.30777,38.13333],[23.30511,38.125],[23.29982,38.125],[23.30115,38.12917],[23.29585,38.12917],[23.29718,38.13333]]],[[[23.29188,38.13333],[23.28658,38.13333],[23.28791,38.1375],[23.29321,38.1375],[23.29188,38.13333]]],[[[23.35399,38.0625],[23.3487,38.0625],[23.35003,38.06667],[23.35532,38.06667],[23.35399,38.0625]]],[[[23.35405,38.09583],[23.35934,38.09583],[23.35668,38.0875],[23.34609,38.0875],[23.34742,38.09167],[23.35272,38.09167],[23.35405,38.09583]]],[[[23.3064,38.09583],[23.3011,38.09583],[23.30243,38.1],[23.30773,38.1],[23.3064,38.09583]]],[[[23.33287,38.09583],[23.32758,38.09583],[23.32891,38.1],[23.3342,38.1],[23.33287,38.09583]]],[[[23.37656,38.1],[23.37126,38.1],[23.37393,38.10833],[23.37923,38.10833],[23.37656,38.1]]],[[[23.3713,38.11667],[23.36601,38.11667],[23.36068,38.1],[23.35009,38.1],[23.35541,38.11667],[23.34482,38.11667],[23.34349,38.1125],[23.3329,38.1125],[23.33423,38.11667],[23.31834,38.11667],[23.31967,38.12083],[23.31438,38.12083],[23.31571,38.125],[23.36338,38.125],[23.36204,38.12083],[23.36734,38.12083],[23.36867,38.125],[23.37397,38.125],[23.3713,38.11667]]],[[[23.31438,38.12083],[23.31305,38.11667],[23.30245,38.11667],[23.30378,38.12083],[23.31438,38.12083]]],[[[23.39382,38.12083],[23.38852,38.12083],[23.38986,38.125],[23.39516,38.125],[23.39382,38.12083]]],[[[23.33822,38.12917],[23.33293,38.12917],[23.33426,38.13333],[23.33956,38.13333],[23.33822,38.12917]]],[[[23.34092,38.15417],[23.33563,38.15417],[23.33696,38.15833],[23.34226,38.15833],[23.34092,38.15417]]],[[[23.32636,38.15833],[23.31576,38.15833],[23.31709,38.1625],[23.32769,38.1625],[23.32636,38.15833]]],[[[23.35023,38.16667],[23.34493,38.16667],[23.34626,38.17083],[23.35156,38.17083],[23.35023,38.16667]]],[[[23.37672,38.16667],[23.37142,38.16667],[23.37276,38.17083],[23.37806,38.17083],[23.37672,38.16667]]]]}},{"type":"Feature","properties":{"day":"2021-08-18","doy":230,"px":131,"km2":28.1},"geometry":{"type":"MultiPolygon","coordinates":[[[[24.00588,37.74167],[24.00061,37.74167],[24.00196,37.74583],[24.00723,37.74583],[24.00588,37.74167]]],[[[23.38445,38.075],[23.37915,38.075],[23.38048,38.07917],[23.38578,38.07917],[23.38445,38.075]]],[[[23.37652,38.08333],[23.38182,38.08333],[23.38048,38.07917],[23.37519,38.07917],[23.37652,38.08333]]],[[[23.31433,38.0875],[23.30904,38.0875],[23.31036,38.09167],[23.31566,38.09167],[23.31433,38.0875]]],[[[23.38315,38.0875],[23.37786,38.0875],[23.37652,38.08333],[23.36064,38.08333],[23.36464,38.09583],[23.37523,38.09583],[23.37656,38.1],[23.39244,38.1],[23.39511,38.10833],[23.40041,38.10833],[23.3964,38.09583],[23.4017,38.09583],[23.3977,38.08333],[23.38182,38.08333],[23.38315,38.0875]]],[[[23.41095,38.09167],[23.40566,38.09167],[23.40833,38.1],[23.41362,38.1],[23.41095,38.09167]]],[[[23.34479,38.1],[23.3395,38.1],[23.34083,38.10417],[23.34612,38.10417],[23.34479,38.1]]],[[[23.3011,38.09583],[23.29581,38.09583],[23.29714,38.1],[23.29184,38.1],[23.29317,38.10417],[23.28788,38.10417],[23.2892,38.10833],[23.2945,38.10833],[23.29583,38.1125],[23.30642,38.1125],[23.30775,38.11667],[23.33423,38.11667],[23.3329,38.1125],[23.31701,38.1125],[23.31435,38.10417],[23.30376,38.10417],[23.3011,38.09583]]],[[[23.29982,38.125],[23.30511,38.125],[23.30245,38.11667],[23.29186,38.11667],[23.29319,38.12083],[23.29849,38.12083],[23.29982,38.125]]],[[[23.36734,38.12083],[23.36204,38.12083],[23.36338,38.125],[23.36867,38.125],[23.36734,38.12083]]],[[[23.27996,38.12917],[23.28526,38.12917],[23.2826,38.12083],[23.27201,38.12083],[23.27333,38.125],[23.27863,38.125],[23.27996,38.12917]]],[[[23.29982,38.125],[23.29452,38.125],[23.29585,38.12917],[23.30115,38.12917],[23.29982,38.125]]],[[[23.35678,38.1375],[23.36208,38.1375],[23.36075,38.13333],[23.36604,38.13333],[23.36338,38.125],[23.35278,38.125],[23.35678,38.1375]]],[[[23.38723,38.13333],[23.39253,38.13333],[23.3952,38.14167],[23.4005,38.14167],[23.39783,38.13333],[23.40842,38.13333],[23.40708,38.12917],[23.3859,38.12917],[23.38723,38.13333]]],[[[23.38594,38.14583],[23.38064,38.14583],[23.37797,38.1375],[23.36738,38.1375],[23.37005,38.14583],[23.35415,38.14583],[23.35282,38.14167],[23.34752,38.14167],[23.34619,38.1375],[23.35148,38.1375],[23.34749,38.125],[23.33689,38.125],[23.33956,38.13333],[23.32896,38.13333],[23.33429,38.15],[23.32899,38.15],[23.33033,38.15417],[23.32503,38.15417],[23.32636,38.15833],[23.33696,38.15833],[23.33563,38.15417],[23.34622,38.15417],[23.34756,38.15833],[23.34226,38.15833],[23.34493,38.16667],[23.35023,38.16667],[23.35156,38.17083],[23.36216,38.17083],[23.36082,38.16667],[23.37142,38.16667],[23.36875,38.15833],[23.38995,38.15833],[23.38594,38.14583]]]]}},{"type":"Feature","properties":{"day":"2021-08-19","doy":231,"px":167,"km2":35.8},"geometry":{"type":"MultiPolygon","coordinates":[[[[23.2773,38.12083],[23.27597,38.11667],[23.27068,38.11667],[23.27201,38.12083],[23.2773,38.12083]]],[[[23.29452,38.125],[23.28393,38.125],[23.28526,38.12917],[23.29585,38.12917],[23.29452,38.125]]],[[[23.37649,38.06667],[23.3712,38.06667],[23.37253,38.07083],[23.37782,38.07083],[23.37649,38.06667]]],[[[23.41229,38.09583],[23.41758,38.09583],[23.41625,38.09167],[23.42154,38.09167],[23.41887,38.08333],[23.41358,38.08333],[23.41224,38.07917],[23.41754,38.07917],[23.4162,38.075],[23.40562,38.075],[23.40428,38.07083],[23.3937,38.07083],[23.39503,38.075],[23.38445,38.075],[23.38711,38.08333],[23.3977,38.08333],[23.4017,38.09583],[23.3964,38.09583],[23.39907,38.10417],[23.40437,38.10417],[23.40303,38.1],[23.40833,38.1],[23.40566,38.09167],[23.41095,38.09167],[23.41229,38.09583]]],[[[23.29714,38.1],[23.29581,38.09583],[23.29051,38.09583],[23.29184,38.1],[23.29714,38.1]]],[[[23.29184,38.1],[23.28655,38.1],[23.28788,38.10417],[23.29317,38.10417],[23.29184,38.1]]],[[[23.31435,38.10417],[23.31568,38.10833],[23.32098,38.10833],[23.32231,38.1125],[23.3276,38.1125],[23.32627,38.10833],[23.33686,38.10833],[23.33553,38.10417],[23.34083,38.10417],[23.33817,38.09583],[23.33287,38.09583],[23.33154,38.09167],[23.31036,38.09167],[23.31302,38.1],[23.30773,38.1],[23.30906,38.10417],[23.31435,38.10417]],[[23.3342,38.1],[23.32891,38.1],[23.32758,38.09583],[23.33287,38.09583],[23.3342,38.1]]],[[[23.34083,38.10417],[23.34482,38.11667],[23.35541,38.11667],[23.35009,38.1],[23.34479,38.1],[23.34612,38.10417],[23.34083,38.10417]]],[[[23.40174,38.1125],[23.40041,38.10833],[23.39511,38.10833],[23.39645,38.1125],[23.40174,38.1125]]],[[[23.34739,38.075],[23.35139,38.0875],[23.35668,38.0875],[23.35934,38.09583],[23.35405,38.09583],[23.35538,38.1],[23.36068,38.1],[23.36601,38.11667],[23.3713,38.11667],[23.37397,38.125],[23.36338,38.125],[23.36604,38.13333],[23.36075,38.13333],[23.36208,38.1375],[23.35678,38.1375],[23.35278,38.125],[23.34749,38.125],[23.35148,38.1375],[23.34619,38.1375],[23.34752,38.14167],[23.35282,38.14167],[23.35415,38.14583],[23.37005,38.14583],[23.36738,38.1375],[23.37797,38.1375],[23.38064,38.14583],[23.38594,38.14583],[23.38995,38.15833],[23.41115,38.15833],[23.40847,38.15],[23.41377,38.15],[23.41243,38.14583],[23.41773,38.14583],[23.41639,38.14167],[23.42169,38.14167],[23.41902,38.13333],[23.39783,38.13333],[23.4005,38.14167],[23.3952,38.14167],[23.39253,38.13333],[23.38723,38.13333],[23.3859,38.12917],[23.39119,38.12917],[23.38852,38.12083],[23.39382,38.12083],[23.38982,38.10833],[23.39511,38.10833],[23.39244,38.1],[23.37656,38.1],[23.37523,38.09583],[23.36464,38.09583],[23.36064,38.08333],[23.37652,38.08333],[23.37386,38.075],[23.34739,38.075]],[[23.40713,38.14583],[23.4058,38.14167],[23.41109,38.14167],[23.41243,38.14583],[23.40713,38.14583]],[[23.37923,38.10833],[23.37393,38.10833],[23.37126,38.1],[23.37656,38.1],[23.37923,38.10833]]],[[[23.29982,38.125],[23.29849,38.12083],[23.29319,38.12083],[23.29452,38.125],[23.29982,38.125]]],[[[23.34622,38.15417],[23.34092,38.15417],[23.34226,38.15833],[23.34756,38.15833],[23.34622,38.15417]]],[[[23.38202,38.16667],[23.39262,38.16667],[23.38995,38.15833],[23.36875,38.15833],[23.37009,38.1625],[23.38069,38.1625],[23.38202,38.16667]]]]}},{"type":"Feature","properties":{"day":"2021-08-20","doy":232,"px":27,"km2":5.8},"geometry":{"type":"MultiPolygon","coordinates":[[[[23.39766,38.06667],[23.38707,38.06667],[23.38974,38.075],[23.39503,38.075],[23.3937,38.07083],[23.39899,38.07083],[23.39766,38.06667]]],[[[23.3712,38.06667],[23.34474,38.06667],[23.34606,38.07083],[23.33548,38.07083],[23.33814,38.07917],[23.34343,38.07917],[23.34609,38.0875],[23.35139,38.0875],[23.34739,38.075],[23.37386,38.075],[23.3712,38.06667]]],[[[23.31566,38.09167],[23.33683,38.09167],[23.3355,38.0875],[23.31433,38.0875],[23.31566,38.09167]]],[[[23.30516,38.15833],[23.31046,38.15833],[23.30913,38.15417],[23.30383,38.15417],[23.30516,38.15833]]],[[[23.37672,38.16667],[23.38202,38.16667],[23.38069,38.1625],[23.37539,38.1625],[23.37672,38.16667]]],[[[23.37276,38.17083],[23.37142,38.16667],[23.36082,38.16667],[23.36216,38.17083],[23.37276,38.17083]]]]}},{"type":"Feature","properties":{"day":"2021-08-21","doy":233,"px":19,"km2":4.1},"geometry":{"type":"MultiPolygon","coordinates":[[[[23.37649,38.06667],[23.37516,38.0625],[23.36457,38.0625],[23.3659,38.06667],[23.37649,38.06667]]],[[[23.32226,38.07917],[23.32492,38.0875],[23.3355,38.0875],[23.33417,38.08333],[23.32888,38.08333],[23.32755,38.07917],[23.32226,38.07917]]],[[[23.4162,38.075],[23.41487,38.07083],[23.40428,38.07083],[23.40562,38.075],[23.4162,38.075]]],[[[23.38048,38.07917],[23.37915,38.075],[23.37386,38.075],[23.37519,38.07917],[23.38048,38.07917]]],[[[23.38711,38.08333],[23.38578,38.07917],[23.38048,38.07917],[23.38182,38.08333],[23.38711,38.08333]]],[[[23.41224,38.07917],[23.41358,38.08333],[23.41887,38.08333],[23.42154,38.09167],[23.42684,38.09167],[23.4215,38.075],[23.4162,38.075],[23.41754,38.07917],[23.41224,38.07917]]],[[[23.38315,38.0875],[23.38182,38.08333],[23.37652,38.08333],[23.37786,38.0875],[23.38315,38.0875]]],[[[23.42288,38.09583],[23.42154,38.09167],[23.41625,38.09167],[23.41758,38.09583],[23.42288,38.09583]]],[[[23.40179,38.12917],[23.40045,38.125],[23.39516,38.125],[23.39649,38.12917],[23.40179,38.12917]]],[[[23.41902,38.13333],[23.41768,38.12917],[23.40708,38.12917],[23.40842,38.13333],[23.41902,38.13333]]]]}},{"type":"Feature","properties":{"day":"2021-08-22","doy":234,"px":16,"km2":3.4},"geometry":{"type":"MultiPolygon","coordinates":[[[[23.30773,38.1],[23.31302,38.1],[23.31169,38.09583],[23.3064,38.09583],[23.30773,38.1]]],[[[23.27994,38.1125],[23.27861,38.10833],[23.27332,38.10833],[23.27465,38.1125],[23.27994,38.1125]]],[[[23.29188,38.13333],[23.29055,38.12917],[23.27996,38.12917],[23.28129,38.13333],[23.29188,38.13333]]],[[[23.37672,38.16667],[23.37539,38.1625],[23.37009,38.1625],[23.37142,38.16667],[23.37672,38.16667]]],[[[23.38336,38.17083],[23.38202,38.16667],[23.37672,38.16667],[23.37806,38.17083],[23.38336,38.17083]]],[[[23.3635,38.175],[23.36216,38.17083],[23.35156,38.17083],[23.3529,38.175],[23.3635,38.175]]],[[[23.37543,38.17917],[23.38073,38.17917],[23.3794,38.175],[23.3741,38.175],[23.37543,38.17917]]],[[[23.99791,37.73333],[23.99656,37.72917],[23.99129,37.72917],[23.99264,37.73333],[23.99791,37.73333]]],[[[23.3659,38.06667],[23.36457,38.0625],[23.35399,38.0625],[23.35532,38.06667],[23.3659,38.06667]]],[[[24.31463,38.07083],[24.31324,38.06667],[24.30795,38.06667],[24.30933,38.07083],[24.31463,38.07083]]],[[[23.37915,38.075],[23.37782,38.07083],[23.37253,38.07083],[23.37386,38.075],[23.37915,38.075]]],[[[23.39645,38.1125],[23.39511,38.10833],[23.38982,38.10833],[23.39115,38.1125],[23.39645,38.1125]]],[[[23.40188,38.1625],[23.40055,38.15833],[23.39525,38.15833],[23.39658,38.1625],[23.40188,38.1625]]]]}},{"type":"Feature","properties":{"day":"2021-08-23","doy":235,"px":14,"km2":3.0},"geometry":{"type":"MultiPolygon","coordinates":[[[[22.41701,36.8],[22.41823,36.80417],[22.42343,36.80417],[22.42221,36.8],[22.41701,36.8]]],[[[24.31463,38.07083],[24.31992,38.07083],[24.31715,38.0625],[24.31186,38.0625],[24.31463,38.07083]]],[[[23.39129,38.1625],[23.39658,38.1625],[23.39525,38.15833],[23.38995,38.15833],[23.39129,38.1625]]],[[[23.3741,38.175],[23.3794,38.175],[23.37806,38.17083],[23.36216,38.17083],[23.3635,38.175],[23.3529,38.175],[23.35557,38.18333],[23.37147,38.18333],[23.37013,38.17917],[23.37543,38.17917],[23.3741,38.175]]]]}}]}
