{"type":"FeatureCollection","attribution":"© OpenStreetMap contributors","features":[{"type":"Feature","properties":{"name":"Καλαμάς","en":"Kalamas","projects":["6Φ454653Π8-Ξ1Ζ"],"label_pt":[20.4555,39.58333]},"geometry":{"type":"MultiLineString","coordinates":[[[20.58942,39.83861],[20.58921,39.83757],[20.59138,39.83659],[20.59479,39.83226],[20.5954,39.829],[20.59688,39.82751],[20.59687,39.82232],[20.59869,39.81971],[20.59804,39.81813],[20.59876,39.8148],[20.60227,39.81341],[20.60527,39.80986],[20.61105,39.80624],[20.61263,39.80595],[20.61233,39.8081],[20.61443,39.80837],[20.61564,39.80642],[20.61747,39.80556],[20.61644,39.80246],[20.6117,39.80259],[20.6099,39.80045],[20.61132,39.79777],[20.60937,39.79599],[20.61033,39.79335],[20.60868,39.79251],[20.60652,39.79299],[20.60478,39.79245],[20.60395,39.79115],[20.60517,39.78985],[20.60671,39.79018],[20.60799,39.78862],[20.61283,39.79032],[20.61394,39.78753],[20.61243,39.78659],[20.61567,39.78293],[20.61347,39.78185],[20.61247,39.77987],[20.61316,39.77775],[20.61277,39.77648],[20.60882,39.77282],[20.60954,39.76923],[20.61138,39.76784],[20.60914,39.76663],[20.6083,39.76439],[20.61168,39.75898],[20.61461,39.75834],[20.61566,39.75709],[20.61563,39.75637],[20.61407,39.75605],[20.61415,39.75455],[20.61325,39.75349],[20.61355,39.75146],[20.61157,39.75044],[20.61637,39.74904],[20.61626,39.74145],[20.62012,39.74],[20.62185,39.74028],[20.62412,39.73858],[20.62514,39.73548],[20.62395,39.73136],[20.62629,39.72857],[20.62497,39.72321],[20.62421,39.72296],[20.62279,39.72435],[20.62143,39.72399],[20.62115,39.7255],[20.61856,39.72536],[20.61744,39.72659],[20.614,39.72339],[20.61019,39.72331],[20.60873,39.71961],[20.60579,39.72006],[20.60428,39.71883],[20.60136,39.71856],[20.60112,39.71669],[20.59775,39.71086],[20.59452,39.70826],[20.59683,39.70665],[20.59642,39.70544],[20.59843,39.70312],[20.59846,39.70108],[20.6008,39.69821],[20.59981,39.69544],[20.59664,39.69633],[20.5944,39.69373],[20.59287,39.69462],[20.5914,39.69765],[20.58889,39.69537],[20.58871,39.69383],[20.58555,39.69489],[20.58078,39.69472],[20.58083,39.69175],[20.58423,39.69024],[20.58417,39.68935],[20.57773,39.68704],[20.57734,39.68505],[20.57617,39.68498],[20.57509,39.68376],[20.57337,39.68427],[20.57057,39.68255],[20.56353,39.68519],[20.56232,39.68409],[20.56074,39.67977],[20.55796,39.68046],[20.55509,39.67922],[20.55587,39.67788],[20.55551,39.67525],[20.55291,39.67454],[20.54973,39.6752],[20.54858,39.67263],[20.5466,39.67337],[20.54371,39.67283],[20.54121,39.6749],[20.53988,39.67497],[20.53883,39.67392],[20.53936,39.67029],[20.53737,39.66911],[20.53476,39.6707],[20.52957,39.67078],[20.52847,39.66857],[20.5297,39.66614],[20.52663,39.66512],[20.52528,39.6624],[20.52163,39.66313],[20.52037,39.66073],[20.52103,39.65775],[20.5292,39.65527],[20.52907,39.65402],[20.52748,39.65228],[20.52349,39.6522],[20.51899,39.64884],[20.51473,39.64793],[20.51195,39.64638],[20.51198,39.64968],[20.5092,39.65235],[20.50979,39.65431],[20.50928,39.65501],[20.50743,39.65478],[20.5073,39.65195],[20.50548,39.65067],[20.50348,39.65095],[20.50254,39.65259],[20.49731,39.65407],[20.49568,39.64773],[20.49172,39.64861],[20.49088,39.64621],[20.48326,39.64434],[20.47869,39.63978],[20.47849,39.63822],[20.48104,39.63478],[20.48597,39.63448],[20.48572,39.63237],[20.48244,39.63139],[20.48279,39.62964],[20.48505,39.6272],[20.48213,39.6265],[20.47818,39.62245],[20.47494,39.62163],[20.47499,39.62073],[20.47661,39.62011],[20.47643,39.61901],[20.47213,39.61757],[20.47104,39.61472],[20.46887,39.6133],[20.46852,39.61047],[20.46444,39.60789],[20.46397,39.60467],[20.46006,39.60264],[20.45921,39.60138],[20.45866,39.59868],[20.45909,39.59443],[20.45754,39.59137],[20.4588,39.58801],[20.45855,39.58638],[20.45374,39.58158],[20.45322,39.57922],[20.45351,39.57807],[20.45554,39.57779],[20.45813,39.57578],[20.45592,39.57379],[20.45285,39.57361],[20.45214,39.57288],[20.45526,39.56796],[20.45363,39.5657],[20.45512,39.55957],[20.45419,39.55758],[20.45509,39.55624],[20.45777,39.55543],[20.45764,39.55239],[20.45614,39.54955],[20.45484,39.54894],[20.45447,39.54887],[20.45415,39.54882],[20.45354,39.54878],[20.4527,39.54884],[20.45247,39.54865],[20.45111,39.54323],[20.44581,39.5395],[20.44561,39.53744],[20.44663,39.53599],[20.44565,39.53396],[20.44292,39.5334],[20.44148,39.5324],[20.44006,39.53192],[20.43796,39.53309],[20.42972,39.53226],[20.42648,39.52856],[20.42502,39.52411],[20.42403,39.52325],[20.42377,39.52298],[20.42347,39.52261],[20.42323,39.52233],[20.42241,39.5219],[20.41982,39.52233],[20.41857,39.52214],[20.41724,39.52313],[20.40982,39.52483],[20.40672,39.52289],[20.40471,39.52055],[20.40096,39.52187],[20.39605,39.51862],[20.38977,39.52086],[20.38555,39.51777],[20.38158,39.5181],[20.3772,39.52244],[20.37166,39.52383],[20.37084,39.52838],[20.36624,39.53222],[20.36432,39.53275],[20.36209,39.53216],[20.36116,39.53339],[20.35787,39.53372],[20.35745,39.5313],[20.36023,39.52939],[20.36164,39.52746],[20.36114,39.52683],[20.35935,39.52759],[20.35823,39.52921],[20.3548,39.53028],[20.35343,39.53236],[20.35079,39.53384],[20.3504,39.53509],[20.352,39.53722],[20.3505,39.53949],[20.35096,39.54607],[20.34877,39.54756],[20.34943,39.5506],[20.35109,39.55155],[20.35466,39.55125],[20.35378,39.55315],[20.35994,39.55755],[20.36307,39.55795],[20.36752,39.5572],[20.36756,39.56215],[20.37136,39.5659],[20.36646,39.56727],[20.36074,39.56716],[20.3574,39.57095],[20.34545,39.57579],[20.34261,39.57571],[20.34114,39.57326],[20.32705,39.5716],[20.32562,39.56926],[20.32854,39.56567],[20.32756,39.56365],[20.32505,39.56305],[20.32207,39.56404],[20.32049,39.56242],[20.3185,39.56194],[20.31566,39.5635],[20.31324,39.56184],[20.31186,39.55878],[20.30954,39.55625],[20.30669,39.55694],[20.30496,39.55964],[20.30335,39.55935],[20.30215,39.55352],[20.29847,39.55268],[20.2974,39.5542],[20.29861,39.55637],[20.29651,39.55942],[20.29081,39.5618],[20.2873,39.56196],[20.28226,39.56049],[20.27603,39.56333],[20.27447,39.56527],[20.271,39.56727],[20.27109,39.56939],[20.26921,39.56999],[20.2674,39.56786],[20.26382,39.56759],[20.2601,39.56871],[20.25798,39.57003],[20.25777,39.57103],[20.26096,39.57448],[20.26053,39.57612],[20.25215,39.57877],[20.2517,39.58073],[20.24781,39.58355],[20.24399,39.58485],[20.24122,39.5842],[20.23632,39.58564],[20.2357,39.58726],[20.23265,39.58963],[20.22595,39.58594],[20.22098,39.58851],[20.21965,39.58614],[20.21948,39.58619],[20.21926,39.58623],[20.21892,39.58624],[20.21405,39.58606],[20.21223,39.58624],[20.20021,39.58579],[20.18581,39.59017],[20.18082,39.58989],[20.16866,39.58711],[20.14805,39.58796],[20.14117,39.58643]],[[20.22124,39.58229],[20.22025,39.58133],[20.21948,39.5768],[20.21564,39.57638],[20.2149,39.57403],[20.21331,39.57324],[20.2174,39.57281],[20.21714,39.57125],[20.21517,39.5704],[20.21174,39.57093],[20.21007,39.5737],[20.20872,39.57296],[20.21128,39.56828],[20.21131,39.56667],[20.2147,39.56543],[20.21384,39.56426],[20.21113,39.56401],[20.21136,39.56247],[20.2158,39.56145],[20.21812,39.55976],[20.21943,39.56074],[20.21975,39.56325],[20.22112,39.56186],[20.22085,39.55829],[20.21842,39.5584],[20.21638,39.55715],[20.21057,39.55984],[20.20887,39.55963],[20.2087,39.55724],[20.20659,39.55468],[20.20663,39.55314],[20.20893,39.55294],[20.21173,39.55564],[20.21298,39.55476],[20.21412,39.552],[20.21247,39.55158],[20.20786,39.5481],[20.2057,39.54907],[20.20402,39.5515],[20.20023,39.55009],[20.19803,39.55018],[20.19749,39.54746],[20.19917,39.54504],[20.19913,39.54368],[20.19656,39.54269],[20.19306,39.54372],[20.19253,39.54122],[20.19137,39.54035],[20.18956,39.54073],[20.18884,39.54255],[20.18649,39.54405],[20.17977,39.54339],[20.17462,39.54118],[20.16953,39.54042],[20.1674,39.53842],[20.15276,39.53396],[20.14475,39.52935]],[[20.22017,39.58656],[20.22127,39.58542],[20.21948,39.58619]],[[20.38063,39.51878],[20.37987,39.5196]],[[20.41982,39.52233],[20.41783,39.52288]],[[20.42526,39.52467],[20.42503,39.52075],[20.42379,39.51966],[20.41889,39.52214]],[[20.42597,39.52742],[20.42347,39.52261],[20.42503,39.52075]],[[20.44217,39.53292],[20.44049,39.53208]],[[20.44474,39.53365],[20.44252,39.53306]],[[20.45447,39.54887],[20.45319,39.54931],[20.45261,39.54879]]]}},{"type":"Feature","properties":{"name":"Αχέροντας","en":"Acheron","projects":["6Φ454653Π8-Ξ1Ζ"],"label_pt":[20.66299,39.30342]},"geometry":{"type":"MultiLineString","coordinates":[[[20.7655,39.44374],[20.76578,39.4418],[20.76437,39.44068],[20.76613,39.44016],[20.76526,39.43923],[20.76594,39.43879],[20.76561,39.4362],[20.76768,39.43565],[20.76756,39.43444],[20.76937,39.43308],[20.76828,39.43192],[20.7697,39.43101],[20.77019,39.42784],[20.77169,39.42759],[20.77244,39.42562],[20.77173,39.42487],[20.77168,39.42256],[20.77282,39.42149],[20.77134,39.42023],[20.77292,39.41888],[20.77194,39.41807],[20.77258,39.4149],[20.7715,39.41273],[20.77171,39.4111],[20.77023,39.41059],[20.77041,39.40763],[20.76907,39.40672],[20.76865,39.40469],[20.76419,39.40018],[20.76571,39.39828],[20.76481,39.39734],[20.76553,39.3965],[20.76437,39.39416],[20.76156,39.39285],[20.76166,39.39134],[20.75982,39.38858],[20.75957,39.3883],[20.7589,39.38804],[20.75876,39.38796],[20.75863,39.38786],[20.75851,39.38769],[20.75845,39.38745],[20.75854,39.38666],[20.75558,39.38626],[20.75607,39.38485],[20.7548,39.38327],[20.7547,39.38183],[20.75174,39.38033],[20.75332,39.37907],[20.75142,39.37672],[20.7495,39.37595],[20.75085,39.37472],[20.75048,39.37336],[20.74875,39.37442],[20.74979,39.37253],[20.74866,39.37175],[20.74642,39.37236],[20.74725,39.37014],[20.74574,39.36978],[20.74433,39.36726],[20.74335,39.36791],[20.74339,39.36917],[20.73858,39.36829],[20.73849,39.3674],[20.73958,39.36667],[20.73719,39.36603],[20.73729,39.36455],[20.73821,39.36407],[20.7398,39.36476],[20.74032,39.36379],[20.73693,39.36137],[20.73405,39.36232],[20.73518,39.35921],[20.73286,39.35977],[20.72952,39.35893],[20.72783,39.35678],[20.7285,39.35353],[20.72659,39.35445],[20.72144,39.35413],[20.7224,39.35205],[20.72159,39.34535],[20.71715,39.34468],[20.71723,39.34108],[20.71528,39.3396],[20.71577,39.33722],[20.71901,39.33568],[20.72009,39.3342],[20.71703,39.33337],[20.71621,39.33166],[20.71649,39.32229],[20.71374,39.32193],[20.71252,39.32098],[20.71569,39.31636],[20.71202,39.31535],[20.70928,39.31237],[20.70954,39.31055],[20.70775,39.30717],[20.70868,39.30433],[20.70475,39.30127],[20.70288,39.29516],[20.6971,39.29282],[20.69494,39.29078],[20.69574,39.28936],[20.69912,39.28843],[20.69743,39.28589],[20.69502,39.28633],[20.69259,39.28843],[20.69188,39.28636],[20.68735,39.28356],[20.68708,39.28122],[20.6843,39.28263],[20.68184,39.28262],[20.68168,39.28343],[20.68642,39.28469],[20.68317,39.2852],[20.68075,39.28772],[20.67648,39.28977],[20.67643,39.29452],[20.67186,39.29535],[20.66869,39.30013],[20.667,39.30036],[20.66618,39.30201],[20.66426,39.30165],[20.66339,39.30226],[20.66265,39.30442],[20.66089,39.30624],[20.6599,39.31034],[20.65666,39.31258],[20.65638,39.31471],[20.65289,39.31578],[20.65338,39.31667],[20.6526,39.31771],[20.64953,39.31838],[20.64944,39.32038],[20.64747,39.32216],[20.64716,39.32503],[20.64502,39.3265],[20.64088,39.3333],[20.63846,39.33406],[20.63678,39.33153],[20.63435,39.33139],[20.62739,39.32674],[20.6209,39.32883],[20.61852,39.32693],[20.61373,39.32681],[20.61132,39.32761],[20.60837,39.32689],[20.60793,39.32622],[20.60909,39.32304],[20.60374,39.32016],[20.60122,39.31614],[20.59771,39.31453],[20.59728,39.3117],[20.59416,39.31104],[20.59423,39.3087],[20.59309,39.30721],[20.58684,39.30657],[20.58625,39.30379],[20.58215,39.30347],[20.57917,39.29987],[20.57598,39.29965],[20.57355,39.29623],[20.57324,39.2955],[20.57429,39.29438],[20.57741,39.29244],[20.57502,39.28661],[20.57669,39.28329],[20.57353,39.2798],[20.57638,39.27629],[20.57571,39.27393],[20.57812,39.26907],[20.57789,39.26812],[20.57656,39.26802],[20.57702,39.26671],[20.5754,39.26606],[20.57597,39.26523],[20.57526,39.2637],[20.5764,39.26245],[20.57597,39.2607],[20.57695,39.26033],[20.57983,39.25504],[20.58113,39.25443],[20.57925,39.25113],[20.58035,39.25031],[20.57973,39.24822],[20.58099,39.24779],[20.58045,39.24605],[20.5791,39.24575],[20.57874,39.2467],[20.5778,39.24669],[20.57411,39.24298],[20.57018,39.24185],[20.56996,39.24033],[20.56856,39.23951],[20.56132,39.2392],[20.56032,39.23822],[20.55587,39.23995],[20.55229,39.23972],[20.54654,39.23699],[20.54354,39.23398],[20.53817,39.23162],[20.53522,39.23176],[20.53387,39.23288],[20.53098,39.23143],[20.53007,39.232],[20.53009,39.23414],[20.52905,39.23467],[20.52484,39.23483],[20.5226,39.23379],[20.52144,39.23497],[20.51979,39.23389],[20.51497,39.23492],[20.50813,39.23346],[20.50609,39.23417],[20.50507,39.2334],[20.50566,39.2324],[20.50333,39.23171],[20.50171,39.23232],[20.50084,39.23134],[20.49829,39.2321],[20.49399,39.23027],[20.48908,39.23109],[20.48741,39.23032],[20.4824,39.23526],[20.47566,39.23617]],[[20.75885,39.38801],[20.75849,39.38711]],[[20.76078,39.39084],[20.75798,39.39021],[20.75918,39.38818]]]}}]}