{"type":"FeatureCollection","features":[{"type":"Feature","properties":{"kind":"neighbour","id":"AL"},"geometry":{"type":"MultiPolygon","coordinates":[[[[19.2704,40.5188],[19.2978,40.4943],[19.2832,40.4711],[19.2602,40.5044],[19.2704,40.5188]]],[[[19.3656,41.9243],[19.3467,41.9391],[19.3476,41.9587],[19.3811,41.9658],[19.3719,41.9736],[19.3768,41.9946],[19.3649,42.0262],[19.3738,42.0724],[19.395,42.1033],[19.274,42.1799],[19.3442,42.2415],[19.3846,42.3014],[19.415,42.327],[19.409,42.3506],[19.421,42.3734],[19.4694,42.3957],[19.551,42.4929],[19.558,42.516],[19.6107,42.5439],[19.6082,42.5798],[19.6596,42.6314],[19.6771,42.6324],[19.7007,42.6576],[19.7243,42.6647],[19.7588,42.6404],[19.757,42.6162],[19.7806,42.5843],[19.776,42.5766],[19.7562,42.578],[19.7495,42.5443],[19.7704,42.5045],[19.8097,42.4771],[19.8286,42.4711],[19.8352,42.4812],[19.8645,42.4868],[19.8768,42.4992],[19.8952,42.4918],[19.9033,42.5087],[19.9333,42.5195],[20.0004,42.5145],[20.013,42.545],[20.0546,42.5625],[20.0904,42.554],[20.1051,42.5349],[20.1688,42.5084],[20.2006,42.464],[20.1988,42.4538],[20.2315,42.4227],[20.2148,42.4015],[20.2498,42.3698],[20.243,42.3471],[20.2488,42.3278],[20.2602,42.3229],[20.2921,42.3271],[20.3064,42.3198],[20.3402,42.3312],[20.3591,42.3123],[20.3985,42.3004],[20.4076,42.2883],[20.46,42.2746],[20.5227,42.2198],[20.5726,42.1227],[20.5631,42.0763],[20.5986,42.0443],[20.617,41.9867],[20.6279,41.977],[20.6229,41.9371],[20.5839,41.9137],[20.5993,41.8743],[20.5653,41.8668],[20.5762,41.7847],[20.5521,41.785],[20.5385,41.7747],[20.5195,41.7284],[20.5338,41.6863],[20.5225,41.6617],[20.5587,41.6032],[20.563,41.5795],[20.5215,41.5604],[20.4636,41.5527],[20.4772,41.5311],[20.46,41.5158],[20.4845,41.5097],[20.4763,41.5009],[20.4986,41.4932],[20.5146,41.4432],[20.5433,41.4386],[20.5652,41.4089],[20.552,41.3844],[20.5563,41.3759],[20.5271,41.3386],[20.5156,41.3331],[20.5028,41.3415],[20.4986,41.3321],[20.5191,41.2858],[20.5172,41.2647],[20.5274,41.2465],[20.5213,41.2317],[20.5375,41.2017],[20.5629,41.1972],[20.5865,41.1583],[20.6011,41.1317],[20.5885,41.1125],[20.6008,41.0952],[20.6742,41.091],[20.7363,40.9142],[20.7596,40.9063],[20.8151,40.9039],[20.8473,40.9416],[20.8995,40.9229],[20.9408,40.9277],[20.9716,40.9128],[20.9821,40.9007],[20.9895,40.8011],[20.968,40.7715],[20.9873,40.7646],[20.9916,40.737],[21.0137,40.7252],[21.0616,40.6677],[21.0612,40.6144],[21.0508,40.611],[21.046,40.556],[21.0078,40.5465],[20.9999,40.5305],[20.975,40.5177],[20.9721,40.4871],[20.9589,40.4669],[20.9259,40.4594],[20.906,40.4718],[20.8695,40.4673],[20.8472,40.4755],[20.8255,40.4368],[20.7913,40.4238],[20.7941,40.3621],[20.7679,40.3392],[20.7688,40.3205],[20.7395,40.3062],[20.7181,40.2806],[20.7146,40.2635],[20.7262,40.2524],[20.7296,40.2238],[20.7103,40.197],[20.6842,40.1874],[20.6806,40.1676],[20.6989,40.1528],[20.6811,40.1254],[20.6827,40.0917],[20.6271,40.0861],[20.6026,40.0681],[20.5502,40.06],[20.513,40.0774],[20.4913,40.0604],[20.4503,40.0693],[20.4157,40.0484],[20.4164,40.0307],[20.3968,39.9934],[20.3749,39.9851],[20.3196,39.9867],[20.3498,39.945],[20.3441,39.9239],[20.3897,39.8907],[20.3933,39.8711],[20.4211,39.8419],[20.4173,39.8111],[20.3947,39.7856],[20.3798,39.7811],[20.3453,39.8005],[20.3064,39.8109],[20.2961,39.8031],[20.3109,39.7843],[20.2977,39.7638],[20.3276,39.7336],[20.3248,39.7255],[20.2876,39.7085],[20.2705,39.6918],[20.27,39.6657],[20.2349,39.6809],[20.224,39.6648],[20.2294,39.6443],[20.1926,39.6413],[20.1222,39.6543],[20.0877,39.6776],[20.0296,39.6948],[20.0015,39.6845],[19.9782,39.6889],[19.9769,39.7077],[19.9927,39.7389],[19.9768,39.7435],[19.9711,39.7545],[19.9995,39.7808],[19.9922,39.7973],[20.006,39.8178],[20.0134,39.8581],[20.0078,39.8669],[19.982,39.8685],[19.9495,39.8913],[19.9154,39.8976],[19.9054,39.908],[19.9311,39.9301],[19.9303,39.9417],[19.8601,40.0339],[19.8331,40.0476],[19.7936,40.0451],[19.796,40.0564],[19.7832,40.057],[19.7855,40.065],[19.7702,40.0563],[19.7628,40.0758],[19.7471,40.0801],[19.7472,40.0949],[19.6933,40.1182],[19.6566,40.1227],[19.5761,40.1699],[19.4694,40.2125],[19.369,40.306],[19.363,40.3416],[19.3299,40.3845],[19.2855,40.4231],[19.3178,40.4415],[19.3452,40.4347],[19.4007,40.39],[19.4234,40.3276],[19.453,40.3307],[19.4799,40.3499],[19.4735,40.3988],[19.4893,40.4438],[19.4588,40.4588],[19.4214,40.4946],[19.3965,40.5025],[19.3737,40.5323],[19.3725,40.5561],[19.3464,40.6065],[19.3093,40.646],[19.3128,40.6695],[19.3349,40.6825],[19.3636,40.7203],[19.3719,40.8017],[19.36,40.829],[19.379,40.8366],[19.3907,40.853],[19.4102,40.9181],[19.4689,40.9653],[19.4703,40.9782],[19.451,40.9837],[19.4377,40.9998],[19.4517,41.1075],[19.4312,41.1489],[19.4643,41.158],[19.4803,41.201],[19.4988,41.2177],[19.5142,41.2505],[19.5131,41.2679],[19.4849,41.3032],[19.4691,41.3102],[19.4457,41.3035],[19.4171,41.3241],[19.4167,41.3819],[19.3872,41.4126],[19.4002,41.4149],[19.4174,41.4017],[19.4372,41.405],[19.4467,41.4326],[19.4808,41.4563],[19.5042,41.4886],[19.5038,41.5346],[19.4601,41.5527],[19.4454,41.586],[19.5327,41.5742],[19.5544,41.5807],[19.5817,41.6156],[19.5661,41.631],[19.5776,41.7056],[19.5687,41.762],[19.5808,41.7724],[19.5929,41.7695],[19.5976,41.7825],[19.5887,41.8087],[19.5819,41.8048],[19.5179,41.8371],[19.446,41.8558],[19.4169,41.8579],[19.3673,41.8381],[19.375,41.8833],[19.337,41.9073],[19.3656,41.9243]]]]}},{"type":"Feature","properties":{"kind":"neighbour","id":"MK"},"geometry":{"type":"Polygon","coordinates":[[[20.4502,41.5123],[20.451,41.5253],[20.4667,41.5343],[20.4489,41.5554],[20.5176,41.5673],[20.5525,41.5842],[20.5118,41.6606],[20.524,41.6873],[20.5097,41.7296],[20.5284,41.7794],[20.5416,41.7834],[20.5451,41.7939],[20.5675,41.7905],[20.5551,41.8237],[20.5553,41.8707],[20.5959,41.8812],[20.6206,41.8625],[20.6523,41.8784],[20.6736,41.8761],[20.6867,41.863],[20.7248,41.8679],[20.7376,41.8955],[20.769,41.919],[20.7497,41.9467],[20.7621,41.962],[20.7433,41.9856],[20.7441,42.0268],[20.7582,42.0432],[20.7538,42.0546],[20.7884,42.0862],[20.8301,42.0893],[20.8439,42.1027],[20.888,42.101],[20.917,42.1312],[21.0226,42.1555],[21.1025,42.2092],[21.1195,42.2101],[21.1643,42.2],[21.2188,42.1339],[21.2261,42.0997],[21.2701,42.0994],[21.2961,42.1172],[21.3146,42.1106],[21.297,42.1412],[21.329,42.1893],[21.3283,42.2058],[21.3644,42.2254],[21.3827,42.2488],[21.4001,42.2519],[21.4379,42.2375],[21.4284,42.2573],[21.4455,42.2814],[21.5116,42.2738],[21.5277,42.2452],[21.5424,42.2562],[21.5676,42.2553],[21.5869,42.2675],[21.6986,42.2378],[21.7276,42.2662],[21.7578,42.2615],[21.7728,42.2687],[21.7941,42.3031],[21.8064,42.2972],[21.8189,42.301],[21.8308,42.3248],[21.8519,42.3294],[21.8729,42.3137],[21.8861,42.3167],[21.896,42.305],[21.92,42.31],[21.93,42.3436],[21.9471,42.3473],[22.0271,42.3037],[22.0504,42.3112],[22.0658,42.3028],[22.1185,42.3184],[22.1315,42.3121],[22.1444,42.3251],[22.1662,42.3178],[22.1965,42.3442],[22.2274,42.3398],[22.2351,42.3452],[22.2302,42.3525],[22.2895,42.3765],[22.3022,42.3737],[22.2976,42.3509],[22.3373,42.3242],[22.3821,42.3113],[22.4533,42.2448],[22.4737,42.2057],[22.506,42.197],[22.5175,42.1554],[22.5319,42.1428],[22.6817,42.0674],[22.7183,42.072],[22.7394,42.05],[22.7791,42.0411],[22.8004,42.0511],[22.8282,42.0259],[22.8715,42.025],[22.8823,41.9751],[22.8797,41.9363],[22.8974,41.9181],[22.9065,41.8807],[22.9192,41.879],[22.9422,41.8489],[22.9468,41.8174],[22.9704,41.7761],[23.0088,41.7719],[23.0355,41.7305],[23.0392,41.7079],[22.9994,41.672],[22.9884,41.6446],[22.9632,41.6437],[22.9542,41.6319],[22.955,41.5928],[22.9771,41.5628],[22.9744,41.5394],[22.9633,41.537],[22.9755,41.5164],[22.9635,41.4931],[22.9839,41.4452],[22.9584,41.4175],[22.9709,41.3957],[22.9706,41.3516],[22.9281,41.3347],[22.826,41.331],[22.8017,41.3364],[22.7954,41.327],[22.7682,41.3196],[22.7534,41.1726],[22.7353,41.1439],[22.7105,41.1363],[22.6646,41.1817],[22.6511,41.1767],[22.6214,41.1312],[22.5856,41.1133],[22.5587,41.1272],[22.4649,41.1136],[22.4173,41.1147],[22.3974,41.1322],[22.3722,41.133],[22.3384,41.1256],[22.3351,41.1137],[22.3215,41.1223],[22.3167,41.1449],[22.3039,41.1422],[22.2589,41.1621],[22.2383,41.1593],[22.2166,41.166],[22.176,41.1537],[22.1491,41.1236],[22.128,41.1197],[22.0863,41.1353],[22.0654,41.1549],[22.0303,41.1298],[21.9753,41.1246],[21.9151,41.089],[21.9095,41.0699],[21.9173,41.0483],[21.9012,41.0361],[21.8878,41.0363],[21.8885,41.026],[21.8636,41.016],[21.8501,40.9946],[21.8054,40.9736],[21.8113,40.9514],[21.7911,40.9282],[21.7554,40.9219],[21.7043,40.9395],[21.6884,40.9373],[21.6721,40.9188],[21.6743,40.8955],[21.6408,40.8949],[21.5951,40.8624],[21.5652,40.8624],[21.5283,40.9043],[21.4901,40.9083],[21.4647,40.9034],[21.4197,40.9137],[21.3685,40.8789],[21.2597,40.8554],[21.2396,40.8712],[21.2069,40.8795],[21.1543,40.8534],[20.9757,40.8521],[20.9727,40.8986],[20.9392,40.92],[20.899,40.9152],[20.8498,40.9327],[20.8298,40.9038],[20.8015,40.8945],[20.7284,40.9091],[20.667,41.0837],[20.5947,41.0888],[20.5781,41.112],[20.5916,41.13],[20.5774,41.1557],[20.555,41.1881],[20.5285,41.1984],[20.5119,41.2299],[20.5089,41.2846],[20.4866,41.3315],[20.4934,41.3491],[20.5189,41.3433],[20.5455,41.3772],[20.5555,41.408],[20.5342,41.4327],[20.5083,41.4368],[20.491,41.4882],[20.4668,41.493],[20.4678,41.5044],[20.4502,41.5123]]]}},{"type":"Feature","properties":{"kind":"neighbour","id":"BG"},"geometry":{"type":"Polygon","coordinates":[[[22.4339,42.5629],[22.4365,42.5895],[22.4617,42.6383],[22.4498,42.6454],[22.47,42.6745],[22.4537,42.6905],[22.467,42.697],[22.4954,42.7397],[22.4363,42.8054],[22.4392,42.8282],[22.4743,42.8365],[22.5108,42.859],[22.5175,42.8781],[22.5368,42.8855],[22.5687,42.8712],[22.5809,42.8945],[22.6188,42.8995],[22.6416,42.883],[22.6629,42.8849],[22.6794,42.873],[22.6971,42.8887],[22.7448,42.8925],[22.7736,42.9287],[22.7632,42.9481],[22.7771,42.9552],[22.7815,42.9842],[22.8432,43.0063],[22.86,43.0243],[22.8926,43.0379],[22.9156,43.0828],[22.9783,43.1138],[22.9906,43.1398],[22.9913,43.1572],[22.9817,43.1673],[23.0009,43.1895],[22.9782,43.2034],[27.932,43.2034],[27.9162,43.1855],[27.9192,43.1781],[27.9517,43.171],[27.9447,43.1347],[27.9174,43.0613],[27.8954,43.0404],[27.9113,42.9297],[27.9025,42.9188],[27.9077,42.8526],[27.8936,42.8493],[27.8876,42.8379],[27.9052,42.7719],[27.8956,42.7514],[27.905,42.7198],[27.9013,42.6965],[27.7338,42.7047],[27.7179,42.6769],[27.727,42.6616],[27.7457,42.6592],[27.7317,42.6498],[27.726,42.656],[27.7118,42.6438],[27.6967,42.647],[27.6786,42.6334],[27.6485,42.6338],[27.6403,42.624],[27.6389,42.5787],[27.657,42.5534],[27.6402,42.5487],[27.6173,42.5612],[27.5998,42.5548],[27.5849,42.5603],[27.5597,42.5472],[27.529,42.5557],[27.4975,42.5294],[27.4859,42.4883],[27.4731,42.4796],[27.456,42.4807],[27.453,42.4635],[27.4689,42.4501],[27.4806,42.4665],[27.5156,42.4331],[27.5349,42.4616],[27.5706,42.4496],[27.5829,42.4674],[27.6163,42.4482],[27.6255,42.4637],[27.6394,42.4528],[27.6561,42.4543],[27.6516,42.4257],[27.6625,42.415],[27.6736,42.4139],[27.6933,42.4306],[27.7041,42.4279],[27.7099,42.4119],[27.7351,42.4144],[27.7278,42.3976],[27.7121,42.3926],[27.725,42.3796],[27.716,42.3674],[27.7417,42.3321],[27.7905,42.3382],[27.7816,42.3224],[27.7987,42.3064],[27.7608,42.2842],[27.7738,42.2643],[27.7577,42.26],[27.7606,42.2484],[27.7754,42.2484],[27.7873,42.2357],[27.7831,42.2276],[27.8398,42.1952],[27.8599,42.1678],[27.916,42.1278],[27.9198,42.1124],[27.9492,42.1059],[27.9732,42.0729],[27.9955,42.0645],[27.9947,42.0519],[28.0174,42.0297],[28.0418,41.9795],[27.9928,41.9767],[27.9798,41.9833],[27.9598,41.9736],[27.9224,41.9758],[27.9139,41.9685],[27.8936,41.9892],[27.8645,42.0001],[27.8573,41.9878],[27.8301,41.9931],[27.8249,41.9871],[27.8377,41.9435],[27.8202,41.948],[27.8179,41.9376],[27.738,41.9735],[27.7076,41.9724],[27.6742,41.9562],[27.6279,41.9528],[27.6128,41.9345],[27.605,41.9406],[27.5887,41.9275],[27.5792,41.9329],[27.5759,41.9039],[27.5601,41.9014],[27.5364,41.9154],[27.5094,41.9525],[27.4917,41.9491],[27.4673,41.9554],[27.391,42.0044],[27.3628,42.053],[27.3351,42.0574],[27.3216,42.0756],[27.2901,42.0925],[27.2396,42.1005],[27.2039,42.0772],[27.2121,42.0619],[27.2045,42.0559],[27.1797,42.0651],[27.1303,42.0633],[27.1058,42.0829],[27.0676,42.0881],[27.0283,42.0764],[27.0299,42.0547],[27.0092,42.0351],[26.9878,42.0336],[26.9888,42.0187],[26.9676,41.9935],[26.9306,41.9967],[26.9024,41.9826],[26.8717,41.9866],[26.845,41.9661],[26.8123,41.9709],[26.7895,41.9851],[26.7571,41.9545],[26.7147,41.9631],[26.6677,41.9614],[26.6267,41.9738],[26.5674,41.9257],[26.5911,41.9029],[26.5729,41.886],[26.5856,41.8697],[26.5701,41.8641],[26.5418,41.8199],[26.3721,41.8172],[26.332,41.7424],[26.3634,41.7159],[26.3621,41.7068],[26.274,41.7113],[26.2282,41.7354],[26.2125,41.7284],[26.1718,41.7442],[26.1257,41.7277],[26.1152,41.71],[26.0881,41.7126],[26.0744,41.7067],[26.0662,41.6888],[26.0751,41.6522],[26.094,41.6455],[26.099,41.6301],[26.1413,41.6364],[26.1427,41.6166],[26.1591,41.6049],[26.1531,41.5575],[26.18,41.5588],[26.1898,41.5193],[26.1751,41.4909],[26.1585,41.4831],[26.1604,41.4758],[26.2072,41.4378],[26.1777,41.4302],[26.1659,41.4195],[26.1599,41.387],[26.1321,41.3498],[26.1061,41.3526],[26.0826,41.3418],[26.037,41.3462],[26.0132,41.3406],[26.0026,41.324],[25.978,41.3151],[25.9376,41.3167],[25.9079,41.3041],[25.8831,41.3009],[25.863,41.3125],[25.8673,41.3245],[25.8523,41.324],[25.8248,41.3423],[25.8183,41.3339],[25.7913,41.3288],[25.7831,41.3182],[25.7241,41.3141],[25.7118,41.2879],[25.6561,41.3101],[25.6241,41.3003],[25.5632,41.3146],[25.5493,41.3071],[25.5329,41.274],[25.4773,41.2843],[25.4359,41.2718],[25.4298,41.2605],[25.369,41.2555],[25.338,41.2371],[25.2981,41.2409],[25.291,41.2313],[25.2797,41.2327],[25.2283,41.2469],[25.217,41.279],[25.1804,41.2956],[25.1747,41.3077],[25.1282,41.3222],[25.1199,41.3383],[25.1004,41.3314],[25.0819,41.3358],[25.053,41.3612],[24.9397,41.3836],[24.9137,41.4045],[24.8992,41.4033],[24.8847,41.3887],[24.8253,41.3968],[24.8201,41.3519],[24.8041,41.341],[24.7433,41.3786],[24.7273,41.4127],[24.6828,41.4201],[24.6573,41.4129],[24.6555,41.4308],[24.6174,41.42],[24.6054,41.4245],[24.5926,41.4416],[24.5919,41.4627],[24.5697,41.473],[24.555,41.5008],[24.5578,41.5148],[24.5414,41.5388],[24.5474,41.5502],[24.531,41.552],[24.5257,41.5639],[24.4974,41.55],[24.4794,41.5497],[24.4519,41.5179],[24.4112,41.526],[24.4054,41.5355],[24.388,41.5329],[24.3722,41.5152],[24.339,41.5218],[24.3014,41.5071],[24.2915,41.5247],[24.2967,41.5376],[24.2666,41.5564],[24.2623,41.5693],[24.2313,41.5439],[24.2152,41.5468],[24.1967,41.5301],[24.1954,41.5158],[24.1712,41.5109],[24.1542,41.5342],[24.1322,41.5291],[24.1278,41.537],[24.0998,41.5454],[24.0826,41.5392],[24.0646,41.5204],[24.0667,41.4866],[24.0781,41.4648],[24.049,41.4476],[24.0209,41.453],[24.0165,41.4605],[23.9699,41.4352],[23.9396,41.4486],[23.9152,41.4758],[23.9099,41.4553],[23.8917,41.4469],[23.8033,41.4333],[23.7708,41.3939],[23.7304,41.4037],[23.6751,41.4053],[23.6525,41.3918],[23.6502,41.3784],[23.6391,41.3724],[23.5959,41.3749],[23.5774,41.3864],[23.5484,41.383],[23.5239,41.4012],[23.4823,41.3954],[23.4394,41.4021],[23.4063,41.3972],[23.3443,41.3615],[23.3366,41.3622],[23.3184,41.3956],[23.2849,41.3959],[23.2363,41.3725],[23.2353,41.3485],[23.218,41.3269],[23.1814,41.3157],[23.0946,41.3137],[23.026,41.3292],[22.9206,41.3326],[22.917,41.339],[22.9603,41.3572],[22.9611,41.3953],[22.9472,41.4173],[22.9738,41.4462],[22.9598,41.4631],[22.9535,41.495],[22.9648,41.5067],[22.9535,41.535],[22.967,41.5616],[22.9453,41.592],[22.9475,41.643],[22.9784,41.6515],[22.9917,41.6765],[23.029,41.711],[23.0036,41.7644],[22.9616,41.7704],[22.937,41.8161],[22.9322,41.8454],[22.9133,41.8725],[22.8974,41.8746],[22.8891,41.9139],[22.8693,41.9362],[22.8725,41.9741],[22.8701,41.9947],[22.859,42.0018],[22.863,42.0194],[22.8257,42.0183],[22.7997,42.0393],[22.7775,42.0338],[22.7345,42.0429],[22.7145,42.0636],[22.6787,42.0603],[22.6271,42.0905],[22.5962,42.0969],[22.5642,42.1146],[22.5033,42.155],[22.5089,42.1592],[22.4971,42.1925],[22.4665,42.2001],[22.4439,42.2413],[22.4215,42.2533],[22.3962,42.2877],[22.376,42.3049],[22.3533,42.3086],[22.3634,42.3252],[22.4025,42.3361],[22.4257,42.337],[22.4344,42.3285],[22.45,42.3352],[22.4746,42.3959],[22.5132,42.399],[22.5306,42.4241],[22.5537,42.485],[22.5421,42.5056],[22.4677,42.5581],[22.4339,42.5629]]]}},{"type":"Feature","properties":{"kind":"neighbour","id":"TR"},"geometry":{"type":"MultiPolygon","coordinates":[[[[26.3618,38.4589],[26.3661,38.4431],[26.3783,38.4366],[26.3895,38.4414],[26.3879,38.416],[26.3723,38.4257],[26.3627,38.4217],[26.3635,38.4365],[26.3581,38.4223],[26.3501,38.4243],[26.3552,38.4185],[26.3408,38.4156],[26.3302,38.4186],[26.3238,38.4271],[26.3221,38.4416],[26.3493,38.4574],[26.3618,38.4589]]],[[[26.7805,38.3858],[26.7805,38.3994],[26.7925,38.4042],[26.7797,38.41],[26.7801,38.4255],[26.7912,38.4167],[26.7983,38.4231],[26.8036,38.4076],[26.7805,38.3858]]],[[[26.7772,38.4526],[26.7758,38.4362],[26.765,38.4312],[26.7549,38.4359],[26.7561,38.4581],[26.7772,38.4526]]],[[[26.7202,38.4587],[26.722,38.469],[26.6903,38.48],[26.6904,38.5137],[26.7005,38.536],[26.6954,38.5521],[26.7315,38.5328],[26.7362,38.4985],[26.7529,38.4817],[26.7431,38.456],[26.7202,38.4587]]],[[[26.8914,38.8424],[26.8696,38.8455],[26.8862,38.8659],[26.9036,38.872],[26.8914,38.8424]]],[[[26.0774,39.8382],[26.0857,39.7979],[26.0505,39.7837],[25.9958,39.8164],[25.9704,39.8203],[25.9561,39.8404],[26.0557,39.8505],[26.0774,39.8382]]],[[[26.0564,39.9439],[26.0875,39.9363],[26.0523,39.9244],[26.0397,39.9286],[26.0564,39.9439]]],[[[25.7853,40.2134],[25.842,40.2157],[25.8726,40.2315],[25.9499,40.2452],[25.9547,40.2275],[25.9796,40.2176],[25.9731,40.1507],[25.9843,40.1475],[26.015,40.1684],[26.0189,40.1485],[26.0118,40.1412],[25.9636,40.1203],[25.9388,40.1241],[25.8405,40.0968],[25.7639,40.0962],[25.74,40.0881],[25.7026,40.1134],[25.662,40.1221],[25.6683,40.1557],[25.7853,40.2134]]],[[[27.485,40.4633],[27.4746,40.4961],[27.5078,40.5427],[27.5432,40.5247],[27.5601,40.524],[27.5305,40.5008],[27.5447,40.4879],[27.485,40.4633]]],[[[27.4995,40.558],[27.5175,40.5506],[27.4624,40.5337],[27.4589,40.5411],[27.4726,40.5527],[27.4995,40.558]]],[[[27.6031,40.664],[27.6119,40.6601],[27.6363,40.672],[27.6461,40.6625],[27.6618,40.6664],[27.6645,40.659],[27.6737,40.6692],[27.6864,40.6677],[27.684,40.6533],[27.7098,40.654],[27.7376,40.6433],[27.7398,40.6362],[27.7613,40.6397],[27.7687,40.6343],[27.609,40.5722],[27.5876,40.577],[27.5718,40.5722],[27.5273,40.5951],[27.5239,40.6444],[27.5484,40.6602],[27.5595,40.6464],[27.5715,40.6564],[27.6031,40.664]]],[[[29.3807,36.2296],[29.3768,36.2162],[29.3393,36.2042],[29.3444,36.2163],[29.3807,36.2296]]],[[[27.1857,36.9906],[27.1955,36.9992],[27.2032,36.9969],[27.2148,37.0148],[27.2249,37.0156],[27.219,36.9976],[27.1973,36.9866],[27.1857,36.9906]]],[[[27.4439,36.9675],[27.4221,36.9883],[27.42,36.9986],[27.4948,36.9746],[27.4964,36.9659],[27.4774,36.9545],[27.4439,36.9675]]],[[[26.3511,40.0584],[26.3621,40.1014],[26.3935,40.1081],[26.4038,40.1186],[26.3935,40.1437],[26.4032,40.1571],[26.4033,40.1917],[26.393,40.1976],[26.4153,40.2038],[26.4417,40.1975],[26.4645,40.2007],[26.5208,40.2207],[26.5663,40.2803],[26.6049,40.2859],[26.6498,40.3313],[26.6867,40.3533],[26.6853,40.367],[26.7076,40.3783],[26.6993,40.3815],[26.7048,40.3887],[26.7509,40.406],[26.7775,40.4095],[26.8187,40.3996],[26.8845,40.4001],[26.9135,40.4093],[26.9581,40.3867],[27.0328,40.394],[27.0592,40.4171],[27.054,40.4316],[27.0722,40.4317],[27.0902,40.4459],[27.1543,40.4551],[27.1904,40.4376],[27.2023,40.4386],[27.2866,40.4788],[27.3192,40.4475],[27.3245,40.4275],[27.3411,40.4104],[27.3105,40.3989],[27.326,40.3767],[27.4354,40.3276],[27.5416,40.3056],[27.6211,40.3298],[27.6764,40.3123],[27.7113,40.3188],[27.7612,40.311],[27.873,40.3764],[27.8234,40.395],[27.7886,40.3697],[27.7735,40.3703],[27.7797,40.3799],[27.7938,40.3814],[27.7788,40.4068],[27.7432,40.429],[27.7458,40.4481],[27.7166,40.4534],[27.6849,40.4712],[27.681,40.5025],[27.7005,40.518],[27.7228,40.5265],[27.7686,40.5252],[27.7807,40.5316],[27.7867,40.5112],[27.7925,40.523],[27.8357,40.5148],[27.8679,40.5191],[28.0272,40.4877],[28.0378,40.4775],[28.0254,40.4494],[27.9751,40.4216],[27.9286,40.4074],[27.9032,40.3878],[27.932,40.3661],[27.9602,40.3575],[28.0611,40.3848],[28.2526,40.4052],[28.5139,40.3976],[28.5849,40.3764],[28.6589,40.3649],[28.6712,40.3677],[28.6737,40.3778],[28.7969,40.3976],[28.8429,40.3855],[28.8788,40.3856],[28.9263,40.3602],[28.9766,40.3597],[29.0548,40.3677],[29.0786,40.4181],[29.1487,40.4273],[29.146,40.4343],[29.0811,40.4737],[29.033,40.4761],[28.9771,40.4527],[28.8812,40.4765],[28.8522,40.5023],[28.7782,40.5158],[28.7767,40.5365],[28.7938,40.5564],[28.9184,40.5989],[28.9472,40.6153],[28.9623,40.6359],[28.9906,40.6477],[29.1068,40.6472],[29.1337,40.6523],[29.1438,40.6649],[29.1691,40.6589],[29.2607,40.6615],[29.3381,40.6762],[29.3756,40.7031],[29.3936,40.7051],[29.4229,40.6931],[29.437,40.6944],[29.5043,40.7351],[29.5133,40.7485],[29.5263,40.7222],[29.5602,40.6906],[29.6048,40.6974],[29.6044,36.1842],[29.5823,36.1868],[29.6018,36.2024],[29.4956,36.2067],[29.4568,36.2179],[29.441,36.2085],[29.4495,36.2051],[29.4399,36.1943],[29.4301,36.1954],[29.4305,36.207],[29.447,36.2226],[29.4118,36.2242],[29.4027,36.2416],[29.4096,36.2557],[29.3773,36.2578],[29.372,36.2378],[29.352,36.2287],[29.3112,36.2487],[29.2254,36.3229],[29.2087,36.3216],[29.1786,36.3387],[29.1617,36.3399],[29.158,36.3515],[29.1383,36.3561],[29.1386,36.3735],[29.1171,36.3732],[29.1163,36.3866],[29.0967,36.3884],[29.101,36.4062],[29.1243,36.4183],[29.1125,36.4257],[29.1274,36.432],[29.1186,36.4586],[29.0981,36.4747],[29.1187,36.4999],[29.1188,36.5423],[29.0941,36.5439],[29.0854,36.5587],[29.0696,36.5469],[29.0563,36.5543],[29.0709,36.5379],[29.0548,36.533],[29.0533,36.5393],[29.0264,36.5355],[29.0021,36.5447],[29.0404,36.5611],[29.0192,36.585],[29.0257,36.6035],[29.0372,36.6211],[29.0703,36.619],[29.0709,36.6421],[29.1049,36.6565],[29.0927,36.6732],[29.0532,36.6793],[29.0293,36.7023],[29.013,36.6994],[29.0197,36.6884],[29.0016,36.6913],[28.9992,36.6994],[29.0123,36.7003],[29.0138,36.709],[28.9948,36.7054],[28.9477,36.7354],[28.9531,36.7241],[28.9397,36.7135],[28.9298,36.7197],[28.9351,36.7415],[28.9465,36.7364],[28.9314,36.7501],[28.9292,36.734],[28.9071,36.7103],[28.9102,36.7034],[28.8713,36.6918],[28.8619,36.6457],[28.8731,36.6405],[28.8954,36.6527],[28.8844,36.6703],[28.906,36.6738],[28.9163,36.6862],[28.9437,36.6776],[28.9121,36.652],[28.9094,36.6401],[28.8727,36.6179],[28.8792,36.5994],[28.8455,36.5855],[28.8219,36.6137],[28.8241,36.6287],[28.8401,36.6377],[28.8287,36.6372],[28.8171,36.654],[28.7912,36.6485],[28.7972,36.6696],[28.7781,36.6855],[28.7242,36.7011],[28.7035,36.6984],[28.7094,36.6956],[28.6973,36.6884],[28.682,36.6878],[28.6853,36.6934],[28.6699,36.6892],[28.6678,36.7045],[28.6526,36.7155],[28.6357,36.6989],[28.6171,36.7013],[28.6173,36.7261],[28.6043,36.7343],[28.6234,36.7533],[28.61,36.7604],[28.6234,36.7784],[28.6127,36.7914],[28.5923,36.7975],[28.5858,36.8103],[28.5555,36.825],[28.5346,36.8047],[28.5452,36.7936],[28.5347,36.7832],[28.5157,36.7941],[28.5023,36.7886],[28.4844,36.8006],[28.4945,36.8123],[28.461,36.8099],[28.4477,36.8344],[28.4497,36.8505],[28.4626,36.8613],[28.4525,36.874],[28.4499,36.8559],[28.4401,36.8601],[28.4101,36.8519],[28.4033,36.859],[28.3875,36.8459],[28.3914,36.8403],[28.4286,36.8372],[28.4278,36.8189],[28.4101,36.7872],[28.3995,36.7823],[28.3129,36.812],[28.3166,36.7933],[28.2734,36.7934],[28.2668,36.8135],[28.275,36.816],[28.2678,36.8214],[28.3075,36.8243],[28.2756,36.8474],[28.2667,36.8456],[28.2439,36.8109],[28.2614,36.8129],[28.2632,36.7917],[28.2463,36.8016],[28.2571,36.7929],[28.257,36.7753],[28.2751,36.752],[28.2954,36.7484],[28.3024,36.7269],[28.2874,36.7185],[28.2757,36.7292],[28.2596,36.7272],[28.2235,36.6869],[28.1655,36.6762],[28.1185,36.6005],[28.1326,36.6042],[28.1307,36.591],[28.1144,36.5971],[28.0903,36.5819],[28.07,36.5894],[28.0527,36.5779],[28.0354,36.5443],[28.0289,36.5614],[28.0169,36.5675],[27.9787,36.5527],[27.9578,36.6042],[27.9768,36.6139],[28.0462,36.6091],[28.0544,36.643],[28.0415,36.644],[28.022,36.6599],[28.029,36.6688],[27.969,36.6723],[27.9626,36.684],[27.9792,36.6915],[28.0026,36.7276],[28.0086,36.7192],[28.0155,36.7277],[28.0406,36.731],[28.0371,36.7227],[28.0458,36.7303],[28.0393,36.7384],[28.0704,36.7376],[28.0664,36.7264],[28.0981,36.7277],[28.0942,36.7141],[28.1015,36.7135],[28.1178,36.73],[28.0894,36.7385],[28.0825,36.7488],[28.0964,36.7687],[28.114,36.7746],[28.1221,36.7691],[28.1199,36.798],[28.0856,36.7914],[28.0809,36.7755],[28.0622,36.7649],[28.0701,36.7608],[28.0589,36.7543],[28.0387,36.7707],[28.0195,36.7588],[27.9695,36.7512],[27.9563,36.7553],[27.93,36.7406],[27.8998,36.7501],[27.8944,36.7373],[27.8805,36.7519],[27.86,36.7402],[27.8373,36.7439],[27.8158,36.7577],[27.748,36.7467],[27.7596,36.7571],[27.7304,36.7571],[27.6952,36.7259],[27.6982,36.7105],[27.681,36.6949],[27.6769,36.6556],[27.6057,36.6778],[27.5782,36.679],[27.5624,36.6719],[27.5156,36.6719],[27.5111,36.6459],[27.5058,36.6655],[27.4778,36.6471],[27.4601,36.6577],[27.4062,36.6621],[27.3952,36.677],[27.3666,36.6811],[27.3587,36.7108],[27.3969,36.7065],[27.4177,36.7236],[27.4165,36.732],[27.392,36.7491],[27.4186,36.74],[27.4655,36.7645],[27.4809,36.7559],[27.5099,36.7549],[27.5796,36.7702],[27.6058,36.7693],[27.6202,36.7812],[27.6227,36.7989],[27.6436,36.8122],[27.6774,36.8041],[27.6947,36.7914],[27.7201,36.7889],[27.7671,36.7933],[27.8192,36.8158],[28.0291,36.7946],[28.0527,36.8052],[28.0558,36.8212],[28.0017,36.8342],[28.0135,36.841],[28.0051,36.8526],[28.0166,36.8642],[28.0087,36.8701],[28.0364,36.8762],[28.0241,36.8904],[28.0409,36.8883],[28.0127,36.9052],[28.0329,36.9136],[28.0204,36.9268],[28.047,36.9279],[28.0408,36.937],[28.0697,36.9438],[28.154,36.9289],[28.1459,36.9341],[28.1502,36.9507],[28.1898,36.9479],[28.198,36.9536],[28.1806,36.9551],[28.2053,36.976],[28.1946,36.9835],[28.2043,36.9874],[28.1916,36.9884],[28.1988,36.9959],[28.1938,37.0],[28.2126,37.005],[28.2162,36.9994],[28.2478,36.9956],[28.2265,37.0001],[28.3186,37.0291],[28.3209,37.0452],[28.1983,37.0356],[28.1634,37.0263],[28.109,37.0297],[28.1183,37.0182],[28.1032,37.01],[28.086,37.0222],[28.0262,37.019],[27.9822,37.0261],[27.9495,37.0141],[27.927,37.0246],[27.8899,37.0235],[27.7682,36.9893],[27.6857,36.9982],[27.652,36.9921],[27.6418,36.9764],[27.5879,36.9902],[27.5733,36.9869],[27.6033,36.98],[27.6023,36.9622],[27.585,36.9747],[27.5236,36.9891],[27.483,36.9852],[27.4277,37.0288],[27.4117,37.0178],[27.3988,37.023],[27.3876,36.9878],[27.3724,37.0039],[27.3736,37.0201],[27.3368,37.0096],[27.3412,36.9995],[27.308,36.9702],[27.3134,36.9489],[27.3028,36.944],[27.2973,36.9507],[27.3044,36.9572],[27.2652,36.9619],[27.2527,36.9776],[27.2461,37.0234],[27.2305,37.0374],[27.2248,37.0578],[27.2368,37.0824],[27.223,37.0922],[27.2471,37.0885],[27.2854,37.1108],[27.253,37.1113],[27.2517,37.1283],[27.2767,37.1404],[27.3101,37.123],[27.3225,37.1625],[27.345,37.1515],[27.3462,37.1414],[27.368,37.1579],[27.3984,37.1425],[27.3859,37.1321],[27.3894,37.1268],[27.4067,37.1361],[27.4218,37.1259],[27.4331,37.1278],[27.4684,37.0869],[27.5363,37.1295],[27.569,37.1342],[27.5497,37.1337],[27.5504,37.1491],[27.5387,37.1571],[27.5322,37.1396],[27.5136,37.1444],[27.5006,37.1375],[27.4852,37.14],[27.4939,37.1614],[27.5061,37.1581],[27.5334,37.1676],[27.5387,37.1573],[27.538,37.182],[27.523,37.195],[27.5512,37.1979],[27.5704,37.2131],[27.5802,37.2095],[27.5745,37.2156],[27.6084,37.2718],[27.5956,37.2803],[27.582,37.2706],[27.5603,37.271],[27.5516,37.2605],[27.5633,37.2598],[27.5716,37.241],[27.5368,37.2434],[27.5252,37.2261],[27.5063,37.2273],[27.4973,37.2372],[27.512,37.2477],[27.5127,37.2722],[27.4823,37.263],[27.4737,37.2529],[27.4608,37.2497],[27.4521,37.2555],[27.491,37.3172],[27.4786,37.3327],[27.4587,37.3078],[27.4409,37.3004],[27.4147,37.3028],[27.3849,37.3256],[27.3779,37.3555],[27.4121,37.3845],[27.4258,37.3874],[27.4177,37.4089],[27.3798,37.4014],[27.3564,37.3684],[27.3308,37.3701],[27.326,37.3644],[27.3363,37.3492],[27.3285,37.3398],[27.2849,37.3512],[27.2637,37.3345],[27.2497,37.3334],[27.2137,37.3439],[27.2123,37.3498],[27.1897,37.3511],[27.2102,37.3895],[27.2074,37.3993],[27.2219,37.4069],[27.215,37.4226],[27.2202,37.481],[27.2046,37.4777],[27.2027,37.4835],[27.1931,37.4764],[27.1995,37.4647],[27.1723,37.4754],[27.1861,37.4798],[27.1961,37.491],[27.1949,37.5045],[27.1838,37.4813],[27.1914,37.5133],[27.1629,37.54],[27.1548,37.5894],[27.1617,37.5913],[27.1764,37.5658],[27.1813,37.5728],[27.1878,37.5625],[27.2089,37.5781],[27.2098,37.5905],[27.1892,37.6044],[27.0915,37.6355],[27.0096,37.6494],[26.9925,37.6458],[27.0032,37.6566],[27.0157,37.7001],[27.0242,37.6907],[27.0486,37.6856],[27.1005,37.6853],[27.2032,37.712],[27.2323,37.7291],[27.2499,37.7529],[27.2644,37.8064],[27.2336,37.8392],[27.2392,37.8605],[27.2578,37.8687],[27.2662,37.9001],[27.2588,37.9131],[27.2711,37.93],[27.2427,37.978],[27.2129,37.9879],[27.1678,37.9791],[27.1376,37.983],[27.0958,38.0115],[27.0716,38.0147],[27.0464,38.0446],[26.9831,38.0691],[26.9506,38.0714],[26.9136,38.0625],[26.8584,38.0232],[26.8632,38.0343],[26.85,38.0442],[26.8425,38.0736],[26.8446,38.1018],[26.8251,38.1231],[26.8175,38.155],[26.8094,38.1597],[26.7946,38.1509],[26.7965,38.1673],[26.7724,38.1618],[26.7618,38.2054],[26.7748,38.2024],[26.7547,38.217],[26.7309,38.2053],[26.6564,38.2048],[26.6416,38.1991],[26.6282,38.1418],[26.6136,38.1346],[26.6166,38.11],[26.5916,38.1015],[26.58,38.1088],[26.5695,38.1364],[26.5621,38.116],[26.5299,38.1271],[26.5103,38.165],[26.5134,38.1784],[26.4869,38.1802],[26.4847,38.1894],[26.4572,38.1909],[26.4558,38.1965],[26.4387,38.1961],[26.4456,38.176],[26.4315,38.1817],[26.4321,38.1894],[26.4198,38.1941],[26.425,38.1981],[26.3912,38.2189],[26.3868,38.2357],[26.3949,38.2466],[26.3885,38.2553],[26.3678,38.2264],[26.3356,38.2236],[26.3074,38.2371],[26.285,38.2606],[26.2397,38.2612],[26.2274,38.2702],[26.2318,38.2949],[26.2705,38.2951],[26.278,38.324],[26.2926,38.3262],[26.2811,38.3457],[26.2802,38.3783],[26.2994,38.3645],[26.3159,38.3793],[26.3269,38.3529],[26.3227,38.3344],[26.3462,38.3343],[26.3546,38.3181],[26.3719,38.3131],[26.3796,38.3205],[26.3812,38.351],[26.4012,38.3414],[26.4033,38.3303],[26.4519,38.3567],[26.4375,38.3646],[26.4553,38.3737],[26.4626,38.3841],[26.4571,38.4008],[26.4665,38.4056],[26.4453,38.4307],[26.4727,38.4286],[26.4949,38.4073],[26.5086,38.4266],[26.4931,38.4441],[26.4357,38.4727],[26.4231,38.4705],[26.4064,38.4484],[26.3895,38.4495],[26.3886,38.4645],[26.4044,38.4935],[26.3697,38.5299],[26.3755,38.5403],[26.3574,38.5687],[26.3501,38.6398],[26.3622,38.6635],[26.4174,38.6831],[26.441,38.6751],[26.4784,38.6757],[26.5017,38.659],[26.519,38.6726],[26.5408,38.6424],[26.5297,38.6419],[26.532,38.6297],[26.5657,38.6013],[26.5758,38.5605],[26.6256,38.5309],[26.6374,38.5122],[26.6435,38.4673],[26.6327,38.4614],[26.618,38.4681],[26.5987,38.4652],[26.6053,38.4402],[26.5919,38.4277],[26.6153,38.421],[26.647,38.3736],[26.6487,38.3436],[26.6774,38.3162],[26.6969,38.3209],[26.6895,38.3388],[26.6724,38.349],[26.6798,38.3602],[26.6719,38.3885],[26.6831,38.4162],[26.7058,38.4362],[26.7176,38.433],[26.7205,38.4412],[26.7402,38.4286],[26.7479,38.4054],[26.758,38.4051],[26.7695,38.3719],[26.7786,38.368],[26.7901,38.3818],[26.7988,38.3756],[26.7862,38.3648],[26.8028,38.3601],[26.8352,38.3738],[26.9427,38.3897],[27.018,38.4193],[27.0516,38.4124],[27.0583,38.4184],[27.0888,38.4045],[27.1163,38.4158],[27.1427,38.4451],[27.1625,38.4508],[27.1547,38.461],[27.109,38.4467],[27.0841,38.4572],[27.0492,38.4546],[27.0571,38.4634],[27.0772,38.4619],[27.0553,38.4672],[26.9794,38.4482],[26.9759,38.431],[26.9631,38.4412],[26.9515,38.436],[26.9223,38.4542],[26.9075,38.4807],[26.8811,38.5036],[26.8321,38.521],[26.8162,38.5351],[26.8149,38.5501],[26.8395,38.5644],[26.8406,38.5765],[26.8278,38.578],[26.7922,38.6084],[26.7565,38.613],[26.7548,38.6332],[26.7186,38.6525],[26.7437,38.6731],[26.7347,38.6742],[26.7293,38.6641],[26.7196,38.6722],[26.7022,38.6706],[26.7224,38.6841],[26.7053,38.6909],[26.7025,38.7135],[26.7139,38.726],[26.7106,38.7058],[26.7268,38.6944],[26.732,38.7403],[26.7761,38.7413],[26.8259,38.7649],[26.8397,38.7498],[26.8567,38.7554],[26.8899,38.7386],[26.9066,38.7682],[26.932,38.7646],[26.8932,38.8104],[26.8889,38.8266],[26.9127,38.8231],[26.9424,38.8386],[26.9518,38.8113],[26.9683,38.8097],[26.9767,38.8235],[26.9598,38.8305],[26.9685,38.8472],[27.0167,38.8728],[27.0249,38.8728],[27.0305,38.8618],[27.0586,38.8772],[27.0503,38.8875],[27.0451,38.8805],[27.0261,38.8816],[27.0415,38.8906],[27.0345,38.8931],[27.0497,38.9169],[27.0414,38.9357],[27.0273,38.9272],[27.0368,38.915],[27.0196,38.9186],[27.0159,38.9101],[26.9869,38.9148],[26.9564,38.9333],[26.9437,38.9341],[26.9386,38.9212],[26.9209,38.9349],[26.8789,38.9138],[26.8509,38.9123],[26.8455,38.9293],[26.8201,38.9338],[26.7947,38.9554],[26.7888,39.0098],[26.8025,39.0385],[26.8808,39.0716],[26.8692,39.1002],[26.8086,39.1537],[26.7654,39.1637],[26.7281,39.2089],[26.722,39.2225],[26.7316,39.2207],[26.7292,39.2376],[26.717,39.2541],[26.6066,39.271],[26.6074,39.2801],[26.5692,39.2744],[26.5883,39.3063],[26.6065,39.3081],[26.6078,39.2827],[26.6205,39.3104],[26.6426,39.3217],[26.6229,39.3232],[26.6154,39.3315],[26.6003,39.3295],[26.5893,39.3355],[26.5951,39.341],[26.5666,39.3291],[26.5818,39.3516],[26.5983,39.3544],[26.61,39.3444],[26.6036,39.3528],[26.6153,39.3611],[26.6014,39.3828],[26.5848,39.3629],[26.5821,39.3755],[26.5715,39.3721],[26.5636,39.3807],[26.5668,39.3915],[26.5728,39.388],[26.59,39.4002],[26.6043,39.3939],[26.6226,39.3991],[26.6474,39.3892],[26.6738,39.3939],[26.6602,39.3725],[26.6276,39.3754],[26.6344,39.3637],[26.658,39.3643],[26.6587,39.3542],[26.6846,39.3582],[26.6666,39.3442],[26.6971,39.353],[26.7015,39.3429],[26.7147,39.3465],[26.7624,39.3706],[26.7496,39.3726],[26.7699,39.3855],[26.7739,39.3733],[26.8015,39.3957],[26.7969,39.4361],[26.8121,39.441],[26.8324,39.4349],[26.8479,39.441],[26.8565,39.4797],[26.8981,39.4803],[26.9251,39.4888],[26.9464,39.5532],[26.9418,39.563],[26.9198,39.5792],[26.8841,39.5811],[26.8682,39.5634],[26.8381,39.5553],[26.8177,39.5638],[26.776,39.5669],[26.7588,39.5607],[26.7289,39.5632],[26.696,39.553],[26.6342,39.5513],[26.5489,39.5279],[26.4803,39.5224],[26.4188,39.4986],[26.3797,39.4929],[26.3712,39.477],[26.3514,39.4838],[26.3258,39.4778],[26.2686,39.48],[26.243,39.4608],[26.2261,39.4704],[26.2062,39.4583],[26.1347,39.4499],[26.0781,39.4652],[26.0613,39.4733],[26.0663,39.5046],[26.0786,39.5141],[26.1003,39.5859],[26.136,39.6116],[26.1584,39.6615],[26.1539,39.7189],[26.1346,39.7588],[26.1519,39.7749],[26.1583,39.8196],[26.1301,39.8408],[26.1541,39.8852],[26.1456,39.9144],[26.1746,39.9917],[26.1984,40.0124],[26.2508,40.0026],[26.2845,40.0082],[26.3308,40.0319],[26.3511,40.0584]],[[28.0337,36.7146],[28.011,36.7081],[28.0096,36.7146],[28.008,36.7052],[28.0375,36.7097],[28.0482,36.7213],[28.0371,36.7227],[28.0337,36.7146]],[[26.6383,39.2983],[26.6577,39.2983],[26.6856,39.3182],[26.6982,39.3415],[26.688,39.329],[26.667,39.3275],[26.6669,39.3187],[26.6583,39.3196],[26.658,39.3005],[26.6383,39.2983]],[[26.6659,39.2873],[26.6624,39.2869],[26.6656,39.2846],[26.6659,39.2873]],[[26.8033,39.0152],[26.8027,39.0124],[26.8047,39.0154],[26.8033,39.0152]],[[26.7324,38.6763],[26.7332,38.6826],[26.7287,38.691],[26.7259,38.6842],[26.7324,38.6763]],[[26.5142,38.6545],[26.5062,38.6558],[26.516,38.6531],[26.5142,38.6545]],[[26.4718,38.3783],[26.4703,38.3732],[26.4741,38.3765],[26.4701,38.3866],[26.4718,38.3783]],[[26.4686,38.3716],[26.4585,38.3707],[26.4616,38.3653],[26.4686,38.3716]],[[26.4329,38.2064],[26.4471,38.2041],[26.4291,38.2157],[26.4329,38.2064]],[[27.174,37.5528],[27.1748,37.5592],[27.1732,37.5518],[27.174,37.5528]],[[27.186,37.5422],[27.1825,37.5358],[27.188,37.5406],[27.186,37.5422]],[[27.1917,37.5259],[27.1927,37.5212],[27.193,37.5209],[27.1917,37.5259]],[[27.5519,37.2564],[27.5504,37.2591],[27.5494,37.2578],[27.5519,37.2564]],[[27.5965,37.1977],[27.597,37.1973],[27.5976,37.1973],[27.5965,37.1977]],[[28.1601,36.9409],[28.1597,36.9407],[28.1606,36.9395],[28.1601,36.9409]],[[28.1625,36.9181],[28.1653,36.9261],[28.1625,36.934],[28.1589,36.9264],[28.1625,36.9181]],[[28.0442,36.8691],[28.0369,36.8659],[28.0434,36.8682],[28.0442,36.8691]],[[28.0049,36.7053],[28.0035,36.7072],[28.0021,36.7053],[28.0049,36.7053]],[[28.0522,36.6589],[28.059,36.6695],[28.0485,36.6738],[28.0448,36.6637],[28.0586,36.6522],[28.0522,36.6589]],[[28.0578,36.6103],[28.0859,36.6382],[28.0818,36.6533],[28.0567,36.6358],[28.0631,36.6162],[28.0578,36.6103]],[[29.1003,36.6427],[29.1043,36.6312],[29.0963,36.6256],[29.1148,36.6349],[29.1104,36.6504],[29.1003,36.6427]]],[[[27.6028,40.4842],[27.5944,40.5113],[27.6213,40.5128],[27.6278,40.5007],[27.6396,40.5026],[27.6559,40.4915],[27.6389,40.4703],[27.65,40.46],[27.6641,40.4716],[27.6719,40.4611],[27.6688,40.4422],[27.6257,40.4574],[27.5626,40.4613],[27.5535,40.4693],[27.5682,40.4744],[27.576,40.4656],[27.5801,40.486],[27.5915,40.4838],[27.5676,40.4971],[27.5755,40.534],[27.5916,40.5295],[27.5866,40.5091],[27.5956,40.483],[27.6028,40.4842]]],[[[28.1161,40.4697],[28.0982,40.4614],[28.1004,40.4446],[28.0564,40.4563],[28.0631,40.4687],[28.0812,40.4644],[28.0811,40.4536],[28.0955,40.463],[28.088,40.4706],[28.1161,40.4697]]],[[[28.5118,40.5191],[28.521,40.5563],[28.512,40.567],[28.5594,40.5674],[28.5423,40.5493],[28.5446,40.5131],[28.5238,40.5061],[28.5118,40.5191]]],[[[26.5609,41.8688],[26.5751,41.874],[26.5626,41.8811],[26.5781,41.9024],[26.5557,41.9268],[26.6132,41.9674],[26.621,41.9833],[26.6668,41.9694],[26.7176,41.9701],[26.7505,41.9624],[26.7847,41.9934],[26.8423,41.9733],[26.8462,41.9856],[26.8691,41.9942],[26.8993,41.9903],[26.9262,42.0039],[26.9629,42.0016],[26.979,42.0207],[26.9777,42.0401],[27.004,42.0419],[27.0209,42.0579],[27.0218,42.0841],[27.0667,42.0966],[27.111,42.0897],[27.136,42.0703],[27.1827,42.0743],[27.2002,42.0636],[27.1944,42.0799],[27.2195,42.1014],[27.2393,42.1084],[27.2699,42.1077],[27.2952,42.0995],[27.328,42.0819],[27.3413,42.0637],[27.3682,42.0594],[27.3992,42.0093],[27.4211,41.9937],[27.4351,41.9931],[27.451,41.9717],[27.492,41.9566],[27.5134,41.9607],[27.5443,41.9199],[27.5624,41.9091],[27.5561,41.9154],[27.5733,41.9402],[27.5886,41.9381],[27.6047,41.9511],[27.6126,41.945],[27.6171,41.9607],[27.6694,41.963],[27.6912,41.9844],[27.7286,41.978],[27.7396,41.9823],[27.7723,41.966],[27.7849,41.9678],[27.7871,41.9564],[27.811,41.951],[27.8125,41.9576],[27.8282,41.9535],[27.8172,41.9604],[27.8142,41.979],[27.8266,42.0025],[27.8429,41.9963],[27.8641,42.0092],[27.9014,41.995],[27.9128,41.9787],[27.9335,41.9878],[27.9596,41.9818],[27.9739,41.9949],[27.9957,41.9839],[28.029,41.9846],[28.0524,41.9472],[28.0497,41.9138],[28.0613,41.8835],[28.0431,41.8779],[28.0169,41.8897],[28.0064,41.8872],[27.9862,41.8663],[27.9872,41.8292],[28.0015,41.8004],[28.0447,41.7542],[28.0508,41.7265],[28.1036,41.6799],[28.1084,41.667],[28.0942,41.6572],[28.0993,41.6403],[28.1508,41.5872],[28.1835,41.5741],[28.1913,41.5563],[28.2251,41.5282],[28.275,41.4998],[28.6264,41.3584],[28.671,41.3472],[28.6869,41.3513],[28.7242,41.3313],[28.7544,41.3308],[28.7942,41.3073],[28.8739,41.2809],[28.9239,41.2747],[29.0094,41.2498],[29.0286,41.2498],[29.0365,41.2601],[29.0777,41.2569],[29.1209,41.2346],[29.1117,41.2073],[29.0745,41.1718],[29.0437,41.1556],[29.0769,41.123],[29.0633,41.1111],[29.0591,41.0975],[29.0612,41.0836],[29.0621,41.1046],[29.0917,41.1209],[29.0872,41.1314],[29.0671,41.1415],[29.0713,41.1677],[29.0854,41.1819],[29.1115,41.1884],[29.1269,41.2107],[29.1661,41.2282],[29.2068,41.2257],[29.2133,41.234],[29.2547,41.2383],[29.3612,41.2146],[29.3897,41.2178],[29.5734,41.176],[29.6048,41.1795],[29.6047,40.7744],[29.5722,40.7637],[29.5529,40.7676],[29.5288,40.7609],[29.4913,40.776],[29.4301,40.7654],[29.3908,40.7502],[29.3542,40.7534],[29.3451,40.7798],[29.3301,40.7858],[29.3419,40.7959],[29.3258,40.8134],[29.27,40.8081],[29.2552,40.7973],[29.2513,40.8158],[29.2736,40.8274],[29.2593,40.8392],[29.2679,40.8522],[29.2536,40.8559],[29.2506,40.8655],[29.1773,40.883],[29.1403,40.8996],[29.0943,40.9469],[29.0472,40.965],[29.0245,40.9648],[29.0332,40.9765],[29.0181,40.9762],[29.0153,40.9952],[29.0032,41.0057],[29.0036,41.0261],[29.047,41.0511],[29.0603,41.0816],[29.0361,41.0477],[28.981,41.021],[28.9925,41.0115],[28.9785,40.9978],[28.9383,40.9959],[28.8752,40.9639],[28.8545,40.97],[28.8318,40.9519],[28.8096,40.9529],[28.7652,40.9773],[28.7424,40.9674],[28.695,40.9688],[28.6735,40.9527],[28.653,40.959],[28.5938,40.9593],[28.5941,41.0079],[28.5854,41.0133],[28.5584,41.0068],[28.5432,40.9807],[28.4098,41.0407],[28.3421,41.0542],[28.2586,41.0594],[28.2307,41.074],[28.0759,41.0529],[28.0163,41.0313],[27.9925,41.0133],[27.9816,40.9801],[27.9625,40.9761],[27.9755,40.9701],[27.9605,40.9613],[27.8768,40.9629],[27.8359,40.9897],[27.7714,41.0084],[27.7393,41.0092],[27.5302,40.9744],[27.5099,40.9666],[27.5125,40.9601],[27.5027,40.9581],[27.4751,40.9122],[27.4596,40.8448],[27.347,40.7624],[27.3114,40.7],[27.2431,40.6574],[27.1928,40.6379],[27.1813,40.6252],[27.1484,40.6124],[27.0454,40.5947],[27.0056,40.5666],[26.9983,40.553],[26.9092,40.535],[26.8579,40.5088],[26.7438,40.4743],[26.6999,40.4488],[26.7032,40.4177],[26.6861,40.4139],[26.6771,40.4009],[26.6454,40.3998],[26.6317,40.3821],[26.636,40.362],[26.5941,40.3194],[26.513,40.2856],[26.482,40.2525],[26.4256,40.2181],[26.3646,40.1997],[26.3864,40.1424],[26.302,40.0841],[26.2271,40.0477],[26.2054,40.0487],[26.1899,40.0379],[26.1708,40.0413],[26.1631,40.0557],[26.2049,40.1052],[26.2732,40.2173],[26.274,40.2526],[26.2213,40.2898],[26.2413,40.3013],[26.2333,40.3131],[26.2113,40.3136],[26.2168,40.3221],[26.2618,40.3491],[26.2915,40.3549],[26.3075,40.3686],[26.3217,40.3723],[26.3285,40.3672],[26.4361,40.4351],[26.49,40.4506],[26.5876,40.4997],[26.6347,40.5132],[26.7042,40.5156],[26.7164,40.5409],[26.7481,40.5638],[26.753,40.5496],[26.7728,40.5507],[26.8339,40.5898],[26.8138,40.6441],[26.7939,40.6531],[26.6969,40.6343],[26.6108,40.633],[26.5336,40.5888],[26.4586,40.6123],[26.416,40.5964],[26.3788,40.6039],[26.3045,40.5875],[26.23,40.5946],[26.1499,40.5866],[26.0878,40.6046],[26.0577,40.6373],[26.0592,40.6747],[26.0476,40.708],[26.0245,40.7343],[26.0734,40.7317],[26.1196,40.7458],[26.1472,40.817],[26.1651,40.8144],[26.2112,40.8372],[26.1991,40.8491],[26.2023,40.8645],[26.217,40.8704],[26.2238,40.8957],[26.2323,40.8861],[26.2459,40.8885],[26.2511,40.9093],[26.2653,40.9204],[26.2683,40.9057],[26.2882,40.8972],[26.2953,40.9035],[26.2817,40.9219],[26.2838,40.9342],[26.3051,40.9332],[26.3256,40.9471],[26.3533,40.9487],[26.322,40.9779],[26.3233,40.9895],[26.3481,40.9983],[26.3621,41.0192],[26.3246,41.0409],[26.3104,41.07],[26.3085,41.0839],[26.3293,41.1049],[26.301,41.1103],[26.3269,41.1471],[26.3035,41.1693],[26.3251,41.2259],[26.3138,41.2475],[26.3383,41.2624],[26.3779,41.2531],[26.4054,41.2591],[26.4434,41.2864],[26.4608,41.2894],[26.4671,41.3074],[26.4866,41.3121],[26.499,41.3317],[26.5306,41.3464],[26.5945,41.3263],[26.623,41.3468],[26.63,41.3898],[26.6251,41.4149],[26.6088,41.4235],[26.608,41.4629],[26.5955,41.4802],[26.5998,41.4983],[26.5883,41.5277],[26.5967,41.5458],[26.5857,41.5623],[26.5936,41.6021],[26.5294,41.6179],[26.482,41.6555],[26.4852,41.6676],[26.466,41.667],[26.4426,41.6816],[26.4291,41.6775],[26.3789,41.6915],[26.3223,41.7423],[26.3383,41.7847],[26.366,41.8242],[26.5354,41.8271],[26.5609,41.8688]],[[29.2748,40.8414],[29.2785,40.8398],[29.2848,40.8464],[29.2749,40.8524],[29.2748,40.8414]]],[[[29.1406,40.8765],[29.1282,40.8358],[29.1116,40.8346],[29.1054,40.8408],[29.1114,40.8728],[29.1406,40.8765]]],[[[29.051,40.8732],[29.0544,40.8908],[29.1018,40.8858],[29.1082,40.871],[29.0827,40.8642],[29.0699,40.8664],[29.0716,40.8736],[29.051,40.8732]],[[29.0745,40.8792],[29.0748,40.8778],[29.0759,40.8786],[29.0745,40.8792]]]]}},{"type":"Feature","properties":{"kind":"neighbour","id":"IT"},"geometry":{"type":"Polygon","coordinates":[[[18.2377,40.4512],[18.3905,40.3165],[18.4351,40.2864],[18.4676,40.2296],[18.4685,40.195],[18.4942,40.1508],[18.5217,40.1365],[18.5127,40.1249],[18.5248,40.1077],[18.5203,40.1004],[18.4872,40.0755],[18.4791,40.0424],[18.4402,40.0227],[18.435,39.9968],[18.4207,39.992],[18.412,39.9737],[18.396,39.9069],[18.4035,39.8803],[18.3901,39.8402],[18.3957,39.8184],[18.3705,39.7889],[18.3614,39.7932],[18.3447,39.7868],[18.2644,39.8319],[18.1953,39.8392],[18.1953,40.4722],[18.2377,40.4512]]]}},{"type":"Feature","properties":{"kind":"neighbour","id":"RS"},"geometry":{"type":"Polygon","coordinates":[[[20.0105,42.7392],[20.0225,42.7667],[20.0559,42.7811],[20.0962,42.7796],[20.141,42.7603],[20.1571,42.7702],[20.1904,42.7516],[20.2442,42.7618],[20.2593,42.7811],[20.2499,42.8131],[20.3021,42.8394],[20.322,42.8333],[20.3468,42.8376],[20.3377,42.8706],[20.3415,42.9058],[20.2368,42.9377],[20.1493,42.973],[20.1467,42.9799],[20.1191,42.9604],[20.0837,42.9913],[20.0503,43.0073],[20.0401,43.0263],[19.9878,43.0504],[19.9634,43.0852],[19.9664,43.1072],[19.9254,43.0924],[19.9169,43.0823],[19.8697,43.1084],[19.8339,43.0886],[19.8333,43.1125],[19.8094,43.1119],[19.7837,43.1239],[19.7683,43.1612],[19.7418,43.1548],[19.7289,43.1676],[19.6788,43.1674],[19.6687,43.1803],[19.6374,43.1864],[19.6326,43.2035],[22.9888,43.2036],[23.0116,43.1963],[22.9936,43.1673],[23.0005,43.1388],[22.9867,43.1096],[22.924,43.0784],[22.9015,43.0333],[22.8668,43.0188],[22.8498,43.0006],[22.7906,42.9794],[22.7864,42.9511],[22.7751,42.9454],[22.7841,42.9286],[22.752,42.8871],[22.6992,42.8793],[22.6763,42.8589],[22.669,42.873],[22.654,42.879],[22.639,42.8743],[22.6165,42.8919],[22.5874,42.888],[22.5777,42.8587],[22.5365,42.8772],[22.5208,42.868],[22.5195,42.8549],[22.4797,42.8304],[22.445,42.8206],[22.465,42.7802],[22.5057,42.7405],[22.4993,42.7206],[22.4648,42.6872],[22.4806,42.6755],[22.4652,42.6543],[22.4716,42.6374],[22.4444,42.57],[22.4757,42.5634],[22.5041,42.5377],[22.5246,42.5297],[22.5504,42.5096],[22.5635,42.4862],[22.5239,42.3957],[22.4848,42.3905],[22.4572,42.3299],[22.4319,42.319],[22.4229,42.3279],[22.4067,42.3279],[22.3702,42.3187],[22.362,42.3053],[22.2891,42.347],[22.2917,42.3685],[22.2738,42.3577],[22.2573,42.3588],[22.2539,42.3472],[22.2311,42.3324],[22.1977,42.336],[22.1691,42.309],[22.1476,42.3162],[22.1339,42.3024],[22.1184,42.3099],[22.0654,42.2942],[22.0485,42.3033],[22.0345,42.2949],[22.0221,42.2973],[21.9462,42.3396],[21.9387,42.338],[21.9256,42.3036],[21.8918,42.2966],[21.8819,42.3082],[21.8678,42.305],[21.8499,42.3214],[21.8402,42.3193],[21.8262,42.296],[21.8162,42.2902],[21.7982,42.2925],[21.7814,42.2613],[21.7575,42.2535],[21.731,42.2587],[21.6991,42.2281],[21.684,42.2376],[21.587,42.2581],[21.525,42.2375],[21.5059,42.2676],[21.4497,42.2743],[21.4391,42.2563],[21.4507,42.2323],[21.4326,42.2292],[21.4157,42.2412],[21.3896,42.2426],[21.3708,42.2182],[21.3382,42.2003],[21.3388,42.1878],[21.3086,42.1393],[21.3281,42.1054],[21.297,42.1057],[21.2739,42.0925],[21.2477,42.0888],[21.2214,42.0911],[21.2076,42.1102],[21.2097,42.131],[21.1586,42.1935],[21.1068,42.2022],[21.0272,42.1487],[20.9237,42.1238],[20.8919,42.0936],[20.8485,42.0953],[20.8356,42.0828],[20.7896,42.0768],[20.7647,42.0523],[20.7687,42.042],[20.7542,42.0251],[20.7532,41.9872],[20.7721,41.9635],[20.7619,41.9459],[20.7811,41.9172],[20.7448,41.89],[20.7311,41.8606],[20.6819,41.8539],[20.6695,41.8693],[20.6533,41.8711],[20.6181,41.8542],[20.5896,41.8758],[20.5715,41.9182],[20.6143,41.9412],[20.6188,41.974],[20.6083,41.9834],[20.5894,42.0409],[20.5541,42.0736],[20.5623,42.1222],[20.5148,42.2155],[20.4548,42.2684],[20.401,42.2824],[20.3915,42.295],[20.3504,42.3073],[20.3367,42.3239],[20.3069,42.3108],[20.2899,42.3195],[20.2585,42.3153],[20.2409,42.3229],[20.2313,42.3479],[20.2401,42.3686],[20.2031,42.3998],[20.2218,42.4186],[20.2157,42.4322],[20.1886,42.4511],[20.1905,42.4619],[20.1604,42.5037],[20.098,42.5296],[20.0696,42.5545],[20.0826,42.5784],[20.0713,42.6187],[20.1039,42.6537],[20.0788,42.6757],[20.0311,42.6966],[20.0161,42.7096],[20.0219,42.7191],[20.0105,42.7392]]]}},{"type":"Feature","properties":{"kind":"neighbour","id":"ME"},"geometry":{"type":"Polygon","coordinates":[[[18.6342,42.438],[18.5991,42.4303],[18.5651,42.4488],[18.5373,42.4459],[18.5155,42.4532],[18.5107,42.4478],[18.5328,42.4279],[18.5281,42.4139],[18.47,42.462],[18.4295,42.4825],[18.4406,42.5095],[18.4321,42.52],[18.4328,42.5572],[18.4695,42.5684],[18.4993,42.5904],[18.5451,42.5808],[18.5206,42.626],[18.5354,42.6403],[18.5668,42.6493],[18.5437,42.6856],[18.5612,42.717],[18.4948,42.7344],[18.4687,42.7571],[18.4471,42.8123],[18.4665,42.8295],[18.465,42.851],[18.4864,42.8652],[18.5012,42.8886],[18.4752,42.9313],[18.4767,42.9679],[18.5173,43.0201],[18.5414,43.0323],[18.6209,43.0313],[18.6538,43.0404],[18.6451,43.149],[18.6641,43.2036],[19.6424,43.2036],[19.6449,43.1924],[19.6736,43.1868],[19.6861,43.1735],[19.7334,43.1752],[19.7454,43.1633],[19.7724,43.1698],[19.792,43.1292],[19.84,43.1185],[19.8404,43.1012],[19.8686,43.1169],[19.9137,43.0923],[19.9728,43.1142],[19.9737,43.0863],[19.9953,43.0554],[20.0467,43.0317],[20.0602,43.012],[20.0891,42.9976],[20.1199,42.9691],[20.1509,42.9955],[20.1572,42.9789],[20.1924,42.9632],[20.3144,42.9263],[20.3372,42.9125],[20.3488,42.9143],[20.3546,42.896],[20.3478,42.8702],[20.3591,42.8292],[20.3373,42.8312],[20.3203,42.8243],[20.3056,42.8318],[20.2617,42.8103],[20.2691,42.78],[20.2506,42.756],[20.2149,42.7446],[20.1872,42.7444],[20.1562,42.7617],[20.1395,42.7529],[20.0928,42.7725],[20.0584,42.7738],[20.0307,42.7618],[20.0204,42.7384],[20.0397,42.7007],[20.0853,42.6816],[20.1146,42.656],[20.0809,42.6164],[20.0929,42.5784],[20.0834,42.5577],[20.0216,42.5396],[20.0062,42.5067],[19.9362,42.5125],[19.9111,42.5035],[19.9007,42.4815],[19.8797,42.4899],[19.8693,42.4794],[19.8423,42.4755],[19.8333,42.4617],[19.8043,42.471],[19.7634,42.4992],[19.7386,42.5446],[19.7489,42.5839],[19.7703,42.5859],[19.7479,42.6123],[19.7508,42.6352],[19.7349,42.6407],[19.7235,42.6566],[19.7082,42.652],[19.6793,42.6244],[19.6663,42.6259],[19.6175,42.577],[19.6213,42.5402],[19.5676,42.5117],[19.5228,42.4403],[19.5039,42.4303],[19.4766,42.3904],[19.4302,42.37],[19.4194,42.3487],[19.4245,42.324],[19.3928,42.2973],[19.3524,42.2375],[19.2877,42.1808],[19.4069,42.1051],[19.3834,42.0703],[19.3746,42.0263],[19.3868,41.9957],[19.3822,41.9757],[19.3943,41.9655],[19.357,41.9549],[19.3565,41.9421],[19.3765,41.9225],[19.3484,41.9081],[19.3833,41.8887],[19.3755,41.8372],[19.2994,41.8864],[19.2278,41.9074],[19.1516,41.9449],[19.1547,41.9556],[19.1367,41.975],[19.1435,42.0107],[19.1353,42.0404],[19.0715,42.0817],[19.0703,42.0891],[19.0832,42.0952],[19.0785,42.1095],[19.0541,42.1303],[19.0089,42.1343],[18.9969,42.1542],[18.9648,42.172],[18.9621,42.1887],[18.905,42.2177],[18.8805,42.2736],[18.8483,42.2806],[18.8282,42.2709],[18.8096,42.2792],[18.8037,42.2706],[18.7914,42.2745],[18.7885,42.267],[18.7743,42.2652],[18.7047,42.3203],[18.705,42.3344],[18.6831,42.3567],[18.6974,42.3591],[18.6815,42.3801],[18.6589,42.3799],[18.6534,42.3587],[18.6374,42.3659],[18.6318,42.3592],[18.6082,42.3625],[18.5695,42.3867],[18.5723,42.3975],[18.5434,42.4145],[18.5554,42.4322],[18.5787,42.4349],[18.6709,42.4085],[18.6853,42.4069],[18.6768,42.4116],[18.6928,42.4181],[18.7077,42.4116],[18.6853,42.4369],[18.6789,42.4621],[18.6342,42.438]],[[18.7378,42.4672],[18.759,42.4442],[18.7587,42.4847],[18.6979,42.4823],[18.6871,42.4926],[18.6875,42.5107],[18.6588,42.4917],[18.7378,42.4672]]]}},{"type":"Feature","properties":{"kind":"border","id":"GR-LAND"},"geometry":{"type":"MultiLineString","coordinates":[[[20.1307,39.6466],[20.1209,39.6543],[20.1153,39.6565],[20.1139,39.6594],[20.1084,39.6606],[20.1047,39.659],[20.1042,39.658]],[[20.1005,39.6602],[20.1017,39.6623],[20.0927,39.666]],[[20.0916,39.6669],[20.0914,39.6677],[20.0901,39.6681]],[[20.0642,39.6778],[20.0604,39.6829],[20.0508,39.6816]],[[20.0477,39.6819],[20.044,39.6837],[20.0432,39.6825]],[[20.0148,39.6834],[20.013,39.6882],[20.0165,39.6898],[20.0088,39.6913],[20.0182,39.6963],[20.0258,39.6956],[20.0274,39.6989],[20.032,39.7006],[20.0341,39.6992],[20.0339,39.6937],[20.0385,39.6909],[20.0473,39.6935],[20.049,39.6907],[20.0584,39.6907],[20.0601,39.6887],[20.0667,39.6887],[20.073,39.6827],[20.0776,39.6801],[20.0882,39.6824],[20.094,39.6777],[20.0983,39.6704],[20.1049,39.6671],[20.1102,39.6666],[20.113,39.664],[20.1248,39.6568],[20.1363,39.6541],[20.1512,39.6553],[20.1738,39.6481],[20.1828,39.6489],[20.1903,39.645],[20.2191,39.6462],[20.2269,39.6482],[20.2279,39.6516],[20.2235,39.6557],[20.2182,39.6648],[20.2227,39.6712],[20.2274,39.6733],[20.231,39.6775],[20.2293,39.6817],[20.2314,39.6845],[20.2415,39.6837],[20.2502,39.6807],[20.2555,39.675],[20.265,39.6715],[20.2643,39.6836],[20.2669,39.6943],[20.273,39.6964],[20.2789,39.7009],[20.2804,39.7058],[20.2843,39.7113],[20.2939,39.7139],[20.2983,39.7133],[20.3062,39.7181],[20.3116,39.7243],[20.322,39.7279],[20.3227,39.7339],[20.3184,39.7376],[20.3086,39.7425],[20.3062,39.7452],[20.3063,39.7504],[20.299,39.7555],[20.2933,39.7625],[20.2924,39.7663],[20.2956,39.7698],[20.3033,39.7748],[20.3077,39.7818],[20.3053,39.7868],[20.2911,39.8013],[20.2901,39.8051],[20.3025,39.8124],[20.3046,39.8168],[20.3127,39.8132],[20.3165,39.8099],[20.3245,39.8105],[20.3308,39.808],[20.3485,39.8043],[20.3557,39.8004],[20.3585,39.7966],[20.3678,39.7895],[20.3738,39.7861],[20.3824,39.7858],[20.3842,39.7882],[20.3909,39.7891],[20.3941,39.7958],[20.4015,39.803],[20.407,39.8062],[20.4141,39.8157],[20.4132,39.8202],[20.4154,39.8285],[20.4122,39.8349],[20.4169,39.8406],[20.4086,39.8465],[20.4023,39.8543],[20.3924,39.8647],[20.388,39.8706],[20.3864,39.8762],[20.3827,39.8812],[20.3844,39.8896],[20.3754,39.8924],[20.3648,39.9042],[20.3644,39.9097],[20.3578,39.9134],[20.3513,39.9145],[20.3447,39.9178],[20.338,39.9234],[20.3421,39.9386],[20.3455,39.9441],[20.342,39.9528],[20.3353,39.9608],[20.3296,39.9643],[20.3257,39.972],[20.3206,39.9733],[20.3184,39.9764],[20.3128,39.9901],[20.3284,39.9914],[20.3483,39.9898],[20.3747,39.9886],[20.3806,39.9933],[20.3937,39.9955],[20.3989,40.0082],[20.3972,40.0111],[20.3985,40.0179],[20.4084,40.0259],[20.4114,40.0327],[20.4105,40.036],[20.4144,40.0394],[20.4103,40.044],[20.4091,40.0497],[20.4193,40.0588],[20.419,40.0614],[20.424,40.0625],[20.4321,40.0669],[20.4495,40.074],[20.4631,40.075],[20.47,40.0686],[20.4814,40.0646],[20.4878,40.0643],[20.4958,40.0669],[20.4987,40.0723],[20.5077,40.0751],[20.5085,40.0798],[20.5121,40.0832],[20.5163,40.0799],[20.5291,40.0758],[20.5407,40.0697],[20.5497,40.0639],[20.5577,40.0659],[20.56,40.0651],[20.5763,40.0668],[20.593,40.072],[20.601,40.0714],[20.6051,40.0754],[20.6162,40.0823],[20.6195,40.0833],[20.622,40.0894],[20.6273,40.0903],[20.6383,40.0898],[20.6389,40.0912],[20.649,40.0907],[20.658,40.0925],[20.6647,40.0963],[20.6712,40.0978],[20.6779,40.0958],[20.6767,40.1038],[20.6789,40.1078],[20.6776,40.1212],[20.6754,40.1256],[20.6796,40.1318],[20.6847,40.1425],[20.6922,40.148],[20.6941,40.1518],[20.6908,40.1549],[20.6832,40.1588],[20.6742,40.1654],[20.6761,40.1679],[20.6759,40.1743],[20.6808,40.1839],[20.679,40.19],[20.6891,40.1927],[20.6908,40.1952],[20.7043,40.1979],[20.708,40.2001],[20.7129,40.2107],[20.7203,40.2154],[20.7245,40.224],[20.7209,40.2305],[20.7201,40.2378],[20.7226,40.2408],[20.7207,40.2549],[20.7131,40.2588],[20.708,40.2673],[20.7093,40.2743],[20.7131,40.2833],[20.7217,40.2908],[20.7296,40.2962],[20.734,40.3093],[20.7385,40.3124],[20.7411,40.3119],[20.7465,40.3148],[20.7515,40.3136],[20.7643,40.3212],[20.7617,40.3274],[20.7584,40.3309],[20.7646,40.3424],[20.7751,40.3489],[20.7805,40.347]],[[20.7805,40.347],[20.7768,40.3492],[20.7767,40.3564],[20.7859,40.3585],[20.7914,40.3635],[20.7909,40.376],[20.7929,40.3844],[20.7902,40.3889],[20.7876,40.4002],[20.7924,40.4091],[20.7929,40.4142],[20.7862,40.4227],[20.7873,40.4277],[20.7964,40.434],[20.8058,40.4368],[20.8118,40.4404],[20.819,40.4383],[20.8229,40.4405],[20.8221,40.4451],[20.8258,40.4473],[20.8316,40.4558],[20.8333,40.462],[20.8322,40.4653],[20.8383,40.4727],[20.8401,40.4765],[20.8458,40.4796],[20.857,40.4779],[20.8628,40.4732],[20.8713,40.4706],[20.8754,40.473],[20.8846,40.4734],[20.8881,40.4752],[20.9004,40.474],[20.9057,40.4759],[20.9164,40.4709],[20.9173,40.4682],[20.9272,40.4626],[20.9311,40.4626],[20.9472,40.4662],[20.9555,40.4692],[20.9525,40.4728],[20.9535,40.4755],[20.9612,40.4844],[20.9683,40.4879],[20.9691,40.4984],[20.9642,40.5056],[20.9639,40.5112],[20.9659,40.5124],[20.9694,40.5205],[20.974,40.5189],[20.9785,40.5241],[21.0018,40.5358],[20.9977,40.5412],[21.0034,40.5451],[21.0062,40.5523],[21.0107,40.5514],[21.0157,40.5554],[21.0255,40.5566],[21.0328,40.5547],[21.043,40.5582],[21.043,40.5652],[21.0473,40.5717],[21.047,40.5773],[21.0403,40.5917],[21.0461,40.5944],[21.0488,40.6029],[21.0467,40.6044],[21.0454,40.6136],[21.0509,40.6163],[21.0558,40.6166],[21.0571,40.617],[21.0555,40.6273],[21.0522,40.6351],[21.0578,40.666],[21.0559,40.6693],[21.044,40.6819],[21.0364,40.6943],[21.0242,40.7091],[21.0097,40.722],[21.0001,40.7278],[20.9882,40.7321],[20.9831,40.7378],[20.9847,40.7468],[20.9841,40.755],[20.9812,40.7628],[20.9712,40.7631],[20.9627,40.7697],[20.9555,40.7705],[20.9653,40.7752],[20.9758,40.7818],[20.9831,40.7912],[20.9835,40.7999],[20.9832,40.8548],[21.0321,40.8545],[21.054,40.8541],[21.0809,40.8543],[21.0969,40.8538],[21.1202,40.8539],[21.1291,40.8557],[21.1431,40.8549],[21.1483,40.8572],[21.1572,40.8583],[21.1612,40.8635],[21.1702,40.8672],[21.1705,40.8694],[21.1767,40.8748],[21.1944,40.877],[21.2026,40.8826],[21.2112,40.8835],[21.2185,40.8812],[21.2215,40.8787],[21.2268,40.8787],[21.2422,40.8742],[21.2473,40.8683],[21.2506,40.8668],[21.2518,40.8625],[21.2605,40.8601],[21.2695,40.8647],[21.278,40.8642],[21.2901,40.8656],[21.2987,40.8656],[21.3156,40.8676],[21.3193,40.8705],[21.326,40.8703],[21.3387,40.8726],[21.3503,40.8769],[21.3617,40.8791],[21.3673,40.8834],[21.4172,40.918],[21.4402,40.9169],[21.4636,40.9067],[21.489,40.9119],[21.5135,40.9094],[21.5186,40.9083],[21.5256,40.9101],[21.5323,40.9069],[21.5336,40.9028],[21.5421,40.8929],[21.548,40.8885],[21.552,40.882],[21.5652,40.876],[21.5673,40.8679],[21.5722,40.8666],[21.5848,40.8695],[21.594,40.867],[21.5987,40.8709],[21.6035,40.8799],[21.6102,40.8795],[21.6192,40.8881],[21.6276,40.8881],[21.6316,40.8898],[21.6338,40.8958],[21.6421,40.898],[21.6488,40.9014],[21.6589,40.8996],[21.6717,40.8998],[21.6719,40.907],[21.6693,40.9097],[21.6705,40.9137],[21.6664,40.9162],[21.6709,40.9253],[21.6787,40.9323],[21.6823,40.934],[21.6839,40.9402],[21.6959,40.9419],[21.7001,40.9409],[21.7068,40.9432],[21.7105,40.94],[21.7197,40.9378],[21.7311,40.9302],[21.7372,40.9314],[21.7475,40.9301],[21.7568,40.9251],[21.7659,40.9286],[21.7768,40.9293],[21.7838,40.9286],[21.7886,40.9313],[21.7898,40.9358],[21.7964,40.9409],[21.8044,40.9444],[21.8031,40.9466],[21.8053,40.9525],[21.8009,40.9579],[21.8014,40.9666],[21.8006,40.9742],[21.8073,40.9801],[21.811,40.9812],[21.8156,40.9859],[21.8254,40.9882],[21.8325,40.9934],[21.8425,40.9945],[21.8482,40.9986],[21.8496,41.004],[21.8482,41.0069],[21.8542,41.0144],[21.8592,41.0164],[21.8602,41.0191],[21.8668,41.0221],[21.874,41.0227],[21.8736,41.026],[21.8843,41.0283],[21.882,41.0371],[21.8823,41.0412],[21.8971,41.0391],[21.9021,41.0414],[21.9142,41.0504],[21.91,41.055],[21.9095,41.0625],[21.9041,41.0688],[21.9071,41.0769],[21.9119,41.0862],[21.9108,41.0926],[21.9227,41.0957],[21.9299,41.1006],[21.9319,41.1041],[21.9481,41.1111],[21.9507,41.1106],[21.9547,41.1171],[21.9622,41.1181],[21.9692,41.1235],[21.9724,41.1288],[21.9761,41.13],[21.9784,41.1275],[21.9877,41.1282],[21.9911,41.1259],[21.9946,41.1275],[22.0028,41.1278],[22.0066,41.1306],[22.0248,41.1331],[22.0297,41.1332],[22.0343,41.1381],[22.04,41.1393],[22.047,41.1477],[22.0539,41.1477],[22.0614,41.1531],[22.0616,41.16],[22.0674,41.1564],[22.0735,41.1561],[22.0799,41.1518],[22.081,41.1488],[22.0786,41.1449],[22.0843,41.1425],[22.0876,41.138],[22.0932,41.1369],[22.0992,41.1383],[22.1016,41.1366],[22.1116,41.1341],[22.1201,41.1267],[22.1284,41.1234],[22.1338,41.1259],[22.1394,41.1249],[22.1487,41.1283],[22.155,41.1391],[22.1612,41.1422],[22.1646,41.1491],[22.1699,41.1561],[22.1863,41.1611],[22.1921,41.1621],[22.2054,41.1618],[22.2081,41.1664],[22.2145,41.17],[22.2247,41.1645],[22.2326,41.1649],[22.2367,41.1628],[22.2455,41.166],[22.2471,41.1643],[22.2541,41.1659],[22.2614,41.1659],[22.2634,41.1639],[22.2728,41.1625],[22.2744,41.1559],[22.2786,41.1537],[22.2854,41.1543],[22.2991,41.1501],[22.3048,41.1459],[22.3134,41.1467],[22.3169,41.1494],[22.3237,41.1515],[22.3209,41.1451],[22.3253,41.14],[22.3275,41.1323],[22.3257,41.1282],[22.3273,41.1222],[22.331,41.121],[22.3343,41.1207],[22.3335,41.1286],[22.3399,41.1308],[22.3433,41.1301],[22.3448,41.1333],[22.3524,41.1355],[22.3635,41.1324],[22.3682,41.1376],[22.3734,41.1378],[22.3811,41.1328],[22.3887,41.1324],[22.3917,41.1362],[22.396,41.1378],[22.4049,41.1363],[22.4017,41.1293],[22.4114,41.1248],[22.416,41.1197],[22.4245,41.12],[22.4311,41.1216],[22.4323,41.1192],[22.4415,41.12],[22.4439,41.1185],[22.45,41.1221],[22.4568,41.1214],[22.4639,41.1173],[22.4696,41.1201],[22.4794,41.1212],[22.4828,41.1197],[22.4875,41.122],[22.507,41.1261],[22.5289,41.1293],[22.5431,41.1303],[22.5626,41.1306],[22.5652,41.1264],[22.5726,41.1203],[22.5782,41.1182],[22.5911,41.1178],[22.6113,41.1289],[22.6172,41.1331],[22.6235,41.1405],[22.6367,41.1526],[22.6428,41.1598],[22.6432,41.1636],[22.6406,41.1686],[22.6447,41.1715],[22.6459,41.1766],[22.6494,41.1808],[22.6546,41.1809],[22.6571,41.1844],[22.6672,41.1859],[22.6684,41.1813],[22.6738,41.1783],[22.6776,41.1705],[22.6859,41.1639],[22.69,41.1578],[22.6968,41.1541],[22.7062,41.1432],[22.7121,41.1396],[22.7163,41.1438],[22.7284,41.1448],[22.7326,41.147],[22.7428,41.1596],[22.7467,41.163],[22.7486,41.1682],[22.7496,41.1765],[22.7578,41.255],[22.7608,41.2675],[22.756,41.2764],[22.7601,41.2829],[22.763,41.2846],[22.763,41.2896],[22.7659,41.293],[22.7642,41.2959],[22.7587,41.2982],[22.7572,41.3075],[22.7614,41.3182],[22.765,41.3237],[22.7781,41.3272],[22.7861,41.3267],[22.7975,41.3358],[22.7995,41.3411],[22.8022,41.3386],[22.8084,41.3383],[22.812,41.344],[22.8181,41.3368],[22.8282,41.3352],[22.8356,41.3376],[22.8474,41.3378],[22.8525,41.3396],[22.858,41.3385],[22.8624,41.3404],[22.878,41.3407],[22.8879,41.3414],[22.8917,41.339],[22.8983,41.3385],[22.9046,41.3408],[22.9139,41.3415],[22.9265,41.339],[22.9326,41.3407],[22.9529,41.3353],[22.9747,41.3334],[22.9818,41.336],[22.9954,41.3322],[23.0041,41.3311],[23.0212,41.3307],[23.0256,41.3334],[23.0393,41.332],[23.0494,41.3273],[23.0547,41.327],[23.0573,41.3249],[23.0644,41.3244],[23.0731,41.3215],[23.0866,41.3201],[23.099,41.3178],[23.1085,41.3177],[23.1169,41.321],[23.1327,41.3212],[23.1461,41.3204],[23.1627,41.3228],[23.1695,41.3212],[23.1733,41.3218],[23.181,41.3194],[23.1891,41.3231],[23.199,41.3229],[23.2085,41.3287],[23.2153,41.3304],[23.2251,41.3369],[23.2254,41.3418],[23.2313,41.3513],[23.2258,41.3675],[23.2318,41.372],[23.2321,41.3768],[23.2401,41.3769],[23.2434,41.3808],[23.2576,41.3828],[23.2641,41.3871],[23.2648,41.3902],[23.2771,41.3957],[23.2834,41.4004],[23.2921,41.4015],[23.3072,41.4017],[23.3118,41.3991],[23.3225,41.4008],[23.3262,41.3947],[23.3294,41.3854],[23.3334,41.3786],[23.3397,41.3646],[23.3468,41.3658],[23.3521,41.3683],[23.3615,41.3786],[23.3791,41.3834],[23.3846,41.3895],[23.3924,41.3929],[23.3951,41.392],[23.4021,41.4016],[23.413,41.4016],[23.4186,41.3986],[23.438,41.4064],[23.4569,41.4032],[23.462,41.4039],[23.4801,41.3989],[23.4975,41.4016],[23.5105,41.4016],[23.5172,41.4045],[23.5248,41.4053],[23.5344,41.4024],[23.5348,41.398],[23.5378,41.3942],[23.543,41.3926],[23.5504,41.3865],[23.5764,41.3902],[23.581,41.3899],[23.5943,41.3819],[23.5977,41.3775],[23.6062,41.3801],[23.6148,41.3758],[23.6246,41.3764],[23.6278,41.3777],[23.6357,41.3759],[23.6456,41.3802],[23.6479,41.3844],[23.6477,41.3936],[23.6514,41.3973],[23.6612,41.3999],[23.6663,41.4054],[23.6742,41.4107],[23.6773,41.409],[23.6931,41.4044],[23.7195,41.4067],[23.7306,41.4085],[23.7377,41.4054],[23.7427,41.4058],[23.7474,41.4033],[23.7561,41.4039],[23.7622,41.4011],[23.7627,41.3983],[23.7693,41.3966],[23.7831,41.4143],[23.7899,41.4179],[23.7904,41.4237],[23.7984,41.4345],[23.8015,41.4371],[23.8089,41.4388],[23.8124,41.4368],[23.8239,41.4361],[23.8321,41.4368],[23.8447,41.4411],[23.8516,41.4402],[23.8531,41.4446],[23.8575,41.4495],[23.8673,41.4498],[23.8688,41.4482],[23.8813,41.4542],[23.8867,41.453],[23.8898,41.4501],[23.8958,41.452],[23.9006,41.4561],[23.9062,41.4569],[23.9101,41.4703],[23.9082,41.4735],[23.909,41.4776],[23.9145,41.481],[23.9168,41.4782],[23.9328,41.4704],[23.9315,41.4675],[23.9337,41.4631],[23.9415,41.4612],[23.943,41.4492],[23.9527,41.4488],[23.9659,41.4391],[23.9742,41.4381],[23.9805,41.4406],[23.9824,41.4441],[23.9944,41.4495],[23.997,41.4555],[24.0027,41.4542],[24.008,41.4569],[24.0176,41.4679],[24.0214,41.4656],[24.0211,41.4603],[24.0238,41.4566],[24.029,41.4557],[24.0362,41.4571],[24.039,41.4518],[24.0475,41.4524],[24.0566,41.4609],[24.0689,41.4649],[24.073,41.4647],[24.0742,41.4693],[24.0693,41.4825],[24.0622,41.4854],[24.0646,41.4976],[24.0667,41.5011],[24.0597,41.5122],[24.0609,41.5158],[24.0598,41.5218],[24.0651,41.5279],[24.0706,41.5291],[24.0759,41.5329],[24.0775,41.5415],[24.084,41.5444],[24.0931,41.5469],[24.1013,41.5513],[24.1057,41.5476],[24.1071,41.5435],[24.1118,41.5434],[24.1224,41.5398],[24.1262,41.5419],[24.132,41.541],[24.1333,41.5348],[24.1408,41.5352],[24.1512,41.5391],[24.161,41.5366],[24.1607,41.5303],[24.166,41.5285],[24.1684,41.5253],[24.1755,41.5223],[24.1722,41.519],[24.174,41.5162],[24.182,41.5149],[24.1914,41.5182],[24.194,41.523],[24.1899,41.5315],[24.1961,41.534],[24.1973,41.5391],[24.2012,41.5389],[24.2036,41.5422],[24.2104,41.5451],[24.2087,41.5493],[24.2135,41.5527],[24.2175,41.5501],[24.2292,41.5476],[24.2314,41.5512],[24.2406,41.5579],[24.2411,41.5633],[24.2449,41.5637],[24.2498,41.5688],[24.2525,41.5679],[24.255,41.5715],[24.2602,41.5718],[24.2629,41.5745],[24.2667,41.571],[24.2719,41.5715],[24.2757,41.5691],[24.2711,41.5608],[24.2823,41.5543],[24.2872,41.5534],[24.2981,41.5455],[24.2981,41.5426],[24.3032,41.5389],[24.2962,41.5255],[24.3003,41.5253],[24.299,41.5202],[24.3019,41.5149],[24.3056,41.5125],[24.308,41.5149],[24.3148,41.5153],[24.3187,41.5201],[24.3285,41.5229],[24.3318,41.5223],[24.3376,41.5281],[24.3432,41.5262],[24.349,41.5269],[24.3571,41.524],[24.3621,41.518],[24.3694,41.5205],[24.3684,41.5235],[24.3725,41.5243],[24.3787,41.5325],[24.3845,41.5372],[24.393,41.5371],[24.3953,41.5403],[24.4019,41.5395],[24.4045,41.5414],[24.4104,41.5389],[24.4111,41.533],[24.4146,41.5305],[24.4253,41.5309],[24.4332,41.5282],[24.4401,41.5307],[24.4414,41.5282],[24.4485,41.5234],[24.4548,41.5252],[24.459,41.5297],[24.4622,41.5303],[24.4622,41.5373],[24.4603,41.5405],[24.4641,41.5462],[24.4719,41.5484],[24.4721,41.5515],[24.4834,41.556],[24.4829,41.558],[24.4897,41.558],[24.4945,41.5548],[24.4988,41.5596],[24.51,41.5585],[24.5139,41.5628],[24.521,41.5678],[24.5258,41.5691],[24.5358,41.5654],[24.5341,41.5576],[24.5434,41.5587],[24.5533,41.5516],[24.5494,41.5466],[24.5465,41.5402],[24.5507,41.5346],[24.5561,41.5309],[24.5582,41.5273],[24.5566,41.5239],[24.5604,41.5211],[24.5638,41.5135],[24.5625,41.5072],[24.5593,41.5027],[24.5627,41.501],[24.5642,41.495],[24.5691,41.4901],[24.5707,41.4816],[24.5739,41.4779],[24.5732,41.4744],[24.5838,41.4723],[24.5861,41.4678],[24.5961,41.466],[24.5997,41.4556],[24.5966,41.4532],[24.5961,41.4477],[24.5977,41.4409],[24.6012,41.4345],[24.6065,41.433],[24.6088,41.4266],[24.6136,41.4235],[24.6185,41.4238],[24.6279,41.4315],[24.6422,41.4301],[24.6489,41.434],[24.6571,41.4345],[24.6637,41.4315],[24.6575,41.4265],[24.6589,41.4201],[24.6555,41.4182],[24.6597,41.4152],[24.6609,41.4182],[24.6731,41.4176],[24.6759,41.4214],[24.6813,41.4245],[24.6882,41.4225],[24.6917,41.4184],[24.7023,41.4183],[24.7085,41.4202],[24.7171,41.4194],[24.7223,41.4159],[24.7258,41.4171],[24.7303,41.4155],[24.7358,41.4103],[24.7341,41.4049],[24.7355,41.397],[24.7427,41.3912],[24.7416,41.3879],[24.7459,41.3855],[24.7448,41.3824],[24.7617,41.3765],[24.7611,41.3719],[24.7702,41.3648],[24.7758,41.3639],[24.7842,41.3604],[24.7903,41.3592],[24.7911,41.3561],[24.8005,41.3487],[24.8126,41.349],[24.8167,41.3546],[24.816,41.3603],[24.8177,41.3639],[24.8155,41.3711],[24.82,41.3832],[24.8227,41.3863],[24.8192,41.3959],[24.8194,41.4009],[24.8273,41.4011],[24.8338,41.3984],[24.8488,41.3995],[24.8553,41.399],[24.8561,41.396],[24.8658,41.3912],[24.8697,41.3911],[24.8756,41.3936],[24.8818,41.3917],[24.8853,41.3981],[24.8949,41.4056],[24.9003,41.4075],[24.9174,41.4075],[24.9192,41.4029],[24.9231,41.4021],[24.9272,41.3969],[24.9391,41.389],[24.9398,41.3868],[24.9468,41.3856],[24.9521,41.3878],[24.9608,41.3826],[24.9644,41.3832],[24.9769,41.3761],[24.982,41.3777],[24.9887,41.3768],[24.9947,41.3744],[25.0175,41.3705],[25.022,41.368],[25.0284,41.3677],[25.034,41.3651],[25.0417,41.3674],[25.0512,41.3645],[25.0557,41.3648],[25.0569,41.3619],[25.064,41.3598],[25.0665,41.3518],[25.0746,41.3454],[25.077,41.3419],[25.0808,41.3412],[25.0827,41.3381],[25.092,41.3394],[25.0953,41.338],[25.0948,41.3348],[25.1026,41.3346],[25.1088,41.3408],[25.1163,41.343],[25.1258,41.3417],[25.1228,41.3346],[25.1238,41.3314],[25.1276,41.3303],[25.1279,41.3271],[25.1327,41.3229],[25.1378,41.3218],[25.1402,41.3235],[25.1448,41.3224],[25.1495,41.3179],[25.1487,41.315],[25.1599,41.3181],[25.1638,41.3111],[25.1711,41.3127],[25.1816,41.3075],[25.1787,41.3025],[25.1833,41.2978],[25.1898,41.2944],[25.1964,41.2959],[25.1987,41.293],[25.2086,41.2914],[25.2144,41.2831],[25.2185,41.2828],[25.2224,41.2793],[25.2256,41.269],[25.2233,41.2648],[25.2303,41.2591],[25.2335,41.2543],[25.2313,41.2489],[25.2392,41.2447],[25.252,41.2471],[25.2655,41.2447],[25.273,41.242],[25.2826,41.2365],[25.2874,41.2359],[25.2925,41.2431],[25.2969,41.2452],[25.3152,41.2445],[25.3254,41.2411],[25.3306,41.243],[25.3366,41.2415],[25.3424,41.2484],[25.3507,41.2486],[25.3564,41.2508],[25.3604,41.2562],[25.3682,41.2603],[25.3851,41.2569],[25.3895,41.2586],[25.3956,41.2584],[25.4036,41.2626],[25.4107,41.262],[25.4118,41.265],[25.4163,41.2662],[25.4236,41.2645],[25.4289,41.2649],[25.4316,41.275],[25.4422,41.2756],[25.4507,41.2805],[25.4563,41.2806],[25.4613,41.2836],[25.467,41.2824],[25.4707,41.2839],[25.4732,41.288],[25.4814,41.2871],[25.4892,41.2883],[25.4953,41.286],[25.5022,41.2873],[25.5189,41.2828],[25.5251,41.277],[25.5317,41.2783],[25.5347,41.2917],[25.5389,41.2982],[25.5434,41.3018],[25.5453,41.3107],[25.5575,41.3156],[25.5602,41.3187],[25.5681,41.3174],[25.5748,41.3193],[25.5769,41.3166],[25.5856,41.3137],[25.585,41.3108],[25.5927,41.3082],[25.5992,41.3086],[25.6087,41.3047],[25.6243,41.3042],[25.637,41.3117],[25.643,41.3114],[25.6466,41.3141],[25.6524,41.3133],[25.6581,41.3146],[25.6651,41.3087],[25.6771,41.3067],[25.6832,41.3069],[25.6843,41.3051],[25.6939,41.3017],[25.6957,41.297],[25.7017,41.2931],[25.7109,41.2916],[25.7141,41.2938],[25.7114,41.2994],[25.7118,41.3027],[25.7165,41.3093],[25.7182,41.317],[25.7297,41.319],[25.739,41.3186],[25.7446,41.3158],[25.7481,41.3189],[25.7579,41.3195],[25.7644,41.3244],[25.7685,41.3207],[25.775,41.3218],[25.7807,41.3209],[25.7846,41.3287],[25.7898,41.3325],[25.8022,41.3345],[25.8077,41.3372],[25.8134,41.3361],[25.8183,41.3382],[25.8229,41.3477],[25.8324,41.344],[25.8355,41.3403],[25.8467,41.3369],[25.8516,41.3325],[25.8541,41.3273],[25.8702,41.3288],[25.8726,41.3276],[25.8718,41.3193],[25.8688,41.3139],[25.8819,41.3048],[25.8848,41.3044],[25.8932,41.307],[25.8977,41.3054],[25.9076,41.3075],[25.9198,41.314],[25.9288,41.3151],[25.9343,41.3204],[25.9414,41.3209],[25.9454,41.3195],[25.9497,41.321],[25.9605,41.32],[25.9636,41.3186],[25.9758,41.3183],[25.984,41.3241],[25.9906,41.3266],[25.9973,41.326],[26.0039,41.3334],[26.0044,41.3389],[26.0115,41.3444],[26.0217,41.3464],[26.0311,41.3472],[26.0315,41.3494],[26.0389,41.3506],[26.0518,41.3468],[26.0622,41.3476],[26.0698,41.3494],[26.0809,41.346],[26.0922,41.3468],[26.0922,41.3513],[26.0994,41.3571],[26.0995,41.354],[26.1062,41.3579],[26.1126,41.3538],[26.1199,41.357],[26.1302,41.3541],[26.1322,41.355],[26.1338,41.3612],[26.1373,41.3684],[26.1369,41.3755],[26.1441,41.3757],[26.15,41.3802],[26.1496,41.3842],[26.1535,41.3889],[26.1587,41.3911],[26.1581,41.3992],[26.1622,41.403],[26.1641,41.4113],[26.1596,41.4196],[26.1687,41.4253],[26.1744,41.4342],[26.1835,41.4346],[26.1893,41.4385],[26.1972,41.4355],[26.1997,41.438],[26.1925,41.4473],[26.183,41.4546],[26.1747,41.4635],[26.1608,41.4698],[26.1548,41.475],[26.1531,41.4859],[26.1586,41.4868],[26.1629,41.4899],[26.171,41.4921],[26.1744,41.5003],[26.1719,41.5027],[26.1802,41.5149],[26.1857,41.5195],[26.1817,41.5239],[26.1828,41.5287],[26.1795,41.5444],[26.1761,41.5546],[26.158,41.5523],[26.147,41.5544],[26.1492,41.5876],[26.151,41.6003],[26.1527,41.6054],[26.1463,41.6062],[26.1426,41.6122],[26.1375,41.6133],[26.1377,41.6191],[26.1358,41.6245],[26.138,41.6306],[26.1313,41.6312],[26.1269,41.6294],[26.1233,41.6305],[26.1197,41.6235],[26.1058,41.6266],[26.0944,41.6266],[26.091,41.6315],[26.0929,41.6356],[26.09,41.6422],[26.083,41.6406],[26.0693,41.6508],[26.0691,41.6566],[26.0638,41.6621],[26.0642,41.6666],[26.0685,41.6724],[26.0659,41.6767],[26.0661,41.6826],[26.061,41.6879],[26.0632,41.6932],[26.0611,41.6988],[26.069,41.6988],[26.0687,41.7062],[26.0722,41.7106],[26.076,41.7106],[26.0832,41.7161],[26.0913,41.7167],[26.1036,41.7131],[26.1118,41.713],[26.1174,41.7218],[26.118,41.7253],[26.1227,41.7303],[26.1288,41.7328],[26.1407,41.7352],[26.1485,41.74],[26.1698,41.7482],[26.1755,41.7484],[26.1773,41.7425],[26.1808,41.74],[26.1942,41.735],[26.2026,41.7333],[26.2091,41.7334],[26.2158,41.7316],[26.226,41.7389],[26.2284,41.7482],[26.2328,41.747],[26.2318,41.7405],[26.2371,41.7347],[26.246,41.728],[26.2485,41.7226],[26.2574,41.7218],[26.2599,41.7196],[26.276,41.715],[26.2843,41.712],[26.2901,41.7127],[26.2983,41.7105],[26.3125,41.7103],[26.3195,41.7125],[26.3289,41.7172],[26.3345,41.7168],[26.3444,41.7121],[26.3585,41.7118],[26.3589,41.7093],[26.3677,41.7111],[26.3724,41.7081],[26.378,41.6986],[26.3865,41.6953],[26.3961,41.6947],[26.3993,41.6917],[26.408,41.6911],[26.414,41.6891],[26.422,41.6848],[26.4262,41.6857],[26.4347,41.6836],[26.4414,41.6864],[26.4477,41.6843],[26.4561,41.6745],[26.4705,41.6695],[26.475,41.6697],[26.4896,41.6728],[26.4929,41.6684],[26.4929,41.6636],[26.4962,41.6623],[26.4943,41.6586],[26.4893,41.6562],[26.4898,41.6529],[26.5051,41.642],[26.5274,41.6246],[26.5315,41.6204],[26.557,41.6136],[26.593,41.6093],[26.5947,41.6042],[26.6028,41.5985],[26.6019,41.594],[26.5951,41.5831],[26.6007,41.5749],[26.6008,41.5696],[26.595,41.5663],[26.5927,41.5587],[26.5956,41.5536],[26.603,41.5479],[26.6024,41.5424],[26.5931,41.5358],[26.5915,41.5262],[26.6017,41.5064],[26.6021,41.4997],[26.6047,41.4942],[26.5998,41.4818],[26.6014,41.4772],[26.6125,41.4648],[26.6137,41.4525],[26.6116,41.4385],[26.6131,41.4248],[26.6154,41.4223],[26.6254,41.4213],[26.63,41.4156],[26.6288,41.4108],[26.6308,41.4004],[26.6352,41.3846],[26.6307,41.3626],[26.6282,41.3475],[26.6224,41.3421],[26.604,41.3318],[26.5981,41.3273],[26.5888,41.3228],[26.5796,41.3222],[26.5711,41.3252],[26.5653,41.3291],[26.559,41.3362],[26.5525,41.3409],[26.5437,41.342],[26.5365,41.3383],[26.5282,41.3366],[26.5238,41.3402],[26.5179,41.339],[26.517,41.3341],[26.5125,41.3281],[26.5016,41.3294],[26.497,41.327],[26.4932,41.3197],[26.4915,41.3109],[26.4871,41.3058],[26.4839,41.3048],[26.4709,41.3038],[26.4649,41.3005],[26.4642,41.2915],[26.4601,41.2849],[26.4539,41.2814],[26.4468,41.2797],[26.4394,41.28],[26.4357,41.2788],[26.4251,41.2699],[26.4145,41.2636],[26.4087,41.2564],[26.4018,41.2529],[26.3919,41.2512],[26.3786,41.2522],[26.3594,41.2499],[26.3545,41.2522],[26.3469,41.2597],[26.3423,41.2601],[26.3356,41.2565],[26.3272,41.2561],[26.3238,41.2507],[26.3175,41.2446],[26.3169,41.2403],[26.319,41.234],[26.3239,41.2257],[26.3297,41.2219],[26.3303,41.2183],[26.3261,41.2148],[26.3218,41.2082],[26.3203,41.1964],[26.3246,41.187],[26.3214,41.1841],[26.3148,41.1839],[26.3089,41.1806],[26.3075,41.1749],[26.3113,41.168],[26.3134,41.16],[26.3266,41.1545],[26.3356,41.1465],[26.3359,41.1429],[26.332,41.1383],[26.3243,41.1367],[26.3208,41.133],[26.3236,41.1249],[26.3165,41.1233],[26.3076,41.1197],[26.304,41.115],[26.3055,41.1097],[26.3111,41.1085],[26.326,41.1122],[26.3307,41.1118],[26.336,41.107],[26.3329,41.0992],[26.3254,41.0929],[26.3129,41.085],[26.3108,41.0816],[26.3111,41.0767],[26.3147,41.0681],[26.323,41.0597],[26.3308,41.049],[26.3264,41.0433],[26.3295,41.0406],[26.3348,41.0408],[26.3409,41.0386],[26.3464,41.0302],[26.3518,41.0289],[26.3638,41.0221],[26.3641,41.0158],[26.3571,41.0003],[26.3494,40.9921],[26.3431,40.9891],[26.3358,40.99],[26.3289,40.9892],[26.3262,40.986],[26.3271,40.9767],[26.3453,40.9664],[26.3513,40.9581],[26.3596,40.9488],[26.3559,40.9427],[26.3527,40.9422],[26.3315,40.9435],[26.3231,40.9415],[26.3176,40.9385],[26.3058,40.9277],[26.3023,40.9272],[26.2951,40.9318],[26.2872,40.9296],[26.2852,40.9226],[26.3014,40.9052],[26.3016,40.9023],[26.298,40.8976],[26.2908,40.8933],[26.2812,40.893],[26.2759,40.8941],[26.2738,40.8969],[26.2654,40.9025],[26.2638,40.9074],[26.2647,40.9133],[26.2624,40.9148],[26.2577,40.9105],[26.2546,40.9051],[26.2529,40.8874],[26.2508,40.8819],[26.2471,40.8813],[26.2342,40.886],[26.227,40.8826],[26.2248,40.8865],[26.2298,40.8874],[26.2282,40.8922],[26.2228,40.8903],[26.2211,40.8841],[26.2238,40.8729],[26.2221,40.8659],[26.2167,40.8653],[26.206,40.8663],[26.2043,40.8639],[26.2079,40.8589],[26.2129,40.8585],[26.2141,40.8532],[26.2052,40.855],[26.203,40.8483],[26.2053,40.8459],[26.2095,40.8476],[26.2158,40.8464],[26.2176,40.8426],[26.2125,40.8406],[26.2132,40.8382],[26.2193,40.836],[26.2166,40.8331],[26.2118,40.8368],[26.2086,40.8347],[26.2091,40.8296],[26.2037,40.8304],[26.2006,40.827],[26.2037,40.822],[26.1946,40.8243],[26.1918,40.8266],[26.1892,40.821],[26.1858,40.8223],[26.1855,40.8194],[26.1798,40.8198],[26.18,40.8131],[26.1757,40.8177],[26.1694,40.8143],[26.1656,40.8092],[26.1621,40.8096],[26.1553,40.8069],[26.149,40.8012],[26.1454,40.7962],[26.1415,40.7939],[26.1417,40.789],[26.134,40.7795],[26.1306,40.7792],[26.1265,40.7706],[26.128,40.7636],[26.1273,40.7543],[26.1246,40.7491],[26.1237,40.7426],[26.1131,40.7396],[26.1053,40.7384],[26.0976,40.7357],[26.0894,40.7351],[26.0847,40.7303],[26.0714,40.7268],[26.0631,40.7287],[26.0539,40.7286],[26.0337,40.7295],[26.0288,40.7353],[26.0299,40.7383]],[[20.7833,40.3446],[20.7811,40.3465],[20.7805,40.347]],[[20.7805,40.347],[20.7833,40.3446]],[[20.7843,40.3438],[20.785,40.3434],[20.7833,40.3446]],[[20.7833,40.3446],[20.7843,40.3438]],[[27.0165,37.7034],[27.0162,37.7032],[27.0163,37.7035]]]}},{"type":"Feature","properties":{"kind":"athos","id":"ATHOS"},"geometry":{"type":"Polygon","coordinates":[[[24.0112,40.39262],[24.00936,40.39448],[24.00942,40.39548],[24.00811,40.39719],[24.00816,40.39818],[24.00557,40.40069],[24.0057,40.40131],[24.00471,40.4022],[24.0048,40.40276],[24.00385,40.40342],[24.00398,40.40421],[24.00322,40.40536],[24.00339,40.40837],[24.00245,40.40921],[24.00158,40.40896],[24.00117,40.41059],[23.99995,40.41118],[24.00028,40.41175],[23.99831,40.4154],[23.99933,40.41612],[23.99813,40.41812],[23.99852,40.41832],[23.99815,40.41917],[23.99716,40.42024],[23.99728,40.42125],[23.99883,40.42222],[23.99795,40.4237],[23.99895,40.42471],[23.99949,40.42671],[23.99918,40.4277],[23.99795,40.42862],[23.99655,40.42839],[23.99605,40.42882],[23.9969,40.4291],[23.99754,40.4302],[23.99613,40.43109],[23.99667,40.43241],[23.99602,40.43308],[23.99709,40.43307],[23.99871,40.43391],[24.0013,40.43348],[24.00217,40.43476],[24.00229,40.4361],[24.00154,40.43645],[24.00075,40.43805],[23.99914,40.4381],[23.99685,40.4398],[23.99416,40.43797],[23.9931,40.43925],[23.99437,40.44142],[23.994,40.44197],[23.9932,40.44194],[23.994,40.44332],[23.99517,40.44418],[23.9968,40.44356],[24.00066,40.44395],[24.00147,40.44495],[24.00163,40.44622],[24.00069,40.4471],[23.99946,40.4466],[24.00017,40.4483],[24.00306,40.44933],[24.00409,40.45071],[24.00581,40.45042],[24.00753,40.45174],[24.00898,40.45049],[24.01102,40.45034],[24.01153,40.44961],[24.01025,40.44892],[24.01054,40.44779],[24.00998,40.44676],[24.01188,40.44552],[24.01205,40.44516],[24.01111,40.44439],[24.01178,40.44371],[24.00982,40.44134],[24.01078,40.4401],[24.01581,40.43638],[24.02037,40.43506],[24.0201,40.43427],[24.02058,40.43331],[24.01951,40.43174],[24.02216,40.42955],[24.01924,40.42479],[24.02109,40.42345],[24.02116,40.42176],[24.02286,40.421],[24.02416,40.41937],[24.0241,40.41667],[24.02283,40.41551],[24.02367,40.41495],[24.02558,40.41194],[24.02572,40.41064],[24.02748,40.41054],[24.02784,40.41209],[24.02856,40.41222],[24.03111,40.41113],[24.03067,40.41026],[24.03117,40.40885],[24.03048,40.40826],[24.02927,40.40817],[24.02905,40.40613],[24.03163,40.40495],[24.03298,40.40495],[24.03255,40.40385],[24.03189,40.40353],[24.03217,40.40289],[24.03173,40.40242],[24.03392,40.39817],[24.03463,40.39769],[24.03787,40.39847],[24.03788,40.39796],[24.03872,40.39786],[24.0397,40.3983],[24.0402,40.39798],[24.03982,40.39766],[24.04102,40.39792],[24.04235,40.39691],[24.04298,40.39718],[24.0438,40.39554],[24.04237,40.39484],[24.04242,40.39336],[24.04728,40.39213],[24.04606,40.39103],[24.04795,40.39045],[24.04694,40.38991],[24.04811,40.38921],[24.04756,40.38834],[24.04868,40.38768],[24.04779,40.38659],[24.04835,40.38543],[24.05097,40.38554],[24.0531,40.38486],[24.0539,40.38356],[24.05338,40.38235],[24.05525,40.37862],[24.05834,40.37888],[24.06019,40.37812],[24.05999,40.37715],[24.06063,40.37541],[24.06206,40.37339],[24.06318,40.37328],[24.06365,40.37156],[24.06687,40.3671],[24.06972,40.36621],[24.07072,40.36661],[24.07544,40.36442],[24.07681,40.36443],[24.07789,40.36568],[24.07963,40.36625],[24.08046,40.36586],[24.07974,40.36525],[24.08014,40.36457],[24.08334,40.3651],[24.08462,40.36479],[24.08495,40.364],[24.08576,40.36417],[24.08629,40.36524],[24.08722,40.36542],[24.08739,40.36624],[24.08819,40.36575],[24.08923,40.36579],[24.08976,40.36664],[24.09052,40.36553],[24.0911,40.36553],[24.09107,40.36495],[24.09177,40.36506],[24.09289,40.36398],[24.09405,40.3645],[24.09368,40.36516],[24.09396,40.3649],[24.09424,40.36542],[24.09506,40.36548],[24.09633,40.36476],[24.09699,40.36238],[24.09969,40.36074],[24.10164,40.36051],[24.10327,40.35975],[24.10812,40.36036],[24.11132,40.35905],[24.11347,40.35922],[24.11454,40.36066],[24.11592,40.35995],[24.11807,40.3596],[24.12,40.36014],[24.12049,40.3618],[24.1215,40.36248],[24.12551,40.36138],[24.12647,40.36168],[24.12631,40.36061],[24.12736,40.36003],[24.12891,40.36055],[24.12969,40.36031],[24.13679,40.35524],[24.13683,40.35451],[24.1379,40.3546],[24.13871,40.35423],[24.13746,40.35443],[24.13694,40.35374],[24.13758,40.35409],[24.13731,40.3535],[24.13952,40.35282],[24.14164,40.35318],[24.14242,40.35271],[24.14457,40.35267],[24.14684,40.35319],[24.14707,40.35392],[24.14805,40.35389],[24.14834,40.35434],[24.14922,40.35393],[24.14936,40.35427],[24.1502,40.35407],[24.15166,40.35585],[24.15272,40.35577],[24.15277,40.35676],[24.15471,40.35726],[24.15445,40.35807],[24.15317,40.35892],[24.15518,40.35919],[24.15554,40.35873],[24.15651,40.35869],[24.16099,40.35676],[24.16478,40.35324],[24.16817,40.35173],[24.17063,40.34979],[24.17339,40.34951],[24.17512,40.35002],[24.17647,40.34915],[24.17769,40.34945],[24.18259,40.34901],[24.18512,40.34783],[24.18504,40.34672],[24.18619,40.34592],[24.19123,40.34358],[24.19185,40.34243],[24.19291,40.34196],[24.19251,40.34167],[24.1942,40.33904],[24.19364,40.33837],[24.19415,40.33761],[24.19372,40.33691],[24.19299,40.33683],[24.19096,40.33782],[24.19019,40.33743],[24.1905,40.33513],[24.18998,40.33442],[24.19074,40.33323],[24.18991,40.33245],[24.19006,40.3313],[24.18908,40.32989],[24.18936,40.32954],[24.18844,40.32952],[24.18786,40.329],[24.1878,40.328],[24.19006,40.32353],[24.19143,40.32224],[24.19263,40.32241],[24.19363,40.32166],[24.19428,40.32018],[24.19585,40.32005],[24.19576,40.31951],[24.20025,40.31829],[24.20043,40.31768],[24.20153,40.31721],[24.20495,40.31802],[24.20539,40.31713],[24.20644,40.31671],[24.2107,40.31612],[24.21082,40.31575],[24.21289,40.31578],[24.2136,40.31644],[24.24902,40.30898],[24.24959,40.30683],[24.25105,40.30554],[24.25016,40.30409],[24.25091,40.30284],[24.25064,40.3023],[24.25229,40.30205],[24.25336,40.30097],[24.25294,40.29734],[24.25637,40.29498],[24.26042,40.29344],[24.26223,40.29333],[24.26218,40.29273],[24.26595,40.29008],[24.26791,40.28945],[24.26919,40.28981],[24.2699,40.28924],[24.27077,40.2894],[24.27075,40.28817],[24.26992,40.28826],[24.26842,40.2876],[24.26784,40.28665],[24.26847,40.28622],[24.26655,40.28539],[24.26788,40.28334],[24.26716,40.28252],[24.26641,40.28282],[24.2663,40.28239],[24.26699,40.2823],[24.26635,40.28203],[24.26611,40.28086],[24.26733,40.2804],[24.2673,40.27789],[24.26781,40.27733],[24.27044,40.27701],[24.27085,40.27732],[24.2722,40.27629],[24.27153,40.27551],[24.27264,40.27335],[24.27489,40.27121],[24.27454,40.27016],[24.27871,40.26809],[24.27825,40.26733],[24.27901,40.26724],[24.27921,40.2668],[24.27873,40.26594],[24.27816,40.26593],[24.27881,40.26579],[24.2791,40.2646],[24.28034,40.26454],[24.27974,40.26413],[24.27962,40.26245],[24.2781,40.26148],[24.27884,40.26034],[24.27842,40.25892],[24.27973,40.25717],[24.28132,40.25687],[24.28162,40.25704],[24.28144,40.25734],[24.28137,40.25759],[24.28145,40.25758],[24.28214,40.25684],[24.28161,40.25521],[24.28309,40.25158],[24.28456,40.25061],[24.28443,40.24974],[24.28535,40.24757],[24.28742,40.24672],[24.28837,40.24506],[24.29025,40.24449],[24.29159,40.24474],[24.29188,40.24392],[24.29288,40.24392],[24.2932,40.243],[24.29378,40.24303],[24.29389,40.24207],[24.29549,40.24145],[24.29573,40.24024],[24.29706,40.24001],[24.29743,40.23897],[24.29973,40.23931],[24.30016,40.23882],[24.30168,40.23884],[24.30249,40.23923],[24.30333,40.2373],[24.30457,40.23707],[24.30588,40.23588],[24.30671,40.23595],[24.30728,40.23534],[24.30588,40.2341],[24.30656,40.23357],[24.30847,40.23344],[24.31023,40.23278],[24.31076,40.23212],[24.31122,40.23233],[24.31291,40.23098],[24.31329,40.22965],[24.31461,40.22972],[24.31551,40.22871],[24.31804,40.22815],[24.3184,40.22752],[24.31907,40.22766],[24.32189,40.22413],[24.32389,40.22444],[24.32493,40.22331],[24.3265,40.22334],[24.3296,40.2224],[24.333,40.21823],[24.33487,40.2175],[24.33523,40.21687],[24.3359,40.21688],[24.33705,40.21565],[24.33663,40.21519],[24.33699,40.21473],[24.33885,40.21477],[24.33814,40.21292],[24.33969,40.21257],[24.34064,40.21122],[24.3401,40.2092],[24.34047,40.20858],[24.33952,40.20799],[24.34142,40.20618],[24.34332,40.20684],[24.34252,40.2059],[24.34277,40.20521],[24.34369,40.20552],[24.34408,40.20506],[24.34489,40.2058],[24.34632,40.20505],[24.34619,40.20579],[24.34678,40.20603],[24.34872,40.20601],[24.34958,40.20526],[24.34952,40.20347],[24.35085,40.20287],[24.35063,40.20255],[24.35129,40.20201],[24.35334,40.20119],[24.35462,40.20137],[24.35559,40.20071],[24.35728,40.20094],[24.35851,40.19963],[24.36011,40.20047],[24.36117,40.19931],[24.36189,40.19926],[24.36487,40.19729],[24.37093,40.19505],[24.37102,40.19449],[24.37202,40.19443],[24.37195,40.19334],[24.3735,40.19346],[24.37451,40.19274],[24.37493,40.19162],[24.37403,40.19066],[24.37462,40.18939],[24.37595,40.18849],[24.3768,40.18877],[24.37663,40.18829],[24.37976,40.18662],[24.37991,40.18597],[24.3807,40.18611],[24.38118,40.18539],[24.38193,40.18538],[24.38263,40.18308],[24.38382,40.1824],[24.3834,40.18207],[24.3843,40.18221],[24.38533,40.18117],[24.38465,40.1804],[24.38503,40.17996],[24.38422,40.17961],[24.3843,40.17922],[24.3852,40.17934],[24.38627,40.17863],[24.38646,40.17804],[24.38571,40.17735],[24.38603,40.17681],[24.3855,40.17651],[24.38707,40.17682],[24.38816,40.17632],[24.38526,40.17452],[24.38518,40.17379],[24.38661,40.17282],[24.38988,40.17204],[24.38878,40.17146],[24.38951,40.17109],[24.3892,40.1702],[24.39,40.16979],[24.39072,40.17001],[24.39054,40.16946],[24.39107,40.16927],[24.39131,40.16951],[24.39156,40.16766],[24.39252,40.16721],[24.39258,40.16598],[24.39485,40.16283],[24.39542,40.16123],[24.39445,40.15918],[24.39479,40.15818],[24.39436,40.15742],[24.39491,40.15732],[24.39458,40.15671],[24.39705,40.15574],[24.3977,40.15597],[24.39787,40.15538],[24.39838,40.15578],[24.39594,40.1515],[24.39649,40.15155],[24.39659,40.15064],[24.3982,40.14854],[24.39699,40.14755],[24.39756,40.14693],[24.39749,40.14597],[24.39623,40.14474],[24.39677,40.14439],[24.3972,40.14252],[24.39914,40.14295],[24.39895,40.1408],[24.39809,40.14102],[24.3971,40.13959],[24.39621,40.1397],[24.39499,40.13878],[24.39392,40.13863],[24.39347,40.13754],[24.39296,40.13789],[24.39219,40.13733],[24.38893,40.13791],[24.38679,40.13908],[24.38435,40.13861],[24.38398,40.13718],[24.38314,40.13644],[24.38056,40.13604],[24.37785,40.13392],[24.37612,40.13323],[24.37298,40.13299],[24.37126,40.13338],[24.37113,40.13479],[24.36945,40.13521],[24.36799,40.13501],[24.36776,40.13456],[24.36693,40.13448],[24.36654,40.13351],[24.36467,40.13316],[24.36391,40.1337],[24.35949,40.13148],[24.35874,40.13059],[24.35993,40.12939],[24.35957,40.12901],[24.35569,40.12808],[24.3542,40.12711],[24.35316,40.12705],[24.35288,40.12966],[24.35235,40.12985],[24.35173,40.12889],[24.35092,40.12825],[24.35013,40.12838],[24.35005,40.12755],[24.34914,40.12725],[24.34657,40.12708],[24.34539,40.1279],[24.34518,40.12765],[24.34485,40.12811],[24.34329,40.12838],[24.34261,40.12796],[24.34057,40.12784],[24.33941,40.12665],[24.33957,40.12519],[24.33893,40.125],[24.33792,40.12643],[24.33633,40.12613],[24.33555,40.12532],[24.33619,40.1244],[24.33545,40.12485],[24.33575,40.12436],[24.33486,40.12394],[24.33463,40.12309],[24.33141,40.12201],[24.33031,40.12101],[24.32838,40.12145],[24.32733,40.12072],[24.32498,40.12042],[24.32221,40.12104],[24.31963,40.12085],[24.31891,40.12011],[24.31959,40.11886],[24.31919,40.1185],[24.31654,40.11723],[24.31644,40.11806],[24.31514,40.11807],[24.31544,40.1166],[24.31266,40.11587],[24.31269,40.11555],[24.31148,40.11572],[24.31144,40.11612],[24.3114,40.11576],[24.31,40.11723],[24.30842,40.11568],[24.30804,40.11586],[24.30544,40.11451],[24.3039,40.11512],[24.30372,40.11629],[24.30176,40.11558],[24.30184,40.11633],[24.30028,40.11754],[24.30011,40.11831],[24.29914,40.11861],[24.29824,40.12041],[24.29722,40.12125],[24.29754,40.12151],[24.29681,40.12179],[24.29691,40.12268],[24.29579,40.12262],[24.29301,40.12409],[24.29331,40.12502],[24.29251,40.12536],[24.29254,40.12659],[24.29131,40.12706],[24.29256,40.12715],[24.29198,40.1275],[24.29298,40.1282],[24.29076,40.12783],[24.2905,40.12814],[24.28949,40.1276],[24.28891,40.12803],[24.29029,40.12906],[24.28957,40.13014],[24.29127,40.13175],[24.29201,40.13322],[24.29182,40.13603],[24.29091,40.13671],[24.2916,40.13726],[24.29055,40.13786],[24.29106,40.13827],[24.29085,40.13919],[24.29164,40.14078],[24.2911,40.14145],[24.29183,40.14321],[24.28967,40.14452],[24.28992,40.14481],[24.2887,40.14628],[24.28867,40.14745],[24.28573,40.14919],[24.28546,40.15051],[24.28389,40.15203],[24.28415,40.15297],[24.285,40.15357],[24.2844,40.15423],[24.28476,40.15528],[24.2805,40.16041],[24.27944,40.16333],[24.27778,40.16431],[24.27743,40.1654],[24.27463,40.16592],[24.27484,40.16646],[24.27379,40.16835],[24.27181,40.16951],[24.27039,40.16922],[24.26995,40.16969],[24.26903,40.16953],[24.26745,40.17021],[24.26678,40.16982],[24.26682,40.17039],[24.26541,40.17052],[24.26523,40.17141],[24.26464,40.17112],[24.26343,40.17153],[24.26316,40.17291],[24.26165,40.17269],[24.26216,40.17325],[24.26087,40.17389],[24.26018,40.17527],[24.25894,40.17573],[24.25892,40.17638],[24.25754,40.17795],[24.25773,40.1788],[24.25544,40.17923],[24.2556,40.17995],[24.25694,40.18083],[24.25569,40.18174],[24.25374,40.18148],[24.25057,40.18182],[24.24958,40.18273],[24.24904,40.18471],[24.24661,40.18651],[24.24467,40.18664],[24.24443,40.18634],[24.24428,40.18672],[24.24288,40.18694],[24.24008,40.1866],[24.23541,40.18734],[24.23427,40.18712],[24.23263,40.18804],[24.23145,40.18782],[24.23081,40.18836],[24.23083,40.18915],[24.2289,40.18941],[24.22793,40.19074],[24.22694,40.1906],[24.22685,40.19184],[24.22572,40.19223],[24.22609,40.19281],[24.22501,40.19356],[24.2243,40.19337],[24.22428,40.19393],[24.22372,40.19381],[24.22362,40.1946],[24.22254,40.19515],[24.21911,40.19959],[24.21798,40.20266],[24.21839,40.20633],[24.22087,40.20995],[24.22172,40.21213],[24.22145,40.21455],[24.22284,40.2159],[24.22162,40.21894],[24.21916,40.22124],[24.21912,40.22246],[24.21179,40.22803],[24.2097,40.22852],[24.20843,40.22943],[24.20833,40.23074],[24.20687,40.23122],[24.20683,40.23184],[24.2049,40.23297],[24.20412,40.23422],[24.20289,40.23464],[24.20222,40.23567],[24.20005,40.23651],[24.20051,40.23658],[24.20026,40.23815],[24.19939,40.23901],[24.19574,40.23915],[24.1937,40.24042],[24.18772,40.24752],[24.18542,40.24904],[24.18288,40.25431],[24.18118,40.25618],[24.18051,40.25675],[24.17797,40.25744],[24.17835,40.25767],[24.17533,40.26148],[24.17338,40.26511],[24.17154,40.26618],[24.17198,40.26642],[24.17136,40.26856],[24.1696,40.26984],[24.16937,40.27106],[24.16747,40.27419],[24.16538,40.2761],[24.16396,40.27909],[24.16146,40.28104],[24.15949,40.28179],[24.15724,40.28192],[24.15776,40.28288],[24.15642,40.28395],[24.15177,40.2842],[24.14978,40.28539],[24.14587,40.28508],[24.14301,40.28573],[24.13832,40.28575],[24.13291,40.28501],[24.12926,40.28669],[24.12769,40.28805],[24.12465,40.28813],[24.12301,40.28885],[24.11807,40.28922],[24.11491,40.28894],[24.1139,40.28937],[24.10653,40.28887],[24.10315,40.28909],[24.09146,40.28651],[24.08794,40.28683],[24.08631,40.28772],[24.08221,40.2886],[24.0791,40.28809],[24.07802,40.28991],[24.07518,40.29042],[24.07336,40.29148],[24.07116,40.29188],[24.07122,40.29226],[24.06885,40.29332],[24.06494,40.29285],[24.06285,40.29394],[24.05756,40.29457],[24.04724,40.29203],[24.03962,40.29305],[24.03775,40.29415],[24.0352,40.29474],[24.03178,40.29708],[24.02981,40.29766],[24.02589,40.29981],[24.02418,40.29985],[24.02268,40.30072],[24.02112,40.30083],[24.015,40.30496],[24.01136,40.30996],[24.00915,40.31154],[24.00622,40.31321],[24.00473,40.31338],[24.00426,40.31399],[24.00069,40.31498],[24.00139,40.31532],[24.00315,40.31516],[24.00676,40.31789],[24.00707,40.32037],[24.00808,40.32193],[24.00786,40.32317],[24.00889,40.32358],[24.00873,40.32425],[24.00928,40.3249],[24.01131,40.32596],[24.0109,40.32624],[24.01143,40.3274],[24.01257,40.32768],[24.01457,40.32925],[24.01531,40.33195],[24.01282,40.33597],[24.01254,40.33935],[24.01153,40.34247],[24.01226,40.34542],[24.01571,40.34933],[24.01683,40.35141],[24.01265,40.35364],[24.00994,40.35355],[24.00858,40.3528],[24.00821,40.35337],[24.00472,40.35461],[24.00376,40.35672],[24.0044,40.35781],[24.00112,40.36385],[24.00165,40.36686],[24.00124,40.36768],[24.0047,40.36795],[24.00351,40.37051],[24.00355,40.37311],[24.00261,40.37403],[24.00359,40.37504],[24.00301,40.37629],[24.00376,40.37905],[24.00288,40.37956],[24.0037,40.37979],[24.00444,40.38136],[24.00399,40.38168],[24.00426,40.38279],[24.00594,40.38486],[24.00681,40.38499],[24.00705,40.38566],[24.0088,40.38471],[24.00985,40.38511],[24.00999,40.38726],[24.00942,40.38809],[24.01073,40.38927],[24.0112,40.39262]]]}}]}